,name,address,city,tel
0,백련산힐스테이트2차아파트경로당,은평구 응암동 백련산힐스테이트2차아파트 ,은평구,없음
1,백련산힐스테이트1차아파트경로당,은평구 응암동 ,은평구,없음
2,구립양평3가경로당,영등포구 양평동3가 36번지 ,영등포구,없음
3,큰덕경로당,마포구 공덕동 ,마포구,없음
4,마곡엠밸리6단지경로당,강서구 마곡동 ,강서구,없음
5,흐능날 경로당,서초구 내곡동 1-3026번지 ,서초구,없음
6,공덕자이제2경로당,마포구 아현동 ,마포구,없음
7,마곡엠밸리3단지 경로당,강서구 마곡동 ,강서구,없음
8,북한산푸르지오아파트경로당,은평구 녹번동 ,은평구,없음
9,신대방벽산아파트경로당,동작구 신대방동 ,동작구,없음
10,흑석한강센트레빌2차(아)경로당,동작구 흑석동 ,동작구,없음
11,흑석한강푸르지오(아)경로당,동작구 흑석동 ,동작구,없음
12,보라매e편한세상아파트 경로당,동작구 신대방동 720번지 ,동작구,없음
13,보라매e편한세상아파트경로당,동작구 신대방동 ,동작구,없음
14,형인한강(아)경로당,동작구 노량진동 ,동작구,없음
15,상도4동 경로당,동작구 상도동 ,동작구,없음
16,상도엠코타운경로당,동작구 상도동 ,동작구,없음
17,상도엠코타운 애스톤파크 아파트 경로당,동작구 상도동 ,동작구,없음
18,학수경로당,동작구 사당동 ,동작구,없음
19,상도패리스아파트 경로당,동작구 상도동 ,동작구,없음
20,동원베네스트아파트 경로당,동작구 상도동 ,동작구,없음
21,동아아파트 경로당,동작구 상도동 ,동작구,없음
22,흑석한강센트레빌1차아파트 경로당,동작구 흑석동 ,동작구,없음
23,이수교KCC스위첸아파트 경로당,동작구 동작동 ,동작구,없음
24,동작동금강KCC아파트 경로당,동작구 동작동 ,동작구,없음
25,브라운스톤상도아파트 경로당,동작구 상도동 527번지 ,동작구,없음
26,사당동진흥아파트경로당,동작구 사당동 1142번지 ,동작구,없음
27,사당휴먼시아 경로당,동작구 사당동 1154번지 ,동작구,없음
28,삼호그린아파트 경로당,동작구 사당동 1138번지 ,동작구,없음
29,노량진1동 경로당,동작구 노량진동 224-6번지 ,동작구,없음
30,상도Encrypted,동작구 상도동 ,동작구,없음
31,상도동살피재경로당,동작구 상도동 126-8번지 ,동작구,없음
32,신일해피트리아파트경로당,동작구 대방동 510번지 ,동작구,없음
33,사당케이씨씨아파트경로당,동작구 사당동 1139번지 ,동작구,없음
34,합정경로당,마포구 합정동 ,마포구,없음
35,서초포레스타3단지(아) 경로당,서초구 신원동 서초포레스타3단지(아) 경로당 ,서초구,없음
36,LH강남아이파크(아)경로당,강남구 자곡동 ,강남구,없음
37,은빛홍삼경로당,서대문구 홍제동 ,서대문구,없음
38,DMC파크뷰자이2단지경로당,서대문구 남가좌동 ,서대문구,없음
39,홍제금호어울림경로당,서대문구 홍제동 103동 ,서대문구,없음
40,금호한신실버문화센터,성동구 금호동3가 금호동한신휴플러스아파트 ,성동구,없음
41,신그호파크자이(아) 경로당,성동구 금호동2가 ,성동구,없음
42,신금호파크자이(아) 경로당,성동구 금호동2가 ,성동구,없음
43,마포래미안푸르지오@1단지경로당,마포구 아현동 ,마포구,없음
44,민들레경로당,강서구 화곡동 ,강서구,없음
45,마곡엠밸리7단지아파트경로당,강서구 마곡동 706동동 ,강서구,없음
46,마포펜트라우스@경로당,마포구 신공덕동 ,마포구,없음
47,텐즈힐 열린 경로당,성동구 하왕십리동 ,성동구,없음
48,텐즈힐 행복 경로당,성동구 하왕십리동 ,성동구,없음
49,래미안트윈파크아파트 경로당,동작구 본동 ,동작구,없음
50,해피 경로당,동작구 흑석동 ,동작구,없음
51,푸르지오아파트1단지경로당,서대문구 북아현동 ,서대문구,없음
52,푸르지오아파트2단지경로당,서대문구 북아현동 ,서대문구,없음
53,북한산래미안205동경로당,은평구 불광동 1층 205동 ,은평구,없음
54,마포래미안푸르지오3단지@경로당,마포구 아현동 ,마포구,없음
55,서초포레스타6단지(아)경로당,서초구 신원동 ,서초구,없음
56,방배서리풀이편한세상실버클럽 경로당,서초구 방배동 ,서초구,없음
57,동원경로당,종로구 숭인동 ,종로구,없음
58,마포동원베네스트아파트 경로당,마포구 도화동 564번지 ,마포구,없음
59,서강쌍용예가 경로당,마포구 창전동 444번지 ,마포구,없음
60,브라운스톤 공덕 경로당,마포구 신공덕동 170번지 ,마포구,없음
61,성산1동2 경로당,마포구 성산동 253-12번지 ,마포구,없음
62,월드컵 I-PARK 경로당,마포구 성산동 667번지 ,마포구,없음
63,상암경로문화센터,마포구 상암동 115-17번지 ,마포구,없음
64,대동 경로당,마포구 도화동 196-25번지 ,마포구,없음
65,한마음 경로당,마포구 신공덕동 160번지 208 208동 ,마포구,없음
66,염리삼성래미안(아) 경로당,마포구 염리동 520번지 ,마포구,없음
67,밤섬현대(아) 경로당,마포구 현석동 220번지 ,마포구,없음
68,상암월드컵8단지 경로당,마포구 상암동 상암월드컵8단지 ,마포구,없음
69,서강엘지(아) 경로당,마포구 신정동 30번지 ,마포구,없음
70,용강 대림2차@ 경로당,마포구 용강동 501번지 ,마포구,없음
71,월드컵 참누리 아파트 경로당,마포구 중동 397번지 ,마포구,없음
72,염산은빛경로당,마포구 염리동 14-18번지 ,마포구,없음
73,ESA1단지아파트 경로당,도봉구 방학동 718-7번지 ,도봉구,없음
74,신도브래뉴아파트경로당,도봉구 창동 820번지 ,도봉구,없음
75,북한산아이파크아파트경로당,도봉구 창동 825번지 ,도봉구,없음
76,서울가든아파트경로당,도봉구 도봉동 555번지 ,도봉구,없음
77,오봉경로당,도봉구 도봉동 619-10번지 ,도봉구,없음
78,도봉주공아파트경로당,도봉구 도봉동 649번지 ,도봉구,없음
79,도봉파크빌2단지경로당,도봉구 도봉동 647번지 ,도봉구,없음
80,도봉파크빌3단지경로당,도봉구 도봉동 644번지 ,도봉구,없음
81,동아에코빌아파트경로당,도봉구 도봉동 654번지 ,도봉구,없음
82,서광아파트경로당,도봉구 도봉동 643번지 ,도봉구,없음
83,래미안도봉아파트경로당,도봉구 도봉동 655번지 ,도봉구,없음
84,현대3차아파트경로당,도봉구 쌍문동 719번지 ,도봉구,없음
85,호수경로당,도봉구 쌍문동 513-2번지 ,도봉구,없음
86,북한산월드메르디앙아파트경로당,도봉구 쌍문동 728번지 ,도봉구,없음
87,효창파크푸르지오아파트 경로당,용산구 효창동 274번지 효창파크푸르지오아파트 104동 1층 ,용산구,없음
88,용산 푸르지오파크타운 경로당,용산구 동빙고동 316번지 용산 푸르지오파크타운 아파트 207동 1층 ,용산구,없음
89,리버힐삼성아파트제1,용산구 산천동 삼성리버힐아파트 ,용산구,없음
90,우리들경로당,용산구 보광동 ,용산구,없음
91,효원경로당,용산구 원효로1가 108-38번지 ,용산구,없음
92,보광삼성리버빌아파트경로당,용산구 보광동 151번지 101 101동 ,용산구,없음
93,한강맨션경로당,용산구 이촌동 300-213번지 ,용산구,없음
94,세방경로당,용산구 신창동 102번지 ,용산구,없음
95,한강우람경로당,용산구 한강로2가 296-1번지 ,용산구,없음
96,파크자이경로당,용산구 한강로1가 50-1번지 ,용산구,없음
97,삼성리버스위트아파트 경로당,용산구 이촌동 426번지 ,용산구,없음
98,이화경로당,용산구 이태원동 128-7번지 ,용산구,없음
99,경동아파트경로당,동작구 본동 484번지 ,동작구,없음
100,한신휴플러스아파트경로당,동작구 본동 487번지 ,동작구,없음
101,사당롯데캐슬2차 경로당,동작구 사당동 1149번지 ,동작구,없음
102,용산파크이편한세상,용산구 한강로2가 ,용산구,없음
103,한남현대홈타운,용산구 한남동 807번지 ,용산구,없음
104,한남힐스테이트 경로당,용산구 한남동 807번지 ,용산구,없음
105,오복,용산구 보광동 217-10번지 ,용산구,없음
106,새로나,용산구 보광동 ,용산구,없음
107,효창한신아파트경로당,용산구 효창동 5-145번지 ,용산구,없음
108,효창한신아파트경로당,용산구 효창동 5-145번지 ,용산구,없음
109,후암미주아파트경로당,용산구 후암동 423-1번지 4 4동 ,용산구,없음
110,후암미주아파트경로당,용산구 후암동 미주아파트 ,용산구,없음
111,우사단 경로당,용산구 보광동 265-545번지 ,용산구,없음
112,우사단 경로당,용산구 보광동 265-545번지 ,용산구,없음
113,브라운스톤 경로당,용산구 용문동 ,용산구,없음
114,CJ나인파크 경로당,용산구 문배동 ,용산구,없음
115,산천경로당,용산구 산천동 204번지 16통7반 103 103동 703호,용산구,없음
116,산천경로당,용산구 산천동 205번지 16통7반 ,용산구,없음
117,은평뉴타운상림마을3단지아파트경로당,은평구 진관동 13번지 은평뉴타운상림마을 3단지아파트 708동 1층 ,은평구,없음
118,은평뉴타운상림마을제10단지경로당,은평구 진관동 12번지 ,은평구,없음
119,은평뉴타운상림마을4단지아파트경로당,은평구 진관동 6번지 ,은평구,없음
120,은평뉴타운상림마을11단지아파트경로당,은평구 진관동 15번지 ,은평구,없음
121,녹번현대녹색경로당,은평구 녹번동 100-55번지 ,은평구,없음
122,은평뉴타운상림마을 1단지아파트 경로당,은평구 진관동 19번지 ,은평구,없음
123,은평뉴타운상림마을 13단지경로당,은평구 진관동 11번지 ,은평구,없음
124,은평뉴타운 상림마을 12단지아파트 경로당,은평구 진관동 20번지 ,은평구,없음
125,브라운스톤아파트경로당,은평구 구산동 159번지 ,은평구,없음
126,삼익아파트경로당,은평구 불광동 217-9번지 ,은평구,없음
127,삼개경로당,"마포구 도화동 188,189번지 ",마포구,없음
128,동양아파트경로당,동작구 흑석동 328번지 ,동작구,없음
129,본동삼성래미안아파트 경로당,동작구 본동 492번지 ,동작구,없음
130,래미안상도3차아파트 경로당,동작구 상도동 431번지 ,동작구,없음
131,한신휴플러스101동아파트,동작구 본동 488번지 ,동작구,없음
132,보라매코오롱하늘채아파트경로당,동작구 대방동 509번지 ,동작구,없음
133,남해오네뜨아파트경로당,동작구 사당동 1143번지 ,동작구,없음
134,숲속마을신동아파밀리에아파트 경로당,동작구 신대방동 717번지 ,동작구,없음
135,극동강변아파트경로당,동작구 본동 ,동작구,없음
136,경남교수아파트경로당,동작구 신대방동 710번지 ,동작구,없음
137,신동아 우리아파트,동작구 노량진동 327번지 ,동작구,없음
138,중계서부경로당,노원구 중계동 504-1번지 ,노원구,없음
139,팔각정경로당,노원구 중계동 507-3번지 ,노원구,없음
140,건영2차아파트경로당,노원구 중계동 102-1번지 ,노원구,없음
141,현대2차아파트경로당,노원구 중계동 435-1번지 ,노원구,없음
142,현대1차아파트경로당,노원구 상계동 1048번지 ,노원구,없음
143,중계5단지경로당,노원구 중계동 ,노원구,없음
144,중계2단지아파트경로당,노원구 중계동 512번지 ,노원구,없음
145,중계4단지아파트경로당,노원구 중계동 511-2번지 ,노원구,없음
146,주공2단지아파트경로당,노원구 중계동 ,노원구,없음
147,주공4단지아파트경로당,노원구 중계동 358-2번지 ,노원구,없음
148,한신1차아파트경로당,노원구 상계동 135-16번지 ,노원구,없음
149,한신2차아파트경로당,노원구 상계동 451번지 ,노원구,없음
150,주공5단지경로당,노원구 상계동 720번지 ,노원구,없음
151,한청경로당,노원구 하계동 284번지 ,노원구,없음
152,송암경로당,노원구 상계동 138-131번지 ,노원구,없음
153,미도아파트경로당,노원구 상계동 766번지 ,노원구,없음
154,주공1단지경로당,노원구 상계동 767번지 ,노원구,없음
155,주공2단지경로당,노원구 상계동 740번지 ,노원구,없음
156,주공3단지경로당,노원구 상계동 737번지 ,노원구,없음
157,주공4단지경로당,노원구 상계동 751번지 ,노원구,없음
158,주공6단지경로당,노원구 상계동 720번지 ,노원구,없음
159,한양아파트경로당,노원구 상계동 757번지 ,노원구,없음
160,주공10단지경로당,노원구 상계동 666번지 ,노원구,없음
161,주공15단지경로당,노원구 상계동 624번지 ,노원구,없음
162,주공16단지경로당,노원구 상계동 624번지 ,노원구,없음
163,보람아파트경로당,노원구 상계동 685번지 ,노원구,없음
164,주공12단지경로당,노원구 상계동 647번지 ,노원구,없음
165,대림아파트경로당,노원구 상계동 695번지 ,노원구,없음
166,주공7단지경로당,노원구 상계동 692번지 ,노원구,없음
167,주공8단지경로당,노원구 상계동 680번지 ,노원구,없음
168,주공9단지경로당,노원구 상계동 670번지 ,노원구,없음
169,미성아파트경로당,노원구 하계동 280번지 ,노원구,없음
170,하계6단지경로당,노원구 하계동 273번지 ,노원구,없음
171,현우경로당,노원구 하계동 272번지 ,노원구,없음
172,경남아파트경로당,노원구 중계동 505번지 ,노원구,없음
173,롯데아파트경로당,노원구 중계동 505번지 ,노원구,없음
174,선곡경로당,노원구 월계동 472-8번지 ,노원구,없음
175,월계1동경로당,노원구 월계동 66-5번지 ,노원구,없음
176,도암경로당,노원구 상계동 68-50번지 ,노원구,없음
177,대동경로당,노원구 월계동 880-1번지 ,노원구,없음
178,녹천경로당,노원구 월계동 673-5번지 ,노원구,없음
179,대림아파트제2경로당,동대문구 이문동 225-1번지 ,동대문구,없음
180,기곡경로당,동대문구 전농동 150-1번지 ,동대문구,없음
181,연수경로당,동대문구 답십리동 4-163번지 ,동대문구,없음
182,래미안이문2차아파트경로당,동대문구 이문동 311번지 ,동대문구,없음
183,휘경롯데낙천대아파트경로당,동대문구 휘경동 109번지 ,동대문구,없음
184,이문3동쌍용아파트경로당,동대문구 이문동 64번지 ,동대문구,없음
185,답십리5동경로당,동대문구 답십리동 320-75번지 ,동대문구,없음
186,장안1동안골경로당,동대문구 장안동 402번지 ,동대문구,없음
187,이문3동현대아파트제2경로당,동대문구 이문동 54-1번지 ,동대문구,없음
188,전농3동 삼성아파트제2경로당,동대문구 전농동 155-1번지 ,동대문구,없음
189,전농3동 Sk@제2경로당,동대문구 전농동 10-1번지 ,동대문구,없음
190,휘경1동 동양아파트경로당,동대문구 휘경동 117번지 ,동대문구,없음
191,답십리대우아파트경로당,동대문구 답십리동 111번지 ,동대문구,없음
192,휘경2동주공1단지아파트경로당,동대문구 휘경동 57번지 ,동대문구,없음
193,홍릉동부제2경로당,동대문구 청량리동 213번지 ,동대문구,없음
194,장미경로당,동대문구 용두동 103-3번지 ,동대문구,없음
195,계산경로당,노원구 상계동 1096-50번지 ,노원구,없음
196,수암경로당,노원구 상계동 77-47번지 ,노원구,없음
197,동신아파트경로당,노원구 월계동 436-0번지 ,노원구,없음
198,청솔경로당,노원구 상계동 181-14번지 ,노원구,없음
199,라이프아파트경로당,노원구 월계동 845번지 ,노원구,없음
200,현대아파트경로당,노원구 공릉동 230번지 ,노원구,없음
201,우성아파트경로당,노원구 공릉동 254번지 ,노원구,없음
202,삼미아파트경로당,노원구 월계동 13번지 ,노원구,없음
203,공릉2동경로당,노원구 공릉동 334-6번지 ,노원구,없음
204,월천아파트경로당,노원구 월계동 12-1번지 ,노원구,없음
205,미성아파트경로당,노원구 월계동 17번지 ,노원구,없음
206,하계경로당,노원구 하계동 65-41번지 ,노원구,없음
207,상계벽산아파트경로당,노원구 상계동 173-1번지 ,노원구,없음
208,도원삼성래미안제2경로당,용산구 도원동 25번지 ,용산구,없음
209,보광동 제3,용산구 보광동 242-4번지 ,용산구,없음
210,청암(사립),용산구 청암동 84-1번지 ,용산구,없음
211,이태원남부 경로당,용산구 이태원동 168-2번지 ,용산구,없음
212,한강맨션할머니(사립),용산구 이촌동 300-213번지 ,용산구,없음
213,신계(사립),용산구 신계동 48번지 ,용산구,없음
214,이촌2동 할아버지(사립),용산구 이촌동 395번지 ,용산구,없음
215,이태원중부,용산구 이태원동 ,용산구,없음
216,신용산(사립),용산구 이촌동 300-201번지 2 2동 지하호,용산구,없음
217,이태원1 할머니(사립),용산구 이태원동 130-31번지 ,용산구,없음
218,동빙고군인아파트(사립),용산구 동빙고동 7번지 ,용산구,없음
219,대동2차아파트경로당,노원구 공릉동 380-1번지 ,노원구,없음
220,초안산쌍용스윗담홈아파트 경로당,노원구 월계동 945번지 ,노원구,없음
221,롯데캐슬루나아파트 경로당,노원구 월계동 947번지 ,노원구,없음
222,한신코아빌라 경로당,노원구 하계동 285번지 ,노원구,없음
223,상계대림아파트 경로당,노원구 상계동 1301번지 ,노원구,없음
224,세양청마루아파트경로당,노원구 월계동 943번지 ,노원구,없음
225,월계풍림아이원아파트경로당,노원구 월계동 944번지 ,노원구,없음
226,월계흥화브라운빌아파트경로당,노원구 월계동 939번지 ,노원구,없음
227,SH중계양지대림2차아파트경로당,노원구 중계동 588-1번지 ,노원구,없음
228,월계우남아파트경로당,노원구 월계동 930번지 ,노원구,없음
229,월계 유원아파트 경로당,노원구 월계동 880번지 ,노원구,없음
230,벼루마을경로당,노원구 월계동 534-156번지 ,노원구,없음
231,삼익2차아파트경로당,노원구 공릉동 754번지 ,노원구,없음
232,공노회경로당,노원구 공릉동 240-201번지 ,노원구,없음
233,상계미라보아파트경로당,노원구 상계동 60-1번지 ,노원구,없음
234,신성미소지움아파트경로당,노원구 공릉동 756번지 ,노원구,없음
235,건양노블레스아파트경로당,노원구 월계동 938번지 ,노원구,없음
236,중계우성3차아파트경로당,노원구 중계동 585번지 ,노원구,없음
237,공릉1동 현대아파트 경로당,노원구 공릉동 590-1번지 ,노원구,없음
238,성북역신도브래뉴아파트경로당,노원구 월계동 941번지 ,노원구,없음
239,한화꿈에그린아파트경로당,노원구 중계동 598번지 ,노원구,없음
240,우림루미아트경로당,노원구 상계동 1307번지 ,노원구,없음
241,한일유앤아이아파트경로당,노원구 상계동 1309번지 ,노원구,없음
242,중계9단지경로당,노원구 하계동 256번지 ,노원구,없음
243,월계역신도브래뉴아파트경로당,노원구 월계동 942번지 ,노원구,없음
244,은행 경로당,노원구 중계동 68-5번지 ,노원구,없음
245,공릉1동 대아아파트경로당,노원구 공릉동 492-1번지 ,노원구,없음
246,공릉1동삼익아파트경로당,노원구 공릉동 690-2번지 ,노원구,없음
247,경남아너스빌아파트 경로당,노원구 중계동 596번지 ,노원구,없음
248,공릉대주파크빌경로당,노원구 공릉동 751번지 ,노원구,없음
249,불암현대아파트106동,노원구 상계동 1294번지 ,노원구,없음
250,신도2차 브래뉴아파트,노원구 공릉동 749번지 ,노원구,없음
251,대호프라자경로당,노원구 중계동 591번지 ,노원구,없음
252,대망드림힐아파트경로당,노원구 상계동 1304번지 ,노원구,없음
253,상계1동 봉산경로당,노원구 상계동 1117-11번지 ,노원구,없음
254,공릉1동 대동아파트,노원구 공릉동 604-11번지 ,노원구,없음
255,하계우방아파트노인회경로당,노원구 하계동 353번지 ,노원구,없음
256,청암3단지아파트경로당,노원구 중계동 582번지 ,노원구,없음
257,상계1동 현대4차아파트 경로당,노원구 상계동 1271번지 ,노원구,없음
258,상계동 동양메이저아파트 경로당,노원구 상계동 1305번지 ,노원구,없음
259,상계양우아파트경로당,노원구 상계동 1300번지 ,노원구,없음
260,학여울청구아파트B단지경로당,노원구 하계동 356번지 ,노원구,없음
261,상계불암대림아파트207동경로당,노원구 상계동 1290번지 ,노원구,없음
262,양지대림1차경로당,노원구 중계동 587-1번지 ,노원구,없음
263,공릉두산아파트경로당,노원구 공릉동 747번지 ,노원구,없음
264,월계한일2차아파트경로당,노원구 월계동 927번지 ,노원구,없음
265,북현경로당,노원구 상계동 1273번지 ,노원구,없음
266,공릉효성아파트경로당,노원구 공릉동 746번지 ,노원구,없음
267,상계대동아파트경로당,노원구 상계동 1284번지 ,노원구,없음
268,동아불암106동경노당,노원구 상계동 1286번지 ,노원구,없음
269,신원아파트경로당,노원구 공릉동 370-4번지 ,노원구,없음
270,상계마들아파트경로당,노원구 상계동 771-3번지 ,노원구,없음
271,청솔아파트경로당,노원구 공릉동 90번지 ,노원구,없음
272,효성화운트빌아파트경로당,노원구 공릉동 106번지 ,노원구,없음
273,상계우방아파트효도의집,노원구 상계동 1295번지 ,노원구,없음
274,그랑빌아파트경로당,노원구 월계동 18번지 ,노원구,없음
275,청암1단지아파트경로당,노원구 상계동 1275번지 ,노원구,없음
276,공릉풍림아파트경로당,노원구 공릉동 725번지 ,노원구,없음
277,청암2단지아파트경로당,노원구 상계동 1276번지 ,노원구,없음
278,수락파크빌아파트경로당,노원구 상계동 1269번지 ,노원구,없음
279,공릉동신도1차아파트경로당,노원구 공릉동 748번지 ,노원구,없음
280,월계현대아파트 경로당,노원구 월계동 929번지 ,노원구,없음
281,대아아파트,노원구 공릉동 740번지 ,노원구,없음
282,동신아파트경로당,노원구 공릉동 745번지 ,노원구,없음
283,공릉아파트경로당,노원구 공릉동 110번지 ,노원구,없음
284,태강아파트경로당,노원구 공릉동 81번지 ,노원구,없음
285,화랑타운아파트경로당,노원구 공릉동 111번지 ,노원구,없음
286,삼성아파트경로당,노원구 중계동 593번지 ,노원구,없음
287,중계3차벽산아파트경로당,노원구 중계동 592번지 ,노원구,없음
288,양지대림1단지아파트경로당,노원구 중계동 421번지 ,노원구,없음
289,중계신안아파트경로당,노원구 중계동 590번지 ,노원구,없음
290,건영아파트경로당,노원구 중계동 586번지 ,노원구,없음
291,삼창아파트경로당,노원구 중계동 584-1번지 ,노원구,없음
292,미주동방벽운아파트경로당,노원구 상계동 1265번지 ,노원구,없음
293,동아불암아파트경로당,노원구 상계동 1285번지 ,노원구,없음
294,상계불암대림아파트경로당,노원구 상계동 1289번지 ,노원구,없음
295,우방아파트경로당,노원구 공릉동 108번지 ,노원구,없음
296,월계한일1차아파트경로당,노원구 월계동 926번지 ,노원구,없음
297,불암현대아파트경로당,노원구 상계동 170번지 ,노원구,없음
298,배삿골현대아파트경로당,노원구 중계동 34번지 ,노원구,없음
299,노원우성아파트경로당,노원구 상계동 1251번지 ,노원구,없음
300,중앙하이츠아파트경로당,노원구 상계동 1279-1번지 ,노원구,없음
301,코오롱아파트경로당,노원구 상계동 1281번지 ,노원구,없음
302,청백1단지경로당,노원구 월계동 ,노원구,없음
303,청백3단지경로당,노원구 월계동 ,노원구,없음
304,청백4단지경로당,노원구 월계동 ,노원구,없음
305,초안1단지경로당,노원구 월계동 ,노원구,없음
306,건영장미아파트경로당,노원구 공릉동 744번지 ,노원구,없음
307,공릉비선아파트경로당,노원구 공릉동 109번지 ,노원구,없음
308,공릉한보아파트경로당,노원구 공릉동 208-3번지 ,노원구,없음
309,양지마을대림2단지경로당,노원구 중계동 440-66번지 ,노원구,없음
310,극동늘푸른아파트경로당,노원구 상계동 1116-1번지 ,노원구,없음
311,은빛1단지경로당,노원구 상계동 1255번지 ,노원구,없음
312,은빛2단지경로당,노원구 상계동 1256번지 ,노원구,없음
313,은빛3단지어르신방경로당,노원구 상계동 1264번지 ,노원구,없음
314,중앙하이츠경로당,노원구 상계동 1068번지 ,노원구,없음
315,성원아파트경로당,노원구 상계동 1283번지 ,노원구,없음
316,상계2차중앙하이츠경로당,노원구 상계동 1282번지 ,노원구,없음
317,덕산경로당,노원구 상계동 ,노원구,없음
318,건영3차아파트경로당,노원구 중계동 360-15번지 ,노원구,없음
319,중계동염광아파트경로당,노원구 중계동 445번지 ,노원구,없음
320,상계대림아파트경로당,노원구 상계동 172번지 ,노원구,없음
321,대동아파트경로당,노원구 월계동 411-2번지 ,노원구,없음
322,신아경로당,노원구 월계동 378-68번지 ,노원구,없음
323,동부아파트경로당,노원구 공릉동 705번지 ,노원구,없음
324,공릉3동경로당,노원구 공릉동 370-15번지 2 2동 201호,노원구,없음
325,하계1차청구아파트경로당,노원구 하계동 251번지 ,노원구,없음
326,하계2차현대아파트경로당,노원구 하계동 288번지 ,노원구,없음
327,학여울청구아파트경로당,노원구 하계동 312번지 ,노원구,없음
328,금호타운아파트경로당,노원구 중계동 583번지 ,노원구,없음
329,진로유통대림아파트경로당,노원구 중계동 78번지 ,노원구,없음
330,갈월경로당,노원구 상계동 1008-18번지 ,노원구,없음
331,수락한신아파트경로당,노원구 상계동 1013-22번지 ,노원구,없음
332,대우아파트경로당,노원구 월계동 775번지 ,노원구,없음
333,초안아파트경로당,노원구 월계동 924번지 ,노원구,없음
334,연촌경로당,노원구 월계동 376-31번지 ,노원구,없음
335,성우아파트경로당,노원구 공릉동 401-1번지 ,노원구,없음
336,공릉4단지경로당,노원구 공릉동 ,노원구,없음
337,천보경로당,노원구 중계동 93-32번지 ,노원구,없음
338,현대2차아파트경로당,노원구 중계동 574번지 ,노원구,없음
339,한우리경로당,노원구 중계동 154-40번지 ,노원구,없음
340,현대3차아파트경로당,노원구 상계동 1042번지 ,노원구,없음
341,서광아파트경로당,노원구 월계동 922번지 ,노원구,없음
342,성원아파트경로당,노원구 월계동 322-1번지 ,노원구,없음
343,사슴2단지경로당,노원구 월계동 320-9번지 ,노원구,없음
344,사슴3단지경로당,노원구 월계동 320-11번지 ,노원구,없음
345,인덕경로당,노원구 월계동 633-116번지 ,노원구,없음
346,삼익아파트경로당,노원구 공릉동 737번지 ,노원구,없음
347,효성아파트경로당,노원구 공릉동 ,노원구,없음
348,공릉1단지경로당,노원구 공릉동 ,노원구,없음
349,공릉2단지경로당,노원구 공릉동 ,노원구,없음
350,공릉3단지경로당,노원구 공릉동 ,노원구,없음
351,3차청구아파트경로당,노원구 중계동 360-2번지 ,노원구,없음
352,중계성원1차아파트경로당,노원구 중계동 580번지 ,노원구,없음
353,중계주공10단지경로당,노원구 중계동 360-16번지 ,노원구,없음
354,중계성원2차경로당,노원구 중계동 581번지 ,노원구,없음
355,상계재개발주공아파트경로당,노원구 상계동 1110번지 ,노원구,없음
356,노원현대아파트경로당,노원구 상계동 581-160번지 ,노원구,없음
357,금호타운아파트경로당,노원구 상계동 1270번지 ,노원구,없음
358,상계신동아아파트경로당,노원구 상계동 133-163번지 ,노원구,없음
359,사슴1단지경로당,노원구 월계동 321번지 ,노원구,없음
360,공릉우성아파트경로당,노원구 공릉동 738번지 ,노원구,없음
361,동진아파트경로당,노원구 중계동 103번지 ,노원구,없음
362,학도경로당,노원구 중계동 43번지 ,노원구,없음
363,한신아파트경로당,노원구 상계동 997번지 ,노원구,없음
364,불암경로당,노원구 상계동 404-7번지 ,노원구,없음
365,복지경로당,노원구 상계동 169-80번지 ,노원구,없음
366,중계4단지(목화)아파트 경로당,노원구 중계동 511-2번지 ,노원구,없음
367,2단지각심경로당,노원구 월계동 ,노원구,없음
368,월계종합종합복지관경로당,노원구 월계동 600번지 ,노원구,없음
369,공릉경로당,노원구 공릉동 415-36번지 B B동 01호,노원구,없음
370,한동경로당,노원구 하계동 256-5번지 ,노원구,없음
371,신안동진아파트경로당,노원구 중계동 364번지 ,노원구,없음
372,중계7단지경로당,노원구 상계동 1013-22번지 ,노원구,없음
373,주공6단지경로당,노원구 중계동 364-12번지 ,노원구,없음
374,주공8단지경로당,노원구 중계동 ,노원구,없음
375,마들사회복지관경로당,노원구 중계동 513-3번지 ,노원구,없음
376,중계사회복지관경로당,노원구 중계동 193번지 ,노원구,없음
377,수락현대아파트경로당,노원구 상계동 산 65-1번지 ,노원구,없음
378,원터경로당,노원구 상계동 330-27번지 ,노원구,없음
379,한신3차아파트경로당,노원구 상계동 458번지 ,노원구,없음
380,극동아파트경로당,노원구 월계동 802번지 ,노원구,없음
381,삼익선경아파트경로당,노원구 하계동 255-1번지 ,노원구,없음
382,대림벽산아파트경로당,노원구 중계동 363번지 ,노원구,없음
383,중계불암경로당,노원구 중계동 366번지 ,노원구,없음
384,현대1차아파트경로당,노원구 중계동 577번지 ,노원구,없음
385,롯데우성아파트경로당,노원구 중계동 361-1번지 ,노원구,없음
386,평화사회복지관경로당,노원구 중계동 514-3번지 ,노원구,없음
387,중앙하이츠경로당,노원구 중계동 165-2번지 ,노원구,없음
388,상일경로당,노원구 상계동 1049-35번지 ,노원구,없음
389,현대2차아파트경로당,노원구 상계동 1078번지 ,노원구,없음
390,상아아파트경로당,노원구 중계동 505번지 ,노원구,없음
391,합동마을경로당,노원구 상계동 111-158번지 ,노원구,없음
392,주공11단지경로당,노원구 상계동 652번지 ,노원구,없음
393,주공14단지경로당,노원구 상계동 626번지 ,노원구,없음
394,주공13단지경로당,노원구 상계동 647번지 ,노원구,없음
395,임광아파트경로당,노원구 상계동 694번지 ,노원구,없음
396,공릉1동경로당,노원구 공릉동 569-21번지 ,노원구,없음
397,하계7단지경로당,노원구 하계동 274번지 ,노원구,없음
398,하계5단지경로당,노원구 하계동 272번지 ,노원구,없음
399,중계마을경로당,노원구 중계동 산 104-32번지 ,노원구,없음
400,노원마을경로당,노원구 상계동 1184번지 ,노원구,없음
401,삼창아파트경로당,노원구 월계동 448-3번지 ,노원구,없음
402,공덕경로당,노원구 공릉동 513-54번지 ,노원구,없음
403,중계동부경로당,노원구 중계동 503번지 ,노원구,없음
404,행화경로당,마포구 아현동 625-98번지 ,마포구,없음
405,서림경로당,마포구 망원동 459-16번지 ,마포구,없음
406,중앙경로당,마포구 상암동 115-17번지 ,마포구,없음
407,동교동경로당,마포구 동교동 147-1번지 ,마포구,없음
408,연남동경로당,마포구 연남동 373-20번지 ,마포구,없음
409,염산경로당,마포구 염리동 9-237번지 ,마포구,없음
410,새마을경로당,"마포구 상암동 807,856번지 ",마포구,없음
411,마포동경로당,마포구 마포동 337-1번지 ,마포구,없음
412,진주아파트경로당,마포구 염리동 170-4번지 ,마포구,없음
413,홍문경로당,마포구 도화동 274번지 ,마포구,없음
414,동막경로당,마포구 신수동 85-66번지 ,마포구,없음
415,낙루경로당,마포구 중동 36-27번지 ,마포구,없음
416,성산시영@경로당,마포구 성산동 450번지 ,마포구,없음
417,대우경로당,마포구 성산동 450번지 ,마포구,없음
418,마포현대경로당,마포구 공덕동 188-108번지 ,마포구,없음
419,홍익경로당,마포구 서교동 359번지 ,마포구,없음
420,농바우경로당,마포구 상수동 327-10번지 ,마포구,없음
421,갈현베르빌아파트경로당,은평구 갈현동 465-12번지 ,은평구,없음
422,희우경로당,마포구 합정동 432-15번지 ,마포구,없음
423,우성아파트경로당,마포구 도화동 83번지 ,마포구,없음
424,공덕현대아파트경로당,마포구 공덕동 370-9번지 ,마포구,없음
425,상록아파트경로당,마포구 염리동 515-1번지 ,마포구,없음
426,수복경로당,마포구 신수동 101-17번지 ,마포구,없음
427,아현3경로당,마포구 아현동 640-12번지 ,마포구,없음
428,공덕1동경로당,마포구 공덕동 ,마포구,없음
429,신공덕동경로당,마포구 신공덕동 92-5번지 ,마포구,없음
430,도화경로당,마포구 도화동 2-16번지 ,마포구,없음
431,도일경로당,마포구 도화동 200-9번지 ,마포구,없음
432,대흥동제1경로당,마포구 대흥동 331번지 ,마포구,없음
433,염리동제1경로당,마포구 염리동 83-3번지 ,마포구,없음
434,염리동제2경로당,마포구 염리동 17-52번지 ,마포구,없음
435,송암경로당,마포구 염리동 ,마포구,없음
436,창전동 경로당,마포구 창전동 447번지 ,마포구,없음
437,상수경로당,마포구 상수동 123-1번지 ,마포구,없음
438,당인경로당,마포구 당인동 28-14번지 ,마포구,없음
439,송백경로당,마포구 망원동 496번지 ,마포구,없음
440,노고산경로당,마포구 노고산동 12-66번지 ,마포구,없음
441,무리울 새마을 경로당,마포구 성산동 산 41-2번지 ,마포구,없음
442,아현1경로당,마포구 아현동 ,마포구,없음
443,아현2경로당,마포구 아현동 666-2번지 ,마포구,없음
444,공덕2동제1경로당,마포구 공덕동 184-61번지 ,마포구,없음
445,신수경로당,마포구 신수동 168번지 ,마포구,없음
446,성산1동제1경로당,마포구 성산동 산 11-1번지 ,마포구,없음
447,화신경로당,마포구 대흥동 3-62번지 ,마포구,없음
448,합정동경로당,마포구 합정동 385-99번지 ,마포구,없음
449,금성경로당,마포구 망원동 236-2번지 ,마포구,없음
450,상암월드컵파크4단지@ 경로당,마포구 상암동 ,마포구,없음
451,마포경남아너스빌 경로당,마포구 신수동 456번지 ,마포구,없음
452,공덕2삼성래미안(아)경로당,마포구 공덕동 43번지 ,마포구,없음
453,신공덕삼성(아)제2 경로당,마포구 신공덕동 157번지 ,마포구,없음
454,신공덕2차삼성래미안 경로당,마포구 신공덕동 159번지 ,마포구,없음
455,신촌금호(아) 경로당,마포구 창전동 438번지 ,마포구,없음
456,신정경로당,마포구 상수동 108-9번지 ,마포구,없음
457,건영월드컵(아) 경로당,마포구 중동 393번지 ,마포구,없음
458,성산1차풍림(아) 경로당,마포구 성산동 600번지 ,마포구,없음
459,성산2차현대(아) 경로당,마포구 중동 40-12번지 ,마포구,없음
460,간데마을경로당,마포구 중동 58-18번지 ,마포구,없음
461,현대홈타운(아) 경로당,마포구 도화동 현대2차아파트 ,마포구,없음
462,동원월드타운 경로당,마포구 중동 395번지 ,마포구,없음
463,세양아파트 경로당,마포구 대흥동 802번지 ,마포구,없음
464,상암월드컵파크7단지@ 경로당,마포구 상암동 상암월드컵파크 7단지 ,마포구,없음
465,성산2차 e-편한세상 아파트 경로당,마포구 성산동 604번지 ,마포구,없음
466,상암월드컵파크5단지@ 경로당,마포구 상암동 상암 월드컵파크 5단지 ,마포구,없음
467,공덕2삼성래이안4차@ 경로당,마포구 공덕동 464번지 ,마포구,없음
468,상암월드컵파크6단지@ 경로당,마포구 상암동 상암월드컵파크 6단지 ,마포구,없음
469,연봉경로당,마포구 공덕동 4-86번지 ,마포구,없음
470,오칠경로당,마포구 망원동 57-140번지 ,마포구,없음
471,공덕한화꿈에그린@경로당,마포구 공덕동 460번지 ,마포구,없음
472,매봉 경로당,마포구 상암동 18-8번지 ,마포구,없음
473,코오롱하늘채@경로당,마포구 연남동 573번지 ,마포구,없음
474,신촌태영데시앙@경로당,마포구 창전동 439번지 ,마포구,없음
475,LG마포자이@,마포구 염리동 521번지 ,마포구,없음
476,강변현대홈타운@,마포구 현석동 222번지 ,마포구,없음
477,신공덕 삼성1차아파트 경로당,마포구 신공덕동 155번지 ,마포구,없음
478,감골경로당,마포구 아현동 625-5번지 ,마포구,없음
479,대주아파트경로당,마포구 망원동 499번지 ,마포구,없음
480,서교푸르지오(아)경로당,마포구 서교동 486번지 ,마포구,없음
481,연동경로당,마포구 연남동 223-91번지 ,마포구,없음
482,망원휴먼빌경로당,마포구 망원동 509번지 ,마포구,없음
483,삼성래미안 공덕3차아파트경로당,마포구 공덕동 457번지 ,마포구,없음
484,두산위브경로당,마포구 상수동 상수두산위브아파트 ,마포구,없음
485,신촌삼익아파트경로당,마포구 신수동 450번지 ,마포구,없음
486,공덕삼성경로당,마포구 공덕동 371번지 ,마포구,없음
487,쌍용황금아파트경로당,마포구 마포동 253번지 ,마포구,없음
488,현대홈타운2차임대아파트경로당,마포구 도화동 현대2차아파트 ,마포구,없음
489,태영아파트 201동 경로당,마포구 대흥동 ,마포구,없음
490,공덕삼성제2경로당,마포구 공덕동 371-1번지 ,마포구,없음
491,마포현대아파트경로당,마포구 현석동 200번지 ,마포구,없음
492,계룡아파트 경로당,마포구 중동 391번지 ,마포구,없음
493,마포중동현대아파트경로당,마포구 중동 392번지 ,마포구,없음
494,구룡경로당,마포구 상암동 739번지 ,마포구,없음
495,염리삼성제2경로당,마포구 염리동 519번지 ,마포구,없음
496,용강삼성래미안(아)경로당,마포구 용강동 380번지 ,마포구,없음
497,망원2차대림(아)경로당,마포구 망원동 497번지 ,마포구,없음
498,성산월드타운 대림아파트 경로당,마포구 성산동 601번지 ,마포구,없음
499,신공덕삼성3차(아) 경로당,마포구 신공덕동 161번지 ,마포구,없음
500,상암월드컵파크3단지@ 경로당,마포구 상암동 제2공구번지 ,마포구,없음
501,세양청마루@경로당,마포구 신수동 91번지 ,마포구,없음
502,대원칸타빌@경로당,마포구 신수동 ,마포구,없음
503,상암월드컵제2단지@경로당,마포구 상암동 ,마포구,없음
504,상암월드컵파크1단지@ 경로당,마포구 상암동 상암월드컵아파트 1단지 ,마포구,없음
505,신수현대(아)경로당,마포구 신수동 445-5번지 ,마포구,없음
506,쌈지경로당,"마포구 망원동 A동,B동 ",마포구,없음
507,백합경로당,마포구 성산동 595번지 ,마포구,없음
508,대흥중앙경로당,마포구 대흥동 34-19번지 ,마포구,없음
509,익수경로당,마포구 신수동 ,마포구,없음
510,연서경로당,마포구 연남동 ,마포구,없음
511,용정경로당,마포구 용강동 115-5번지 ,마포구,없음
512,중동청구아파트경로당,마포구 중동 390번지 ,마포구,없음
513,세교경로당,마포구 동교동 181-3번지 ,마포구,없음
514,신교경로당,마포구 서교동 ,마포구,없음
515,대흥동태영경로당,마포구 대흥동 660번지 ,마포구,없음
516,덕성경로당,마포구 신공덕동 139-120번지 ,마포구,없음
517,마포삼성아파트경로당,마포구 도화동 550번지 ,마포구,없음
518,양화진경로당,마포구 합정동 376-29번지 ,마포구,없음
519,마포삼성아파트경로당,마포구 창전동 437번지 ,마포구,없음
520,도화현대아파트경로당,마포구 도화동 357번지 ,마포구,없음
521,삼성아파트제2경로당,마포구 창전동 437-1번지 ,마포구,없음
522,토정(한강삼성@)경로당,마포구 토정동 138번지 ,마포구,없음
523,성원(아)경로당,마포구 신수동 190번지 ,마포구,없음
524,미원아파트2차경로당,마포구 망원동 433-9번지 ,마포구,없음
525,소양아파트경로당,마포구 도화동 547번지 ,마포구,없음
526,성미경로당,마포구 성산동 262-3번지 ,마포구,없음
527,망원2동제1경로당,마포구 망원동 436-1번지 ,마포구,없음
528,일신경로당,마포구 현석동 80번지 ,마포구,없음
529,샛터경로당,마포구 성산동 145-10번지 ,마포구,없음
530,용강경로당,마포구 용강동 95번지 ,마포구,없음
531,신정이펜하우스 3단지 경로당,양천구 신정동 ,양천구,없음
532,신정이펜하우스 1단지 경로당,양천구 신정동 ,양천구,없음
533,신정이펜하우스 4단지 경로당,양천구 신정동 ,양천구,없음
534,신정이펜하우스 5단지 경로당,양천구 신정동 ,양천구,없음
535,한신아파트 경로당,양천구 목동 ,양천구,없음
536,목동성원아파트 경로당,양천구 목동 ,양천구,없음
537,동방아파트 경로당,양천구 신월동 ,양천구,없음
538,수명산SK뷰 아파트 경로당,양천구 신월동 ,양천구,없음
539,양정 경로당,양천구 신정동 ,양천구,없음
540,목동2차우성아파트 우정경로당,양천구 신정동 ,양천구,없음
541,세종그랑시아(아) 경로당,양천구 목동 ,양천구,없음
542,신정뉴타운롯데캐슬,양천구 신월동 ,양천구,없음
543,뜨라네경로당,양천구 신월동 ,양천구,없음
544,동원데자뷰아파트 경로당(신월2동),양천구 신월동 장수마을2단지동원데쟈뷰아파트 ,양천구,없음
545,목1동 트라팰리스 경로당,양천구 목동 962-1번지 ,양천구,없음
546,신월4동 롯데캐슬아파트 경로당,양천구 신월동 1057번지 롯데캐슬아파트 ,양천구,없음
547,신정이펜하우스 2단지 경로당,양천구 신정동 ,양천구,없음
548,신대경로당,양천구 신월동 136-13번지 ,양천구,없음
549,월성경로당,양천구 신월동 119번지 ,양천구,없음
550,월드메르디앙 3차아파트 경로당,양천구 목동 947번지 ,양천구,없음
551,중앙경로당,양천구 신월동 509-14번지 ,양천구,없음
552,보람아파트 경로당,양천구 신정동 ,양천구,없음
553,신월5동 수명산 롯데캐슬(아)경로당,양천구 신월동 수명산롯데캐슬 ,양천구,없음
554,목동아파트11단지 경로당,양천구 신정동 325번지 ,양천구,없음
555,목동아파트12단지 경로당,양천구 신정동 326번지 ,양천구,없음
556,오금 경로당,양천구 신정동 190-2번지 ,양천구,없음
557,양천아파트 경로당,양천구 신정동 ,양천구,없음
558,목동2차우성아파트 경로당,양천구 신정동 337번지 ,양천구,없음
559,목동2차우성아파트제2분회 경로당,양천구 신정동 337-2번지 ,양천구,없음
560,목동3차우성아파트 경로당,양천구 신정동 338번지 ,양천구,없음
561,목동2차삼성래미안 경로당,양천구 신정동 1295번지 ,양천구,없음
562,꽃사슴 경로당,양천구 신정동 1195번지 ,양천구,없음
563,장수 경로당,양천구 신정동 1186-23번지 ,양천구,없음
564,신정6차현대아파트 경로당,양천구 신정동 743-2번지 ,양천구,없음
565,수정아파트 경로당,양천구 신정동 733-31번지 ,양천구,없음
566,다락골 경로당,양천구 신정동 ,양천구,없음
567,신트리아파트1단지 경로당,양천구 신정동 1259번지 ,양천구,없음
568,신트리아파트2단지 경로당,양천구 신정동 1258번지 ,양천구,없음
569,신트리아파트4단지 경로당,양천구 신정동 1277번지 ,양천구,없음
570,신트리현대 경로당,양천구 신정동 1273번지 ,양천구,없음
571,학마을2단지아파트 경로당,양천구 신정동 1294번지 ,양천구,없음
572,신트리아파트3단지 경로당,양천구 신정동 1276번지 ,양천구,없음
573,푸른마을1단지 경로당,양천구 신정동 1282번지 ,양천구,없음
574,푸른마을2단지 경로당,양천구 신정동 1281번지 ,양천구,없음
575,학마을1단지아파트 경로당,양천구 신정동 1293번지 ,양천구,없음
576,푸른마을3단지아파트 경로당,양천구 신정동 1283번지 ,양천구,없음
577,푸른마을4단지아파트 경로당,양천구 신정동 1285번지 ,양천구,없음
578,학마을3단지아파트 경로당,양천구 신정동 1291번지 ,양천구,없음
579,양목 경로당,양천구 신정동 ,양천구,없음
580,신정4동 제2구립 경로당,양천구 신정동 975-30번지 ,양천구,없음
581,은행정 경로당,양천구 신정동 신정동로마아파트 ,양천구,없음
582,양동 경로당,양천구 신정동 937-4번지 ,양천구,없음
583,청솔 경로당,양천구 신정동 910-9번지 ,양천구,없음
584,서부 경로당,양천구 신정동 882-11번지 ,양천구,없음
585,목동아파트8단지 경로당,양천구 신정동 314번지 ,양천구,없음
586,목동아파트13단지 경로당,양천구 신정동 328번지 ,양천구,없음
587,목동아파트14단지 경로당,양천구 신정동 329번지 ,양천구,없음
588,갈산 경로당,양천구 신정동 ,양천구,없음
589,수명 경로당,양천구 신월동 13-1번지 ,양천구,없음
590,신양 경로당,양천구 신월동 73-2번지 ,양천구,없음
591,신남 경로당,양천구 신월동 ,양천구,없음
592,신안약수아파트 경로당,양천구 신월동 591-1번지 ,양천구,없음
593,신월 경로당,양천구 신월동 557-8번지 ,양천구,없음
594,강월 경로당,양천구 신월동 1004번지 ,양천구,없음
595,늘푸른 경로당,양천구 신월동 922-1번지 ,양천구,없음
596,시영아파트 경로당,양천구 신월동 987-1번지 ,양천구,없음
597,신월약수 경로당,양천구 신월동 936번지 ,양천구,없음
598,신안파크아파트 경로당,양천구 신월동 350-2번지 ,양천구,없음
599,남부법마을 경로당,양천구 신정동 1017-5번지 ,양천구,없음
600,목동아파트10단지 경로당,양천구 신정동 311번지 ,양천구,없음
601,단산 경로당,양천구 신정동 296-119번지 ,양천구,없음
602,유원아파트 경로당,양천구 신정동 87-39번지 ,양천구,없음
603,쌍용아파트 경로당,양천구 신정동 335번지 ,양천구,없음
604,청구아파트 경로당,양천구 신정동 336번지 ,양천구,없음
605,목동현대아파트 경로당,양천구 신정동 1279번지 ,양천구,없음
606,현대아파트구십 경로당,양천구 신정동 1279-1번지 ,양천구,없음
607,신정현대아파트 경로당,양천구 신정동 1252번지 ,양천구,없음
608,현대아이파크 경로당,양천구 신정동 1296번지 ,양천구,없음
609,목동아파트5단지 경로당,양천구 목동 ,양천구,없음
610,목동트윈빌 경로당,양천구 목동 905-22번지 ,양천구,없음
611,부영그린2차아파트 경로당,양천구 목동 908-28번지 ,양천구,없음
612,목동아파트1단지 경로당,양천구 목동 ,양천구,없음
613,목동아파트2단지 경로당,양천구 목동 902번지 ,양천구,없음
614,목동아파트6단지 경로당,양천구 목동 911번지 ,양천구,없음
615,한신청구아파트 경로당,양천구 목동 목동한신아파트 ,양천구,없음
616,부영그린3차아파트 경로당,양천구 목동 908-34번지 ,양천구,없음
617,길훈아파트 경로당,양천구 신월동 길훈아파트 ,양천구,없음
618,금실 경로당,양천구 신월동 985번지 ,양천구,없음
619,한울 경로당,양천구 신월동 956번지 ,양천구,없음
620,양명 경로당,양천구 신정동 1050-3번지 ,양천구,없음
621,목동아파트9단지 경로당,양천구 신정동 312번지 ,양천구,없음
622,삼성아파트 경로당,양천구 신정동 1278-1번지 ,양천구,없음
623,신대 경로당,양천구 신월동 136-13번지 ,양천구,없음
624,월성 경로당,양천구 신월동 119번지 ,양천구,없음
625,곰달래 경로당,양천구 신월동 221-22번지 ,양천구,없음
626,신월2동구립 경로당,양천구 신월동 612-2번지 ,양천구,없음
627,신곡 경로당,양천구 신월동 459번지 ,양천구,없음
628,당곡 경로당,양천구 신월동 486번지 ,양천구,없음
629,중앙 경로당,양천구 신월동 509-14번지 ,양천구,없음
630,동방아파트 경로당,양천구 신월동 607-1번지 ,양천구,없음
631,대림아파트 경로당,양천구 신월동 491-1번지 ,양천구,없음
632,우당아파트 경로당,양천구 신월동 506-1번지 ,양천구,없음
633,신원 경로당,양천구 신월동 161-17번지 ,양천구,없음
634,경복 경로당,양천구 신월동 156번지 ,양천구,없음
635,신남 경로당,양천구 신월동 198-22번지 ,양천구,없음
636,태양 경로당,양천구 신월동 422-1번지 ,양천구,없음
637,자양 경로당,양천구 신월동 542번지 ,양천구,없음
638,밝은빛 경로당,양천구 신월동 518-4번지 ,양천구,없음
639,금용아파트 경로당,양천구 신월동 533-1번지 ,양천구,없음
640,해태아파트 경로당,양천구 신월동 514-3번지 ,양천구,없음
641,소망 경로당,양천구 신월동 436-6번지 ,양천구,없음
642,오목 경로당,양천구 목동 406-317번지 ,양천구,없음
643,목동아파트7단지 경로당,양천구 목동 목동신시가지아파트7단지 ,양천구,없음
644,대림아파트 경로당,양천구 목동 405번지 ,양천구,없음
645,목동현대아파트 경로당,양천구 목동 930번지 ,양천구,없음
646,만수 경로당,양천구 목동 신목종합사회복지관 ,양천구,없음
647,용왕 경로당,양천구 목동 ,양천구,없음
648,새말 경로당,양천구 목동 230-32번지 ,양천구,없음
649,양화 경로당,양천구 목동 535-17번지 ,양천구,없음
650,월촌 경로당,양천구 목동 545-23번지 ,양천구,없음
651,달거리 경로당,양천구 목동 ,양천구,없음
652,목동우성 경로당,양천구 목동 200번지 ,양천구,없음
653,건영아파트 경로당,양천구 목동 928번지 ,양천구,없음
654,극동늘푸른아파트 경로당,양천구 목동 752-1번지 ,양천구,없음
655,월드메르디앙아파트 경로당,양천구 목동 750-5번지 ,양천구,없음
656,금호베스트빌 아파트 경로당,양천구 목동 549번지 ,양천구,없음
657,한두 경로당,양천구 목동 611-1번지 ,양천구,없음
658,백석 경로당,양천구 목동 646-23번지 ,양천구,없음
659,나말 경로당,양천구 목동 712-1번지 ,양천구,없음
660,목동2차성원아파트 경로당,양천구 목동 709-2번지 ,양천구,없음
661,마장 경로당,양천구 목동 803-1번지 ,양천구,없음
662,청산 경로당,양천구 목동 724-1번지 ,양천구,없음
663,정목 경로당,양천구 목동 767-1번지 ,양천구,없음
664,금호아파트 경로당,양천구 목동 768-5번지 ,양천구,없음
665,금강에스쁘아이파트 경로당,양천구 목동 753-1번지 ,양천구,없음
666,세종그랑시아(아) 경로당,양천구 목동 722-5번지 ,양천구,없음
667,목동아파트3단지 경로당,양천구 목동 목동신시가지아파트3단지 ,양천구,없음
668,목동아파트4단지 경로당,양천구 목동 940번지 ,양천구,없음
669,대방샤인힐아파트경로당,양천구 신월동 1017번지 ,양천구,없음
670,신월대성유니드(아)경로당,양천구 신월동 1034번지 ,양천구,없음
671,신정대성유니드2차아파트 경로당,양천구 신정동 1198-3번지 ,양천구,없음
672,신정동일하이빌아파트 경로당,양천구 신정동 동일하이빌아파트 ,양천구,없음
673,목동e편한세상 아파트 경로당,양천구 목동 950번지 ,양천구,없음
674,목동2차 삼성래미안1단지 아파트 경로당,양천구 신정동 1295-4번지 ,양천구,없음
675,청목경로당,양천구 목동 405-233번지 ,양천구,없음
676,삼익아파트 경로당,양천구 목동 목동삼익아파트 ,양천구,없음
677,삼성쉐르빌아파트 경로당,양천구 신정동 ,양천구,없음
678,경남아너스빌아파트 경로당,양천구 신정동 1307번지 ,양천구,없음
679,학마을3단지(아)경로당,양천구 신정동 1291번지 ,양천구,없음
680,신정대성유니드1차아파트경로당,양천구 신정동 신정대성유니드아파트 ,양천구,없음
681,신도브래뉴신월2차아파트경로당,양천구 신월동 신도브래뉴 신월2차 아파트 ,양천구,없음
682,지양경로당,양천구 신월동 331-104번지 ,양천구,없음
683,신정롯데캐슬(아) 어르신사랑방(경로당),양천구 신정동 1309번지 ,양천구,없음
684,대주파크빌(아)경로당,양천구 신월동 1028번지 ,양천구,없음
685,롯데캐슬위너 아파트 경로당,양천구 목동 956번지 ,양천구,없음
686,목동현대아이파크경로당,양천구 목동 940번지 목동현대아이파크아파트 ,양천구,없음
687,양천벽산블루밍아파트경로당,양천구 신월동 1027번지 ,양천구,없음
688,목동효성아파트경로당,양천구 목동 539-4번지 효성아파트 ,양천구,없음
689,대림아크로빌아파트경로당,양천구 신정동 324-7번지 ,양천구,없음
690,현대1차아파트경로당,양천구 목동 932번지 현대1차아파트 ,양천구,없음
691,목동2차월드메르디앙(아)경로당,양천구 목동 754번지 ,양천구,없음
692,신도신월1차아파트경로당,양천구 신월동 1029번지 ,양천구,없음
693,벽산블루밍2단지아파트경로당,양천구 신월동 1023번지 ,양천구,없음
694,벽산블루밍1단지아파트경로당,양천구 신월동 1022번지 ,양천구,없음
695,신정명지해드는터아파트경로당,양천구 신정동 1300번지 ,양천구,없음
696,신정e편한세상아파트경로당,양천구 신정동 1303번지 ,양천구,없음
697,부영그린타운3차 아파트 경로당,양천구 목동 부영그린타운3차 ,양천구,없음
698,DMC아파트 제1경로당,서대문구 북가좌동 ,서대문구,없음
699,DMC아파트 제2경로당,서대문구 북가좌동 ,서대문구,없음
700,DMC아파트 제3경로당,서대문구 북가좌동 ,서대문구,없음
701,래미안남가좌2차아파트경로당,서대문구 남가좌동 ,서대문구,없음
702,DMC아파트 제4경로당,서대문구 북가좌동 ,서대문구,없음
703,아름다운홍일경로당,서대문구 홍은동 ,서대문구,없음
704,가재울센트레빌아파트경로당,서대문구 남가좌동 ,서대문구,없음
705,요진아파트실버문화원,서대문구 북가좌동 ,서대문구,없음
706,인왕산어울림아파트경로당,서대문구 홍제동 ,서대문구,없음
707,서대문센트레빌 제2경로당,서대문구 냉천동 ,서대문구,없음
708,북가좌연희한양아파트경로당,서대문구 북가좌동 ,서대문구,없음
709,북가좌연희한양아파트경로당,서대문구 북가좌동 한양아파트 ,서대문구,없음
710,요진아파트실버문화원,서대문구 북가좌동 150번지 ,서대문구,없음
711,휴먼빌아파트경로당,서대문구 북가좌동 ,서대문구,없음
712,독립공원경로당,서대문구 현저동 산 5-5번지 ,서대문구,없음
713,DMC아이파크경로당,서대문구 북가좌동 458번지 ,서대문구,없음
714,가재울 아이파크 아파트 시니어클럽 노인정,서대문구 북가좌동 458번지 ,서대문구,없음
715,동부아파트경로당,서대문구 냉천동 260번지 ,서대문구,없음
716,독립문파크빌아파트경로당,서대문구 현저동 1019번지 ,서대문구,없음
717,능안경로당,서대문구 북아현동 1-251번지 ,서대문구,없음
718,연희성원아파트경로당,서대문구 연희동 740번지 ,서대문구,없음
719,남양아파트경로당,서대문구 홍제동 457번지 ,서대문구,없음
720,초원경로당,서대문구 홍제동 335-9번지 ,서대문구,없음
721,문화촌현대아파트경로당,서대문구 홍제동 ,서대문구,없음
722,인왕산벽산아파트경로당,서대문구 홍제동 465번지 ,서대문구,없음
723,가좌상록경로당,서대문구 남가좌동 376-2번지 ,서대문구,없음
724,가좌울경로당(삼성임대아파트),서대문구 남가좌동 377-1번지 ,서대문구,없음
725,우국한마음아파트경로당,서대문구 연희동 743번지 ,서대문구,없음
726,천연뜨란채경로당,서대문구 천연동 145번지 107 107동 ,서대문구,없음
727,두산위브A경로당,서대문구 북가좌동 459번지 102 102동 ,서대문구,없음
728,신일해피트리아파트경로당,서대문구 북가좌동 455번지 ,서대문구,없음
729,우정경로당,서대문구 홍은동 8-14번지 ,서대문구,없음
730,남가좌쌍용스윗닷홈아파트경로당,서대문구 남가좌동 380번지 ,서대문구,없음
731,무악경로당,서대문구 천연동 1-211번지 ,서대문구,없음
732,홍은미성아파트경로당,서대문구 홍은동 ,서대문구,없음
733,동일아파트경로당,서대문구 홍은동 457번지 ,서대문구,없음
734,현대아파트경로당,서대문구 북가좌동 453번지 ,서대문구,없음
735,삼성래미안아파트경로당,서대문구 홍제동 ,서대문구,없음
736,홍은1동경로당,서대문구 홍은동 444-7번지 ,서대문구,없음
737,남가좌삼성아파트경로당,서대문구 남가좌동 377번지 ,서대문구,없음
738,공덕아이파크@경로당,마포구 신공덕동 ,마포구,없음
739,인왕산아이파크 경로당,종로구 무악동 60번지 ,종로구,없음
740,인왕산정경로당,종로구 옥인동 186번지 ,종로구,없음
741,북촌(할머니)경로당,종로구 재동 54-1번지 ,종로구,없음
742,"명륜2,4가경로당",종로구 명륜4가 206-8번지 ,종로구,없음
743,이화경로당,종로구 이화동 9-264번지 ,종로구,없음
744,"명륜2,4가경로당",종로구 명륜4가 206-8번지 ,종로구,없음
745,한양경로당,종로구 효제동 220번지 ,종로구,없음
746,숭인1상록경로당,종로구 숭인동 55-2번지 ,종로구,없음
747,종묘경로당,종로구 운니동 162번지 ,종로구,없음
748,동익경로당,종로구 구기동 40번지 ,종로구,없음
749,구기할머니경로당,종로구 구기동 56-11번지 ,종로구,없음
750,효성경로당,종로구 인사동 197-2번지 ,종로구,없음
751,창신두산아파트경로당,종로구 창신동 232번지 ,종로구,없음
752,삼성아파트경로당,종로구 평창동 596번지 ,종로구,없음
753,낙원경로당,종로구 낙원동 127-3-301번지 ,종로구,없음
754,연건 경로당,종로구 연건동 59-2번지 ,종로구,없음
755,동숭 경로당,종로구 동숭동 6-31번지 ,종로구,없음
756,인수경로당,종로구 인사동 216번지 ,종로구,없음
757,계원경로당,종로구 원서동 135-65번지 ,종로구,없음
758,창인경로당,종로구 창신동 617번지 ,종로구,없음
759,행촌경로당,종로구 행촌동 210-33번지 ,종로구,없음
760,등촌동 아이파크2단지경로당,강서구 등촌동 715번지 등촌I-PARK아파트 202동 ,강서구,없음
761,강나루현대아파트경로당,강서구 가양동 448-1번지 강나루현대아파트 ,강서구,없음
762,강변월드메르디앙경로당,강서구 염창동 ,강서구,없음
763,가양보람아파트경로당,강서구 가양동 가양보람아파트 ,강서구,없음
764,가양보람아파트경로당,강서구 가양동 가양보람아파트 ,강서구,없음
765,마곡 금호어울림아파트 경로당,강서구 마곡동 ,강서구,없음
766,"종로5,6가경로당",종로구 효제동 173-2번지 ,종로구,없음
767,청진 경로당,종로구 청진동 173-2번지 ,종로구,없음
768,창일 당고개 경로당,종로구 창신동 197-17번지 ,종로구,없음
769,창락경로당,종로구 창신동 615-52번지 ,종로구,없음
770,부암경로당,종로구 부암동 141-1번지 ,종로구,없음
771,동망산경로당,종로구 숭인동 179-16번지 ,종로구,없음
772,무악경로당,종로구 무악동 69-3번지 ,종로구,없음
773,한마음경로당,종로구 숭인동 1043번지 ,종로구,없음
774,혜명경로당,종로구 명륜1가 23-9번지 ,종로구,없음
775,평창경로당,종로구 평창동 235-2번지 ,종로구,없음
776,창신2동경로당,종로구 창신동 594-8번지 ,종로구,없음
777,쌍용1단지아파트경로당,종로구 창신동 702번지 ,종로구,없음
778,쌍용2단지아파트경로당,종로구 창신동 703번지 ,종로구,없음
779,인현경로당,종로구 무악동 72번지 ,종로구,없음
780,사직경로당,종로구 사직동 산 1-13번지 ,종로구,없음
781,유림경로당,종로구 명륜3가 53-2번지 ,종로구,없음
782,온고회경로당,종로구 창신동 산 6-25번지 ,종로구,없음
783,창삼경로당,종로구 창신동 23-344번지 ,종로구,없음
784,창일경로당,종로구 창신동 328-30번지 ,종로구,없음
785,가회경로당,종로구 가회동 156번지 ,종로구,없음
786,마로니에경로당,종로구 동숭동 129-77번지 ,종로구,없음
787,동우경로당,종로구 종로5가 90번지 ,종로구,없음
788,숭인2동경로당,종로구 숭인동 211-16번지 ,종로구,없음
789,흥인경로당,종로구 숭인동 1043번지 ,종로구,없음
790,금강경로당,종로구 평창동 64-3번지 ,종로구,없음
791,장안경로당,종로구 낙원동 195-1번지 ,종로구,없음
792,아남아파트경로당,종로구 명륜2가 4번지 ,종로구,없음
793,종로6가경로당,종로구 종로6가 160번지 ,종로구,없음
794,삼덕경로당,종로구 낙원동 52번지 ,종로구,없음
795,파고다경로당,종로구 인사동 110번지 ,종로구,없음
796,희망경로당,종로구 인사동 86번지 ,종로구,없음
797,인사경로당,종로구 관수동 81-1번지 ,종로구,없음
798,종로경로당,종로구 관철동 35-3번지 ,종로구,없음
799,신유경로당,종로구 낙원동 197-2번지 ,종로구,없음
800,이문경로당,종로구 인사동 256번지 ,종로구,없음
801,비원(2)경로당,종로구 와룡동 90-3번지 ,종로구,없음
802,낙산등우회,종로구 동숭동 50-153번지 ,종로구,없음
803,복정경로당,종로구 삼청동 35-113번지 ,종로구,없음
804,운니경로당,종로구 운니동 60번지 ,종로구,없음
805,명륜3가경로당,종로구 명륜3가 1-1057번지 ,종로구,없음
806,국일경로당,종로구 종로3가 107-1번지 ,종로구,없음
807,돈의경로당,종로구 낙원동 94번지 ,종로구,없음
808,구기경로당,종로구 구기동 110-4번지 ,종로구,없음
809,서광아파트경로당,강서구 방화동 860번지 ,강서구,없음
810,염창삼성하나로아파트경로당,강서구 염창동 248-3번지 ,강서구,없음
811,등서경로당,강서구 등촌동 ,강서구,없음
812,방화구립경로당,강서구 방화동 262-7번지 ,강서구,없음
813,방화진로아파트경로당,강서구 방화동 804번지 ,강서구,없음
814,태영아파트경로당,강서구 등촌동 632-2번지 ,강서구,없음
815,염창강변경로당,강서구 염창동 114-2번지 ,강서구,없음
816,염창한강동아아파트경로당,강서구 염창동 293번지 ,강서구,없음
817,강나루2차현대아파트 경로당,강서구 가양동 448번지 강나루2차현대아파트 ,강서구,없음
818,한사랑2차삼성아파트 경로당,강서구 등촌동 634-3번지 ,강서구,없음
819,능말경로당,강서구 방화동 811-15번지 ,강서구,없음
820,등촌10단지아파트경로당,강서구 등촌동 702번지 ,강서구,없음
821,강서센트레빌4차경로당,강서구 공항동 1374번지 ,강서구,없음
822,마곡수명산파크 7단지(아) 경로당,강서구 내발산동 ,강서구,없음
823,마곡수명산파크 5단지(아)경로당,강서구 내발산동 749번지 마곡수명산파크 5단지 ,강서구,없음
824,강변코아루아파트 경로당,강서구 염창동 303번지 ,강서구,없음
825,강변성원(아)경로당,강서구 염창동 295번지 ,강서구,없음
826,마곡수명산파크 1단지(아)경로당,강서구 내발산동 742번지 마곡수명산파크1단지아파트 ,강서구,없음
827,보람더하임(아),강서구 염창동 305번지 ,강서구,없음
828,우장산SK뷰(아),강서구 화곡동 1158번지 ,강서구,없음
829,마곡푸르지오경로당,강서구 방화동 890번지 ,강서구,없음
830,벽산늘푸른아파트 경로당,강서구 염창동 290번지 ,강서구,없음
831,아리수 경로당,강서구 염창동 297번지 ,강서구,없음
832,삼형그레이스빌(아) 경로당,강서구 등촌동 564-7번지 ,강서구,없음
833,마곡수명산파크 3단지(아) 경로당,강서구 내발산동 751번지 마곡수명산파크 3단지 ,강서구,없음
834,마곡수명산파크 1단지(아),강서구 내발산동 ,강서구,없음
835,우성1차아파트경로당,강서구 염창동 66-9번지 ,강서구,없음
836,우장산 아이파크 e-편한세상(아),강서구 화곡동 1159번지 ,강서구,없음
837,마곡수명산파크 4단지(아)  경로당,강서구 내발산동 753번지 마곡수명산파크 4단지 ,강서구,없음
838,장미,강서구 공항동 668번지 ,강서구,없음
839,극동상록수아파트,강서구 염창동 280번지 ,강서구,없음
840,마곡수명산파크 2단지(아) 경로당,강서구 내발산동 741번지 마곡수명산파크 2단지 ,강서구,없음
841,마곡수명산파크 6단지(아) 경로당,강서구 내발산동 759번지 마곡수명산파크 6단지 ,강서구,없음
842,대한항공 정우회 경로당,강서구 방화동 246-36번지 ,강서구,없음
843,개화경로당,강서구 개화동 373-64번지 ,강서구,없음
844,우장산롯데(아)경로당,강서구 화곡동 1148번지 ,강서구,없음
845,강변한솔솔파크(아)경로당,강서구 염창동 300번지 ,강서구,없음
846,염창2차한화꿈에그린아파트 경로당,강서구 염창동 302번지 ,강서구,없음
847,강서월드메르디앙아파트 경로당,강서구 내발산동 659-1번지 ,강서구,없음
848,한솔솔파크(아) 경로당,강서구 마곡동 716번지 ,강서구,없음
849,마곡엠밸리4단지(아)경로당,강서구 마곡동 ,강서구,없음
850,강서힐스테이트(아)골든클럽 경로당,강서구 화곡동 ,강서구,없음
851,비원1(원서)경로당,종로구 원서동 83번지 ,종로구,없음
852,숭인1경로당,종로구 숭인동 20-116번지 ,종로구,없음
853,충신할머니경로당,종로구 충신동 136-16번지 ,종로구,없음
854,충신할아버지경로당,종로구 충신동 136-16번지 ,종로구,없음
855,교남경로당,종로구 행촌동 1-35번지 ,종로구,없음
856,삼청경로당,종로구 팔판동 119번지 ,종로구,없음
857,서린경로당,종로구 인의동 39번지 ,종로구,없음
858,청우경로당,종로구 낙원동 173-1번지 ,종로구,없음
859,청운경로당,종로구 청운동 4-20번지 ,종로구,없음
860,등촌11단지(아)경로당,강서구 등촌동 705-6번지 ,강서구,없음
861,방화삼성(아)경로당,강서구 방화동 857번지 ,강서구,없음
862,등촌동코오롱2차(아)경로당,강서구 등촌동 712번지 ,강서구,없음
863,동일스위트리버(아)경로당,강서구 방화동 880번지 ,강서구,없음
864,강변 현대홈타운(아) 경로당,강서구 염창동 299번지 ,강서구,없음
865,염창롯데캐슬(아) 경로당,강서구 염창동 272-11번지 ,강서구,없음
866,한화꿈에그린(아) 경로당,강서구 염창동 281-22번지 ,강서구,없음
867,우장산힐스테이트 경로당,강서구 내발산동 657번지 ,강서구,없음
868,등촌주공2단지(아)경로당,강서구 등촌동 687번지 ,강서구,없음
869,월드메르디앙 경로당,강서구 방화동 879번지 ,강서구,없음
870,등촌I-park(아)경로당,강서구 등촌동 715번지 ,강서구,없음
871,등촌동월드메르디앙(아)경로당,강서구 등촌동 711번지 ,강서구,없음
872,방화한진로즈힐(아)경로당,강서구 방화동 579번지 ,강서구,없음
873,다솔 경로당,강서구 공항동 1361-1번지 ,강서구,없음
874,화곡2차보람(아)경로당,강서구 화곡동 1149번지 ,강서구,없음
875,마곡 경로당,강서구 가양동 326-32번지 ,강서구,없음
876,신안빌라 경로당,강서구 가양동 327-53번지 ,강서구,없음
877,초록동 경로당,강서구 화곡동 55-79번지 ,강서구,없음
878,화곡푸르지오 경로당,강서구 화곡동 1091번지 ,강서구,없음
879,방화동신안네트빌APT 경로당,강서구 방화동 868번지 ,강서구,없음
880,희훈리치파크APT 경로당,강서구 화곡동 1011-6번지 ,강서구,없음
881,신이주단지 경로당,강서구 공항동 1352-6번지 ,강서구,없음
882,보람2차아파트경로당,강서구 등촌동 640번지 ,강서구,없음
883,신원아파트경로당,강서구 등촌동 641번지 ,강서구,없음
884,대동황토방(아)경로당,강서구 등촌동 631-9번지 ,강서구,없음
885,후포 경로당,강서구 마곡동 5-37번지 ,강서구,없음
886,개화산동부센트레빌아파트경로당,강서구 방화동 870번지 ,강서구,없음
887,우장산롯데캐슬경로당,강서구 화곡동 1145번지 ,강서구,없음
888,방화동 e-편한세상 (아) 경로당,강서구 방화동 874번지 ,강서구,없음
889,방화동부센트레빌(아) 경로당,강서구 방화동 875번지 ,강서구,없음
890,방신 서광(아) 경로당,강서구 방화동 871번지 ,강서구,없음
891,대동황토방2차(아)경로당,강서구 등촌동 713번지 ,강서구,없음
892,코오롱3차(아)경로당,강서구 등촌동 714번지 ,강서구,없음
893,방화2차우림루미아트(아)경로당,강서구 방화동 876번지 ,강서구,없음
894,주공2단지경로당,강서구 화곡동 1003-1번지 ,강서구,없음
895,발음경로당,강서구 내발산동 697번지 ,강서구,없음
896,청솔아파트경로당,강서구 방화동 ,강서구,없음
897,등촌현대아파트경로당,강서구 등촌동 655-27번지 101 101동 506호,강서구,없음
898,가양8단지아파트경로당,강서구 가양동 1482번지 ,강서구,없음
899,홍은1동분회경로당,서대문구 홍은동 48-110번지 ,서대문구,없음
900,북일경로당,서대문구 북가좌동 136-86번지 ,서대문구,없음
901,무악재한화아파트경로당,서대문구 홍제동 464번지 ,서대문구,없음
902,연희대우아파트경로당,서대문구 연희동 739번지 ,서대문구,없음
903,삼오경로당,서대문구 남가좌동 ,서대문구,없음
904,홍은풍림아이원아파트경로당,서대문구 홍은동 460번지 105 105동 101호,서대문구,없음
905,럭키아파트경로당,서대문구 대현동 ,서대문구,없음
906,유원하나아파트제2경로당,서대문구 홍제동 ,서대문구,없음
907,유원하나아파트경로당,서대문구 홍제동 ,서대문구,없음
908,인왕산현대아파트경로당,서대문구 홍제동 ,서대문구,없음
909,인왕산현대아파트제2경로당,서대문구 홍제동 ,서대문구,없음
910,홍제원현대아파트경로당,서대문구 홍제동 ,서대문구,없음
911,홍제원현대아파트제2경로당,서대문구 홍제동 ,서대문구,없음
912,정원단지경로당,서대문구 홍은동 265-159번지 ,서대문구,없음
913,상지경로당,서대문구 홍은동 171-29번지 ,서대문구,없음
914,독립문극동아파트경로당,서대문구 현저동 ,서대문구,없음
915,두산아파트경로당,서대문구 북아현동 1009번지 ,서대문구,없음
916,태영으뜸아파트경로당,서대문구 홍제동 ,서대문구,없음
917,현대아파트경로당,서대문구 남가좌동 ,서대문구,없음
918,월드컵현대아파트경로당,서대문구 북가좌동 371-1번지 ,서대문구,없음
919,독립문극동(임대)아파트경로당,서대문구 현저동 ,서대문구,없음
920,임광아파트경로당,서대문구 연희동 ,서대문구,없음
921,독립공원경로당,서대문구 현저동 산 5-5번지 ,서대문구,없음
922,동심경로당,서대문구 북아현동 251-11번지 동심경로당 ,서대문구,없음
923,홍제현대아파트경로당,서대문구 홍제동 ,서대문구,없음
924,풍림2차아파트경로당,서대문구 홍은동 ,서대문구,없음
925,홍제한양아파트경로당,서대문구 홍제동 ,서대문구,없음
926,남이마을경로당,서대문구 남가좌동 368번지 ,서대문구,없음
927,신가경로당,서대문구 북가좌동 318-1번지 ,서대문구,없음
928,연산경로당,서대문구 연희동 51-14번지 ,서대문구,없음
929,대림아파트경로당,서대문구 연희동 ,서대문구,없음
930,무악청구아파트경로당,서대문구 홍제동 ,서대문구,없음
931,고은경로당,서대문구 홍제동 449-1번지 ,서대문구,없음
932,현대그린아파트경로당,서대문구 홍제동 ,서대문구,없음
933,삼호아파트경로당,서대문구 영천동 ,서대문구,없음
934,개미마을경로당,서대문구 홍제동 산 1-100번지 ,서대문구,없음
935,삼호아파트경로당,서대문구 북가좌동 ,서대문구,없음
936,거북경로당(임대아파트),서대문구 북가좌동 449-1번지 ,서대문구,없음
937,홍제1동분회경로당,서대문구 홍제동 ,서대문구,없음
938,안산경로당,서대문구 홍제동 44-456번지 ,서대문구,없음
939,홍제3동분회경로당,서대문구 홍제동 ,서대문구,없음
940,태영방송인아파트경로당,강서구 화곡동 1140번지 ,강서구,없음
941,빛고을우방아파트경로당,강서구 가양동 448-9번지 101 101동 705호,강서구,없음
942,할머니경로당,강서구 오곡동 280-5번지 ,강서구,없음
943,등촌임광아파트경로당,강서구 등촌동 562-5번지 102 102동 1602호,강서구,없음
944,화곡경로당,강서구 화곡동 341-41번지 ,강서구,없음
945,삼정그린코아아파트경로당,강서구 염창동 282번지 ,강서구,없음
946,내발산 경로당,강서구 내발산동 671-30번지 ,강서구,없음
947,화곡본동 천주교회 경로당,강서구 화곡동 105-244번지 ,강서구,없음
948,증미경로당,강서구 염창동 241-15번지 ,강서구,없음
949,가양경로당,강서구 가양동 ,강서구,없음
950,등촌동 대림아파트경로당,강서구 등촌동 561-1번지 ,강서구,없음
951,구립예촌 경로당,강서구 화곡동 425-9번지 ,강서구,없음
952,신곡경로당,강서구 화곡동 466-9번지 ,강서구,없음
953,강서한강자이아파트,강서구 가양동 ,강서구,없음
954,마곡엠밸리14단지경로당,강서구 마곡동 ,강서구,없음
955,영운경로당,강서구 화곡동 1003-22번지 ,강서구,없음
956,태영송화(아)경로당,강서구 염창동 270-1번지 ,강서구,없음
957,방화2차현대(아),강서구 방화동 863번지 ,강서구,없음
958,태영송화(아),강서구 염창동 270-1번지 ,강서구,없음
959,방화2차현대(아),강서구 방화동 863번지 ,강서구,없음
960,대림아파트경로당,강서구 염창동 262-2번지 ,강서구,없음
961,한부구암아파트경로당,강서구 가양동 1495번지 ,강서구,없음
962,신동아아파트경로당,강서구 방화동 797번지 ,강서구,없음
963,대림아파트경로당,강서구 염창동 262-2번지 ,강서구,없음
964,한숲대림아파트경로당,강서구 방화동 862번지 한숲대림아파트 ,강서구,없음
965,방화구립경로당,강서구 방화동 262-7번지 ,강서구,없음
966,무지개경로당,강서구 화곡동 810-6번지 ,강서구,없음
967,서광APT 경로당,강서구 등촌동 638번지 ,강서구,없음
968,마곡벽산(아)경로당,강서구 마곡동 429번지 ,강서구,없음
969,무학(아) 경로당,강서구 염창동 255번지 ,강서구,없음
970,화곡초록(아)경로당,강서구 화곡동 1139번지 ,강서구,없음
971,염창극동아파트경로당,강서구 염창동 246-23번지 ,강서구,없음
972,봉제경로당,강서구 화곡동 산 47-16번지 ,강서구,없음
973,방화9단지아파트 경로당,강서구 방화동 807번지 ,강서구,없음
974,등촌5단지(아)경로당,강서구 등촌동 695번지 ,강서구,없음
975,등촌6단지(아) 경로당,강서구 등촌동 ,강서구,없음
976,건우3차아파트경로당,강서구 방화동 195번지 ,강서구,없음
977,한보구암아파트경로당,강서구 가양동 1495번지 ,강서구,없음
978,연지경로당,강서구 화곡동 1121-19번지 ,강서구,없음
979,관음삼성아파트 경로당,강서구 염창동 268번지 ,강서구,없음
980,장미아파트경로당,강서구 방화동 841번지 ,강서구,없음
981,홍제4동분회경로당,서대문구 홍제동 23-9번지 ,서대문구,없음
982,북아현2동분회경로당,서대문구 북아현동 163-7번지 ,서대문구,없음
983,홍은1동분회경로당,서대문구 홍은동 48-20번지 ,서대문구,없음
984,할머니경로당,서대문구 홍은동 48-154번지 ,서대문구,없음
985,벽산아파트경로당,서대문구 홍은동 ,서대문구,없음
986,포방터경로당,서대문구 홍은동 ,서대문구,없음
987,인왕경로당,서대문구 홍제동 ,서대문구,없음
988,호박골경로당,서대문구 홍은동 ,서대문구,없음
989,유원아파트경로당,서대문구 홍은동 22번지 ,서대문구,없음
990,백련경로당,서대문구 홍은동 421-1번지 ,서대문구,없음
991,논골문화원,서대문구 홍은동 ,서대문구,없음
992,할머니답동경로당,서대문구 홍은동 산 11-17번지 ,서대문구,없음
993,현대아파트경로당,서대문구 홍은동 ,서대문구,없음
994,남가좌1동분회경로당,서대문구 남가좌동 104-11번지 ,서대문구,없음
995,남가좌2동분회경로당,서대문구 남가좌동 346-19번지 ,서대문구,없음
996,장수경로당,서대문구 북가좌동 125-7번지 ,서대문구,없음
997,한양아파트경로당,서대문구 북가좌동 431-7번지 ,서대문구,없음
998,은가경로당,서대문구 북가좌동 ,서대문구,없음
999,미근경로당(충정로동분회),서대문구 미근동 60-42번지 ,서대문구,없음
1000,경서경로당,서대문구 충정로2가 115-13번지 ,서대문구,없음
1001,천연동분회경로당,서대문구 냉천동 31-2번지 ,서대문구,없음
1002,무악경로당,서대문구 현저동 1-65번지 ,서대문구,없음
1003,북아현동경로당,서대문구 북아현동 ,서대문구,없음
1004,북아현2동분회경로당,서대문구 북아현동 163-7번지 ,서대문구,없음
1005,북아현3동분회경로당,서대문구 북아현동 180-25번지 ,서대문구,없음
1006,합동경로당,서대문구 북아현동 1-707번지 ,서대문구,없음
1007,서북경로당,서대문구 북아현동 196-5번지 ,서대문구,없음
1008,대신경로당,서대문구 대현동 90-17번지 ,서대문구,없음
1009,신촌경로당,서대문구 신촌동 ,서대문구,없음
1010,창천경로당,서대문구 창천동 57-18번지 ,서대문구,없음
1011,연서경로당,서대문구 연희동 519-27번지 ,서대문구,없음
1012,연희2동분회경로당,서대문구 연희동 187-131번지 ,서대문구,없음
1013,홍연경로당,서대문구 연희동 ,서대문구,없음
1014,연희궁경로당,서대문구 연희동 339-72번지 ,서대문구,없음
1015,연희3동분회경로당,서대문구 연희동 산 5번지 ,서대문구,없음
1016,북가좌휴먼센터경로당,서대문구 북가좌동 ,서대문구,없음
1017,라인아파트경로당,강서구 등촌동 628-15번지 ,강서구,없음
1018,우정경로당,강서구 방화동 839번지 ,강서구,없음
1019,산우물 경로당,강서구 공항동 2-91번지 ,강서구,없음
1020,염창동아(아)청솔경로당,강서구 염창동 292번지,강서구,없음
1021,삼성꽃마을아파트경로당,강서구 방화동 858번지 ,강서구,없음
1022,상사경로당,강서구 개화동 230-13번지 ,강서구,없음
1023,코오롱아파트경로당,강서구 등촌동 642번지 ,강서구,없음
1024,길훈아파트 경로당,강서구 염창동 294번지 ,강서구,없음
1025,금호타운아파트 경로당,강서구 염창동 240-32번지 ,강서구,없음
1026,삼성꽃마을(아)경로당,강서구 방화동 858번지 ,강서구,없음
1027,부영아파트경로당,강서구 등촌동 691-3번지 ,강서구,없음
1028,등촌7단지경로당,강서구 등촌동 707번지 ,강서구,없음
1029,태진한솔APT 경로당,강서구 염창동 263번지 ,강서구,없음
1030,방화12단지아파트 경로당,강서구 방화동 852번지 ,강서구,없음
1031,등촌주공1단지(아)경로당,강서구 등촌동 687번지 ,강서구,없음
1032,등촌9종합사회복지관 경로당,강서구 등촌동 704번지 ,강서구,없음
1033,현대APT 경로당,강서구 방화동 793번지 ,강서구,없음
1034,골안말 경로당,강서구 화곡동 865-1번지 ,강서구,없음
1035,등촌4단지(아) 경로당,강서구 등촌동 690번지 ,강서구,없음
1036,삼익삼환아파트경로당,강서구 방화동 831번지 ,강서구,없음
1037,방화6종합사회복지관경로당,강서구 방화동 816번지 ,강서구,없음
1038,방화5단지(아)경로당,강서구 방화동 814번지 ,강서구,없음
1039,주공8단지(아)경로당,강서구 등촌동 707번지 ,강서구,없음
1040,미주진로아파트 경로당,강서구 등촌동 ,강서구,없음
1041,신동아아파트경로당,강서구 방화동 797번지 ,강서구,없음
1042,태진아름경로당,강서구 등촌동 ,강서구,없음
1043,상록수아파트경로당,강서구 방화동 839번지 ,강서구,없음
1044,등촌2주공아파트경로당,강서구 등촌동 688번지 ,강서구,없음
1045,신동아(아)경로당,강서구 염창동 289번지 ,강서구,없음
1046,대림APT 경로당,강서구 등촌동 694번지 ,강서구,없음
1047,동성아파트경로당,강서구 등촌동 691-1번지 ,강서구,없음
1048,우성3차아파트경로당,강서구 염창동 272-28번지 ,강서구,없음
1049,등촌3주공아파트경로당,강서구 등촌동 ,강서구,없음
1050,두보경로당,강서구 등촌동 515-44번지 1 1동 201호,강서구,없음
1051,신광명경로당,강서구 외발산동 221-1번지 ,강서구,없음
1052,가양2단지(아)경로당,강서구 가양동 1461번지 ,강서구,없음
1053,가양1단지(아)경로당,강서구 가양동 1459번지 ,강서구,없음
1054,가양4단지경로당,강서구 가양동 1478번지 ,강서구,없음
1055,가양9-1단지아파트경로당,강서구 가양동 1489번지 ,강서구,없음
1056,가양2단지아파트경로당,강서구 가양동 1461번지 ,강서구,없음
1057,가양6단지APT경로당,강서구 가양동 1485번지 ,강서구,없음
1058,가양5종합사회복지관 경로당,강서구 가양동 1481번지 ,강서구,없음
1059,화곡대림아파트 경로당,강서구 화곡동 361-1번지 ,강서구,없음
1060,한강타운아파트경로당,강서구 가양동 1460번지 ,강서구,없음
1061,가양9-2단지아파트 경로당,강서구 가양동 1490번지 ,강서구,없음
1062,하마터 경로당,강서구 화곡동 883-03번지 ,강서구,없음
1063,강변경로당,강서구 가양동 1474번지 ,강서구,없음
1064,화촌 경로당,강서구 화곡동 105-382번지 ,강서구,없음
1065,공원경로당,강서구 화곡동 379-32번지 ,강서구,없음
1066,마곡신안아파트경로당,강서구 마곡동 422번지 ,강서구,없음
1067,대림경동아파트경로당,강서구 가양동 1474번지 대림경동아파트 ,강서구,없음
1068,동성아파트경로당,강서구 방화동 817번지 ,강서구,없음
1069,개화아파트 경로당,강서구 방화동 819번지 ,강서구,없음
1070,염창우성2차아파트경로당,강서구 염창동 287-1번지 ,강서구,없음
1071,염창현대1차(아)경로당,강서구 염창동 288번지 ,강서구,없음
1072,푸른 경로당,강서구 화곡동 1016-34번지 ,강서구,없음
1073,약수경로당,강서구 화곡동 409-84번지 ,강서구,없음
1074,일심 경로당,강서구 방화동 217-159번지 ,강서구,없음
1075,거성 경로당,강서구 화곡동 50-120번지 ,강서구,없음
1076,봉바위경로당,강서구 화곡동 1061-36번지 ,강서구,없음
1077,성재정경로당,강서구 가양동 175-3번지 ,강서구,없음
1078,복종경로당,강서구 방화동 494-3번지 ,강서구,없음
1079,중앙경로당,강서구 화곡동 ,강서구,없음
1080,중앙하이츠,강서구 화곡동 351-89번지 ,강서구,없음
1081,안골경로당,강서구 화곡동 155-1번지 ,강서구,없음
1082,미성아파트경로당,강서구 화곡동 409-248번지 ,강서구,없음
1083,화곡본동경로당,강서구 화곡동 98-22번지 ,강서구,없음
1084,가양경로당,강서구 가양동 200-4번지 ,강서구,없음
1085,우장산 경로당,강서구 화곡동 994-6번지 ,강서구,없음
1086,곰달래 경로당,강서구 화곡동 922-10번지 ,강서구,없음
1087,화곡일심 경로당,강서구 화곡동 878-3번지 ,강서구,없음
1088,한미(아)경로당,강서구 방화동 286-5번지 ,강서구,없음
1089,화친경로당,강서구 화곡동 792-9번지 ,강서구,없음
1090,장미(방화1단지)경로당,강서구 방화동 841번지 방화1단지아파트 ,강서구,없음
1091,수명 경로당,강서구 화곡동 1044-31번지 ,강서구,없음
1092,원당 경로당,강서구 내발산동 658번지 ,강서구,없음
1093,가양우성(아)경로당,강서구 가양동 14-3번지 ,강서구,없음
1094,가양우성아파트경로당,강서구 가양동 14-3번지 ,강서구,없음
1095,두보빌라경로당,강서구 등촌동 515-44번지 ,강서구,없음
1096,가양중앙하이츠아파트경로당,강서구 가양동 1467번지 ,강서구,없음
1097,푸르뫼아파트경로당,강서구 방화동 859번지 ,강서구,없음
1098,가양7종합사회복지관(정우) 경로당,강서구 가양동 1486번지 ,강서구,없음
1099,염창경로당,강서구 염창동 183번지 ,강서구,없음
1100,공항경로당,강서구 공항동 51-50번지 ,강서구,없음
1101,외발산 경로당,강서구 외발산동 177-1번지 ,강서구,없음
1102,치현 경로당,강서구 방화동 823-1번지 ,강서구,없음
1103,긴등 경로당,강서구 공항동 4-85번지 ,강서구,없음
1104,우신할아버지경로당,강서구 화곡동 산 70-1번지 ,강서구,없음
1105,우신할머니경로당,강서구 화곡동 산 70-1번지 ,강서구,없음
1106,동부경로당,강서구 공항동 41-68번지 ,강서구,없음
1107,내촌경로당,강서구 개화동 551-34번지 ,강서구,없음
1108,신안9차아파트경로당,강서구 방화동 481번지 ,강서구,없음
1109,까치산경로당,강서구 화곡동 359-126번지 ,강서구,없음
1110,방화11단지복지관(장수)경로당,강서구 방화동 851번지 ,강서구,없음
1111,우신할아버지경로당,강서구 화곡동 산70-1번지 ,강서구,없음
1112,방화 경로당,강서구 방화동 648-23번지 ,강서구,없음
1113,등촌 경로당,강서구 등촌동 ,강서구,없음
1114,방화동부 경로당,강서구 방화동 168-87번지 ,강서구,없음
1115,능안경로당,강서구 등촌동 517-1번지 ,강서구,없음
1116,신림주공1단지(아)경로당,관악구 신림동 1704-1번지 주공1차아파트 ,관악구,없음
1117,성우아파트경로당,관악구 신림동 10-622번지 성우아파트 ,관악구,없음
1118,휴먼시아 제1경로당,관악구 신림동 ,관악구,없음
1119,신림우방(아)경로당,관악구 신림동 1715번지 ,관악구,없음
1120,휴먼시아(아)제2경로당,관악구 신림동 1735번지 ,관악구,없음
1121,휴먼시아(아)3단지경로당,관악구 신림동 1735번지 ,관악구,없음
1122,휴먼시아(아)제5경로당,관악구 신림동 1735번지 ,관악구,없음
1123,휴먼시아(아)제3경로당,관악구 신림동 1735번지 ,관악구,없음
1124,휴먼시아(아)제4경로당,관악구 신림동 1735번지 ,관악구,없음
1125,라이프(아)경로당,관악구 신림동 1700번지 ,관악구,없음
1126,봉천두산(아)1단지경로당,관악구 봉천동 1708번지 ,관악구,없음
1127,봉천두산(아)2단지경로당,관악구 봉천동 1708-1번지 ,관악구,없음
1128,봉천두산(아)임대3단지경로당,관악구 봉천동 1708-2번지 ,관악구,없음
1129,관악드림타운2단지(아)경로당,관악구 봉천동 1712-1번지 ,관악구,없음
1130,은천2단지(아)경로당,관악구 봉천동 1707-1번지 ,관악구,없음
1131,신림현대(아)경로당,관악구 신림동 1694번지 ,관악구,없음
1132,신림3동경로당,관악구 신림동 610-288번지 ,관악구,없음
1133,무궁화경로당,관악구 신림동 646-7번지 ,관악구,없음
1134,신림4동경로당,관악구 신림동 480-21번지 ,관악구,없음
1135,강남경로당,관악구 신림동 1657-3번지 ,관악구,없음
1136,삼광경로당,관악구 신림동 316-95번지 ,관악구,없음
1137,율곡경로당,관악구 신림동 321-6번지 ,관악구,없음
1138,삼성산주공(아)경로당,관악구 신림동 1714번지 ,관악구,없음
1139,주공2단지(아)경로당,관악구 신림동 1713번지 ,관악구,없음
1140,약수경로당,관악구 신림동 733번지 ,관악구,없음
1141,하난곡경로당,관악구 신림동 597-96번지 ,관악구,없음
1142,신림쌍용(아)경로당,관악구 신림동 1686번지 ,관악구,없음
1143,두영(아)경로당,관악구 신림동 1717번지 ,관악구,없음
1144,신림동부센트레빌(아)경로당,관악구 신림동 1734번지 ,관악구,없음
1145,건영3차(아)경로당,관악구 신림동 1703-1번지 ,관악구,없음
1146,행운경로당,관악구 봉천동 1724-2번지 ,관악구,없음
1147,보라매경로당,관악구 봉천동 662-109번지 ,관악구,없음
1148,대우신림2차푸르지오아파트경로당,관악구 신림동 1736번지 ,관악구,없음
1149,풍림아이원아파트 경로당,관악구 봉천동 ,관악구,없음
1150,장수촌경로당,관악구 신림동 460-2번지 ,관악구,없음
1151,서원경로당,관악구 신림동 409-26번지 ,관악구,없음
1152,신림동벽산블루밍(아)경로당,관악구 신림동 1733번지 ,관악구,없음
1153,봉천벽산블루밍3차(아)경로당,관악구 봉천동 1720번지 ,관악구,없음
1154,관악벽산블루밍(아)2단지경로당,관악구 봉천동 1718번지 ,관악구,없음
1155,우림루미아트경로당,관악구 남현동 1135번지 ,관악구,없음
1156,월드경로당,관악구 봉천동 1724번지 ,관악구,없음
1157,벽산블루밍(아)3단지경로당,관악구 봉천동 1718번지 ,관악구,없음
1158,임광관악파크(아)경로당,관악구 신림동 1727번지 ,관악구,없음
1159,사립 건영6차(아)경로당,관악구 봉천동 1701번지 ,관악구,없음
1160,신림푸르지오경로당,관악구 신림동 1730번지 ,관악구,없음
1161,사립 관악동부센트레빌(아)경로당,관악구 봉천동 1719번지 ,관악구,없음
1162,관악푸르지오삼오경로당,관악구 봉천동 1717-1번지 ,관악구,없음
1163,신림13동 구립 경로당,관악구 신림동 642-15번지 ,관악구,없음
1164,조원(아)경로당,관악구 신림동 1719번지 ,관악구,없음
1165,구립서광경로당,관악구 신림동 90-271번지 ,관악구,없음
1166,봉천5동 구립경로당,관악구 봉천동 480-111번지 ,관악구,없음
1167,중앙경로당,관악구 봉천동 458-96번지 ,관악구,없음
1168,구립일선경로당,관악구 봉천동 1587-7번지 ,관악구,없음
1169,관악푸르지오아파트 경로당,관악구 봉천동 1717번지 ,관악구,없음
1170,난향경로당,관악구 신림동 675-402번지 ,관악구,없음
1171,국회단지경로당,관악구 신림동 675-330번지 ,관악구,없음
1172,신림6동경로당,관악구 신림동 368-8번지 ,관악구,없음
1173,신림9동경로당,관악구 신림동 818-78번지 ,관악구,없음
1174,갑을(아)경로당,관악구 봉천동 1700번지 ,관악구,없음
1175,"봉천6동우성(아)109,110동경로당",관악구 봉천동 1706-1번지 ,관악구,없음
1176,봉천우성아파트경로당,관악구 봉천동 1706번지 ,관악구,없음
1177,새들경로당,관악구 신림동 1440-17번지 ,관악구,없음
1178,신림5동경로당,관악구 신림동 1418-1번지 ,관악구,없음
1179,원당경로당,관악구 봉천동 148-1458번지 ,관악구,없음
1180,봉천본동경로당,관악구 봉천동 936-6번지 ,관악구,없음
1181,두산아파트3단지경로당,관악구 봉천동 1708-2번지 ,관악구,없음
1182,난곡경로당,관악구 신림동 712-8번지 ,관악구,없음
1183,관악벽산블루밍(아)1단지경로당,관악구 봉천동 1718번지 ,관악구,없음
1184,신원경로당,관악구 신림동 1581-6번지 ,관악구,없음
1185,삼성경로당,관악구 신림동 1476-5번지 ,관악구,없음
1186,신림11동 구립 경로당,관악구 신림동 산 197-32번지 ,관악구,없음
1187,신도브래뉴(아)경로당,관악구 신림동 1723번지 ,관악구,없음
1188,봉천벽산타운2차아파트경로당,관악구 봉천동 1716번지 ,관악구,없음
1189,봉팔경로당,관악구 봉천동 927-22번지 ,관악구,없음
1190,봉천2동,관악구 봉천동 41-34번지 ,관악구,없음
1191,봉천동아(아) 2단지 경로당,관악구 봉천동 1703번지 ,관악구,없음
1192,봉천동아(아)경로당,관악구 봉천동 산 94-12번지 ,관악구,없음
1193,서울대입구삼성(아)경로당,관악구 봉천동 1591-2번지 ,관악구,없음
1194,관악드림타운경로당,관악구 봉천동 1712번지 ,관악구,없음
1195,신관경로당,관악구 신림동 91-50번지 ,관악구,없음
1196,청림경로당,관악구 봉천동 산 15-41번지 ,관악구,없음
1197,예촌경로당,관악구 남현동 1083-17번지 ,관악구,없음
1198,관악현대(아)경로당,관악구 봉천동 1000번지 ,관악구,없음
1199,덕양경로당,관악구 봉천동 1637-13번지 ,관악구,없음
1200,인헌경로당,관악구 봉천동 11-1번지 ,관악구,없음
1201,관악정경로당,관악구 남현동 산 100-14번지 ,관악구,없음
1202,동부(아)경로당,관악구 신림동 1635번지 ,관악구,없음
1203,태흥(아)경로당,관악구 신림동 1698번지 ,관악구,없음
1204,보라매삼성경로당,관악구 봉천동 1698-1번지 ,관악구,없음
1205,신9현대(아)경로당,관악구 신림동 255번지 ,관악구,없음
1206,신림주공(아)경로당,관악구 신림동 339-8번지 ,관악구,없음
1207,만수경로당,관악구 봉천동 9-31번지 ,관악구,없음
1208,신림금호(아)경로당,관악구 신림동 산 25-8번지 ,관악구,없음
1209,인헌(아)경로당,관악구 봉천동 산 82번지 ,관악구,없음
1210,신봉경로당,관악구 봉천동 산 161-23번지 ,관악구,없음
1211,낙성대현대(아)경로당,관악구 봉천동 180-6번지 ,관악구,없음
1212,강남(아)경로당,관악구 신림동 1644번지 ,관악구,없음
1213,101경로당,관악구 봉천동 478-20번지 ,관악구,없음
1214,봉덕경로당,관악구 봉천동 281번지 ,관악구,없음
1215,장수경로당,관악구 봉천동 1512-9번지 ,관악구,없음
1216,신창경로당,관악구 봉천동 1678-1번지 ,관악구,없음
1217,삼성래미안아파트경로당,도봉구 쌍문동 725번지 ,도봉구,없음
1218,국지경로당,관악구 봉천동 622-70번지 ,관악구,없음
1219,건영1차(아)경로당,관악구 신림동 746-43번지 ,관악구,없음
1220,신팔경로당,관악구 신림동 560-6번지 ,관악구,없음
1221,봉천일동 경로당,관악구 봉천동 662-109번지 ,관악구,없음
1222,백설경로당,관악구 봉천동 1606-11번지 ,관악구,없음
1223,관수경로당,관악구 남현동 602-196번지 ,관악구,없음
1224,신본경로당,관악구 신림동 1510-6번지 ,관악구,없음
1225,서림경로당,관악구 신림동 103-142번지 ,관악구,없음
1226,봉천11동 경로당,관악구 봉천동 1642-4번지 ,관악구,없음
1227,건영2차(아)경로당,관악구 신림동 721-2번지 ,관악구,없음
1228,덕진경로당,관악구 봉천동 1613-19번지 ,관악구,없음
1229,국사봉경로당,관악구 봉천동 622-70번지 ,관악구,없음
1230,신일경로당,관악구 신림동 419-30번지 ,관악구,없음
1231,성내천경로당,강동구 성내동 558-8번지 1층 ,강동구,없음
1232,암사한솔A경로당,강동구 암사동 419번지 ,강동구,없음
1233,고덕리엔파크1단지경로당,강동구 강일동 707번지 고덕리엔파크1단지 아파트 ,강동구,없음
1234,고덕리엔파크3단지경로당,강동구 상일동 490번지 고덕리엔파크 ,강동구,없음
1235,고덕리엔파크2단지경로당,강동구 강일동 717번지 고덕리엔파크 2단지 ,강동구,없음
1236,강일리버파크9단지 경로당,강동구 강일동 ,강동구,없음
1237,구립 구암경로당,강동구 암사동 446-25번지 ,강동구,없음
1238,둔촌푸르지오아파트경로당,강동구 둔촌동 둔촌푸르지오아파트 ,강동구,없음
1239,고덕아이파크경로당,강동구 고덕동 ,강동구,없음
1240,강일리버파크2단지 경로당,강동구 강일동 668번지 ,강동구,없음
1241,강일리버파크8단지경로당,강동구 강일동 701번지 ,강동구,없음
1242,강일리버파크6단지경로당,강동구 강일동 684번지 ,강동구,없음
1243,프라이어팰리스,강동구 암사동 ,강동구,없음
1244,장생경로당,강동구 암사동 489-52번지 ,강동구,없음
1245,강동롯데캐슬A경로당,강동구 암사동 ,강동구,없음
1246,강일리버파크1단지경로당,강동구 강일동 665번지 ,강동구,없음
1247,강일리버파크3단지경로당,강동구 강일동 ,강동구,없음
1248,강일리버파크10단지경로당,강동구 강일동 695번지 ,강동구,없음
1249,강일리버파크4단지 경로당,강동구 강일동 673번지 ,강동구,없음
1250,강일리버파크 7단지 경로당,강동구 강일동 686번지 ,강동구,없음
1251,둔촌신동아(아)경로당,강동구 둔촌동 555번지 ,강동구,없음
1252,천호현대타워아파트노인회,강동구 천호동 565번지 ,강동구,없음
1253,성내삼성목련A 경로당,강동구 성내동 591번지 ,강동구,없음
1254,골드빌경로당,강동구 길동 384-1번지 ,강동구,없음
1255,소망경로당,강동구 천호동 26-24번지 ,강동구,없음
1256,암사현대홈타운아파트경로당,강동구 암사동 ,강동구,없음
1257,동원베네스트아파트 경로당,강동구 암사동 670번지 ,강동구,없음
1258,장수경로당,강동구 고덕동 167-5번지 ,강동구,없음
1259,구립 쉼터경로당,강동구 천호동 321-22번지 ,강동구,없음
1260,동아하이빌아파트경로당,강동구 천호동 217-132번지 ,강동구,없음
1261,신성둔촌미소지움2차아파트 경로당,강동구 둔촌동 ,강동구,없음
1262,길동현대A경로당,강동구 길동 ,강동구,없음
1263,삼성광나루아파트경로당,강동구 암사동 ,강동구,없음
1264,한솔솔파크 한솔경로당,강동구 둔촌동 ,강동구,없음
1265,GS강동자이아파트 경로당,강동구 길동 473번지 ,강동구,없음
1266,둔촌역청구아파트경로당,강동구 성내동 ,강동구,없음
1267,성내1차e편한세상A경로당,강동구 성내동 598번지 ,강동구,없음
1268,구사거리경로당,강동구 천호동 421-9번지 301호,강동구,없음
1269,구립)강일경로당,강동구 하일동 365-5번지 ,강동구,없음
1270,엘지아파트경로당,강동구 명일동 332-1번지 ,강동구,없음
1271,구립 당말경로당,강동구 천호동 121-72번지 ,강동구,없음
1272,천호삼성A(할머니)경로당,강동구 천호동 ,강동구,없음
1273,구립)웃말경로당,강동구 성내동 225-19번지 ,강동구,없음
1274,독립문파크빌A 경로당,서대문구 현저동 1019번지 ,서대문구,없음
1275,달님경로당,강동구 길동 405-21번지 ,강동구,없음
1276,신성둔촌미소지움1차아파트 경로당,강동구 둔촌동 ,강동구,없음
1277,둔촌하이츠아파트경로당,강동구 둔촌동 545번지 ,강동구,없음
1278,한강현대아파트경로당,강동구 암사동 442-1번지 ,강동구,없음
1279,천호중앙하이츠아파트경로당,강동구 천호동 ,강동구,없음
1280,둔촌동아아파트 경로당,강동구 둔촌동 ,강동구,없음
1281,선사현대아파트경로당,강동구 암사동 509번지 ,강동구,없음
1282,천호삼성A(할아버지)경로당,강동구 천호동 528-2번지 ,강동구,없음
1283,천호태영A제1경로당,강동구 천호동 ,강동구,없음
1284,천호태영아파트제2경로당,강동구 천호동 ,강동구,없음
1285,성내 삼성A경로당,강동구 성내동 590번지 ,강동구,없음
1286,성안마을청구A경로당,강동구 성내동 295번지 ,강동구,없음
1287,성내코오롱아파트경로당,강동구 성내동 ,강동구,없음
1288,길동라인아파트경로당,강동구 길동 365-1번지 ,강동구,없음
1289,고덕아남아파트경로당,강동구 고덕동 486번지 ,강동구,없음
1290,구립)강암경로당,강동구 암사동 492-20번지 ,강동구,없음
1291,구립)기리울경로당,강동구 길동 106-2번지 ,강동구,없음
1292,길동우성아파트경로당,강동구 길동 ,강동구,없음
1293,둔촌현대4차아파트경로당,강동구 둔촌동 ,강동구,없음
1294,구립 샘물경로당,강동구 명일동 351-2번지 ,강동구,없음
1295,고덕현대아파트경로당,강동구 고덕동 ,강동구,없음
1296,천호1동경로당,강동구 천호동 ,강동구,없음
1297,상일동아아파트경로당,강동구 상일동 ,강동구,없음
1298,성내현대아파트경로당,강동구 성내동 ,강동구,없음
1299,고덕2동경로당,강동구 고덕동 178번지 ,강동구,없음
1300,해공경로당,강동구 천호동 338-19번지 ,강동구,없음
1301,암사2동제2경로당,강동구 암사동 515번지 ,강동구,없음
1302,한신아파트경로당,강동구 천호동 237번지 ,강동구,없음
1303,성내3동제2경로당,강동구 성내동 444-6번지 ,강동구,없음
1304,성심경로당,강동구 길동 386-1번지 ,강동구,없음
1305,상일중앙하이츠경로당,강동구 상일동 ,강동구,없음
1306,명일삼환아파트경로당,강동구 명일동 47번지 ,강동구,없음
1307,구립 원터골경로당,강동구 명일동 236번지 ,강동구,없음
1308,구립)방죽말경로당,강동구 고덕동 201호,강동구,없음
1309,구립)복지말경로당,강동구 암사동 471-29번지 ,강동구,없음
1310,구립 십자성경로당,강동구 천호동 76-2번지 ,강동구,없음
1311,구립 안말경로당,강동구 성내동 512번지 ,강동구,없음
1312,암사1동제2경로당,강동구 암사동 453-8번지 ,강동구,없음
1313,암사1동제3경로당,강동구 암사동 474-19번지 ,강동구,없음
1314,양지마을경로당,강동구 암사동 ,강동구,없음
1315,강동1차아파트경로당,강동구 암사동 414-2번지 ,강동구,없음
1316,동서울아파트경로당,강동구 암사동 377-4번지 ,강동구,없음
1317,서원마을경로당,강동구 암사동 ,강동구,없음
1318,강동2차아파트경로당,강동구 암사동 413-9번지 ,강동구,없음
1319,천호우성아파트경로당,강동구 천호동 19-1번지 ,강동구,없음
1320,천호코오롱아파트경로당,강동구 천호동 ,강동구,없음
1321,성내2동경로당,강동구 성내동 ,강동구,없음
1322,미주아파트경로당,강동구 성내동 547-1번지 ,강동구,없음
1323,길동삼익파크아파트(여)경로당,강동구 길동 산 1-1번지 ,강동구,없음
1324,길동삼익파크아파트(남)경로당,강동구 길동 삼익파크 ,강동구,없음
1325,길동 신동아A경로당,강동구 길동 신동아아파트) ,강동구,없음
1326,둔촌프라자아파트 경로당,강동구 둔촌동 ,강동구,없음
1327,진흥아파트경로당,강동구 길동 298-1번지 ,강동구,없음
1328,둔촌1동제1(남)경로당,"강동구 둔촌동 ,주공아파트) ",강동구,없음
1329,둔촌1동제2(여)경로당,강동구 둔촌동 178번지 ,강동구,없음
1330,둔촌1동제1(여)경로당,강동구 둔촌동 172-1번지 ,강동구,없음
1331,둔촌현대3차아파트경로당,강동구 둔촌동 134-1번지 ,강동구,없음
1332,고일경로당,강동구 고덕동 536번지 ,강동구,없음
1333,새장터경로당,강동구 암사동 468-2번지 ,강동구,없음
1334,천호3동(여)경로당,강동구 천호동 555번지 ,강동구,없음
1335,곡교경로당,강동구 천호동 300번지 ,강동구,없음
1336,성내3동제1경로당,강동구 성내동 ,강동구,없음
1337,암사1동제1경로당,강동구 암사동 425-177번지 ,강동구,없음
1338,구립) 성내1동경로당,강동구 성내동 533번지 ,강동구,없음
1339,선린경로당,강동구 둔촌동 39-8번지 ,강동구,없음
1340,구립)천호4동경로당,강동구 천호동 363-5번지 ,강동구,없음
1341,상일동경로당,강동구 상일동 233번지 ,강동구,없음
1342,구립 무궁화경로당,강동구 길동 ,강동구,없음
1343,약수경로당,강동구 둔촌동 426-6번지 ,강동구,없음
1344,고덕3단지경로당,강동구 상일동 ,강동구,없음
1345,고덕5단지아파트경로당,강동구 상일동 ,강동구,없음
1346,고덕6단지아파트경로당,강동구 상일동 ,강동구,없음
1347,고덕7단지아파트경로당,강동구 상일동 ,강동구,없음
1348,삼성빌라경로당,강동구 상일동 ,강동구,없음
1349,구립 명일1동 경로당,강동구 명일동 326-10번지 ,강동구,없음
1350,삼익1차아파트경로당,강동구 명일동 ,강동구,없음
1351,삼익2차A경로당,강동구 명일동 ,강동구,없음
1352,삼익가든아파트경로당,강동구 명일동 270번지 ,강동구,없음
1353,명일주공9단지아파트 경로당,강동구 명일동 257번지 ,강동구,없음
1354,명일신동아아파트경로당,강동구 명일동 ,강동구,없음
1355,명일2동현대(아)경로당,강동구 명일동 ,강동구,없음
1356,한양아파트경로당,강동구 명일동 54번지 ,강동구,없음
1357,명일우성A 경로당,강동구 명일동 42번지 ,강동구,없음
1358,고덕주공1단지경로당,강동구 고덕동 499번지 ,강동구,없음
1359,고덕시영아파트경로당,강동구 고덕동 494번지 ,강동구,없음
1360,고덕공무원상록A경로당,강동구 고덕동 307번지 ,강동구,없음
1361,고덕2단지경로당,강동구 고덕동 ,강동구,없음
1362,더샵스타시티경로당,"광진구 자양동 227-7번지 D D동 5, 6호",광진구,없음
1363,신동아파밀리에신동아아파트경로당,광진구 광장동 250번지 ,광진구,없음
1364,이튼타워리버3차경로당,광진구 자양동 855번지 c c동 3층호,광진구,없음
1365,우성1차아파트경로당,광진구 자양동 579-8번지 ,광진구,없음
1366,장수경로당,광진구 중곡동 150-137번지 ,광진구,없음
1367,장수경로당,광진구 중곡동 150-110번지 ,광진구,없음
1368,양마제2경로당,광진구 군자동 342-10번지 ,광진구,없음
1369,광진한화꿈에그린아파트경로당,광진구 자양동 853번지 ,광진구,없음
1370,자양9차현대홈타운 경로당,광진구 자양동 790번지 ,광진구,없음
1371,자양9차현대홈타운경로당,광진구 자양동 790번지 ,광진구,없음
1372,화양동현대아파트 경로당,광진구 화양동 234번지 ,광진구,없음
1373,자양8차현대홈타운경로당,광진구 자양동 789번지 801 801동 1503호,광진구,없음
1374,명성 경로당,광진구 구의동 251-155번지 ,광진구,없음
1375,중곡1동제2경로당,광진구 중곡동 256-47번지 ,광진구,없음
1376,자양10차현대홈타운경로당,광진구 자양동 792번지 ,광진구,없음
1377,세양아파트 경로당,광진구 구의동 658번지 ,광진구,없음
1378,광장11차현대홈타운 경로당,광진구 광장동 579번지 관리 관리동 ,광진구,없음
1379,우방리버파크 경로당,광진구 자양동 793번지 303 303동 ,광진구,없음
1380,광장12차현대홈타운 경로당,광진구 광장동 580번지 ,광진구,없음
1381,한양1차아파트경로당,도봉구 쌍문동 388-33번지 ,도봉구,없음
1382,대우이안아파트경로당,도봉구 쌍문동 730번지 ,도봉구,없음
1383,대상현대아파트(1)경로당,도봉구 방학동 720-1번지 ,도봉구,없음
1384,대상현대아파트(2)경로당,도봉구 방학동 720-1번지 ,도봉구,없음
1385,삼성래미안(1)아파트경로당,도봉구 방학동 720-18번지 ,도봉구,없음
1386,삼성래미안(2)아파트경로당,도봉구 방학동 715-12번지 ,도봉구,없음
1387,이수아파트경로당,도봉구 방학동 713번지 ,도봉구,없음
1388,금광아파트경로당,도봉구 방학동 714-1번지 ,도봉구,없음
1389,방학3동경로당,도봉구 방학동 446-7번지 ,도봉구,없음
1390,효성하이타운아파트경로당,도봉구 방학동 739번지 ,도봉구,없음
1391,동양크레오아파트경로당,도봉구 방학동 740번지 ,도봉구,없음
1392,세심천경로당,도봉구 방학동 산 90-31번지 ,도봉구,없음
1393,서울가든아파트,도봉구 창동 366번지 ,도봉구,없음
1394,대우그린아파트,도봉구 창동 814번지 ,도봉구,없음
1395,수산트리플아파트경로당,도봉구 창동 817번지 ,도봉구,없음
1396,태영데시앙아파트경로당,도봉구 창동 819번지 ,도봉구,없음
1397,한신아파트경로당,도봉구 창동 621-69번지 ,도봉구,없음
1398,자마장 경로당,광진구 자양동 630-1번지 ,광진구,없음
1399,에스케이아파트경로당,광진구 중곡동 292번지 ,광진구,없음
1400,한솔리베르아파트경로당,광진구 자양동 672번지 ,광진구,없음
1401,산의마을경로당,광진구 구의동 210-75번지 ,광진구,없음
1402,현대프라임아파트경로당,광진구 구의동 631-1번지 ,광진구,없음
1403,현대7단지아파트경로당,광진구 구의동 587-54번지 ,광진구,없음
1404,중앙경로당,광진구 자양동 615-28번지 ,광진구,없음
1405,로얄아파트경로당,광진구 자양동 644번지 ,광진구,없음
1406,현대강변아파트경로당,광진구 자양동 673번지 ,광진구,없음
1407,자양대아아파트경로당,광진구 자양동 666-28번지 ,광진구,없음
1408,우성7차아파트경로당,광진구 자양동 783-1번지 ,광진구,없음
1409,소능경로당,광진구 구의동 617-33번지 ,광진구,없음
1410,상록경로당,광진구 광장동 570번지 ,광진구,없음
1411,자양경남아파트경로당,광진구 자양동 641번지 ,광진구,없음
1412,대동아파트경로당,광진구 자양동 785-1번지 ,광진구,없음
1413,삼성아파트경로당,광진구 자양동 787번지 ,광진구,없음
1414,상록경로당,광진구 광장동 570번지 ,광진구,없음
1415,상록경로당,광진구 광장동 570번지 ,광진구,없음
1416,자양2차현대아파트경로당,광진구 자양동 761번지 ,광진구,없음
1417,광장현대9단지아파트경로당,광진구 광장동 576번지 ,광진구,없음
1418,광장동 현대파크빌 아파트 경로당,광진구 광장동 577번지 ,광진구,없음
1419,구의새한아파트경로당,광진구 구의동 656번지 ,광진구,없음
1420,노유2동제2경로당,광진구 자양동 51-47번지 ,광진구,없음
1421,광장극동1차아파트경로당,광진구 광장동 218-1번지 ,광진구,없음
1422,자양7차현대홈타운 경로당,광진구 자양동 788번지 7 7동 ,광진구,없음
1423,광장동 금호아파트 경로당,광진구 광장동 578번지 ,광진구,없음
1424,자양8차현대홈타운경로당,광진구 자양동 789번지 ,광진구,없음
1425,구의2동경로당,광진구 구의동 60-8번지 ,광진구,없음
1426,구의새마을경로당,광진구 구의동 590-2번지 ,광진구,없음
1427,현대2단지아파트경로당,광진구 구의동 548-611번지 ,광진구,없음
1428,강변우성아파트경로당,광진구 구의동 546-7번지 ,광진구,없음
1429,삼성아파트경로당,광진구 광장동 453-1번지 ,광진구,없음
1430,노유1동제이경로당,광진구 자양동 244-1번지 ,광진구,없음
1431,노유2동제1경로당,광진구 자양동 205-6번지 ,광진구,없음
1432,군자경로당,광진구 군자동 115-1번지 ,광진구,없음
1433,노유1동제일경로당,광진구 자양동 236-179번지 ,광진구,없음
1434,용곡경로당,광진구 중곡동 176-90번지 ,광진구,없음
1435,신향빌라경로당,광진구 중곡동 18-24번지 ,광진구,없음
1436,현대6단지아파트경로당,광진구 구의동 610번지 ,광진구,없음
1437,워커힐아파트경로당,광진구 광장동 145-8번지 ,광진구,없음
1438,광장현대8차아파트경로당,광진구 광장동 565번지 ,광진구,없음
1439,한신아파트경로당,도봉구 창동 451번지 ,도봉구,없음
1440,한승미메이드아파트경로당,도봉구 창동 824번지 ,도봉구,없음
1441,만수정(성원아파트)경로당,도봉구 창동 743번지 ,도봉구,없음
1442,창동4차아이파크아파트경로당,도봉구 창동 818번지 ,도봉구,없음
1443,주공19경로당,도봉구 창동 33번지 ,도봉구,없음
1444,금호어울림아파트경로당,도봉구 창동 823번지 ,도봉구,없음
1445,대림아파트경로당,도봉구 창동 822번지 ,도봉구,없음
1446,신동아1차아파트제2경로당,도봉구 방학동 271-4번지 3 3동 ,도봉구,없음
1447,우이그린빌라경로당,도봉구 쌍문동 486-18번지 ,도봉구,없음
1448,현대2차아파트경로당,도봉구 창동 815번지 208 208동 2501호,도봉구,없음
1449,염광아파트경로당,도봉구 쌍문동 722번지 ,도봉구,없음
1450,쌍문4동경로당,도봉구 쌍문동 137-112번지 ,도봉구,없음
1451,윗들경로당,도봉구 방학동 717-1번지 ,도봉구,없음
1452,벽산아파트경로당,도봉구 방학동 496번지 ,도봉구,없음
1453,서원아파트경로당,도봉구 도봉동 18-2번지 ,도봉구,없음
1454,금용아파트경로당,도봉구 창동 809번지 ,도봉구,없음
1455,쌍용아파트경로당,도봉구 창동 181-17번지 ,도봉구,없음
1456,자양현대3차아파트경로당,광진구 자양동 671번지 ,광진구,없음
1457,모진 경로당,광진구 화양동 431-5번지 ,광진구,없음
1458,자양제1경로당,광진구 자양동 651-50번지 ,광진구,없음
1459,한강우성아파트 경로당,광진구 자양동 87-1번지 ,광진구,없음
1460,한강우성아파트경로당,광진구 자양동 87-1번지 ,광진구,없음
1461,광나루현대아파트경로당,광진구 광장동 567번지 ,광진구,없음
1462,일성파크아파트경로당,광진구 군자동 99번지 ,광진구,없음
1463,한라아파트경로당,광진구 자양동 762번지 ,광진구,없음
1464,광장청구아파트 경로당,광진구 광장동 566번지 ,광진구,없음
1465,중곡3동경로당,광진구 중곡동 503-328번지 ,광진구,없음
1466,대원경로당,광진구 중곡동 85-28번지 ,광진구,없음
1467,구의1동제2경로당,광진구 구의동 634-15번지 ,광진구,없음
1468,한마음경로당,광진구 중곡동 51-27번지 ,광진구,없음
1469,용마경로당,광진구 중곡동 169-81번지 ,광진구,없음
1470,능동경로당,광진구 능동 369-14번지 ,광진구,없음
1471,구의경로당,광진구 구의동 230-4번지 ,광진구,없음
1472,광장극동아파트경로당,광진구 광장동 218-1번지 ,광진구,없음
1473,일신아파트경로당,광진구 광장동 148-4번지 ,광진구,없음
1474,자양1동경로당,광진구 자양동 804-10번지 ,광진구,없음
1475,신양경로당,광진구 자양동 514-39번지 ,광진구,없음
1476,자양3동경로당,광진구 자양동 582-19번지 ,광진구,없음
1477,양마경로당,광진구 군자동 340번지 ,광진구,없음
1478,노유산경로당,광진구 자양동 835-1번지 ,광진구,없음
1479,한양아파트 경로당,광진구 자양동 695-1번지 ,광진구,없음
1480,우성2차아파트 경로당,광진구 자양동 520-2번지 ,광진구,없음
1481,청아경로당,광진구 자양동 772-17번지 ,광진구,없음
1482,한양아파트경로당,광진구 자양동 695번지 ,광진구,없음
1483,광장경로당,광진구 광장동 242-1번지 ,광진구,없음
1484,광장현대아파트경로당,광진구 광장동 554-7번지 ,광진구,없음
1485,우성3차아파트경로당,광진구 자양동 516번지 ,광진구,없음
1486,광장현대3차아파트경로당,광진구 광장동 484번지 ,광진구,없음
1487,국가유공자경로당,광진구 구의동 587-40번지 ,광진구,없음
1488,자양제2경로당,광진구 자양동 684-20번지 ,광진구,없음
1489,중곡1동경로당,광진구 중곡동 232-44번지 ,광진구,없음
1490,중곡4동경로당,광진구 중곡동 71-2번지 ,광진구,없음
1491,아차산경로당,광진구 구의동 36-20번지 ,광진구,없음
1492,동아청솔아파트경로당,도봉구 창동 808번지 ,도봉구,없음
1493,동아그린아파트경로당,도봉구 창동 805번지 ,도봉구,없음
1494,쌍우경로당,도봉구 쌍문동 497-10번지 ,도봉구,없음
1495,송학경로당,도봉구 방학동 635-13번지 ,도봉구,없음
1496,신원아파트경로당,도봉구 쌍문동 723번지 ,도봉구,없음
1497,성황당경로당,도봉구 도봉동 597-39번지 ,도봉구,없음
1498,장수경로당,도봉구 창동 623-41번지 ,도봉구,없음
1499,신창아파트경로당,도봉구 창동 810번지 ,도봉구,없음
1500,창동대동아파트경로당,도봉구 창동 811번지 ,도봉구,없음
1501,도봉시민아파트경로당,도봉구 도봉동 1-11번지 ,도봉구,없음
1502,현대성우아파트경로당,도봉구 도봉동 642번지 ,도봉구,없음
1503,강우경로당,도봉구 쌍문동 98-9번지 ,도봉구,없음
1504,극동아파트경로당,도봉구 방학동 730번지 ,도봉구,없음
1505,신동아2차아파트경로당,도봉구 방학동 531번지 ,도봉구,없음
1506,청화아파트(사립),용산구 이태원동 22-2번지 ,용산구,없음
1507,강일리버파크5단지경로당,강동구 강일동 강일리버파크5단지아파트 ,강동구,없음
1508,새장터경로당,강동구 암사동 ,강동구,없음
1509,한강포스파크A경로당,강동구 암사동 ,강동구,없음
1510,천호2동경로당,강동구 천호동 ,강동구,없음
1511,대성스카이렉스경로당,구로구 구로동 107-1번지 ,구로구,없음
1512,금호어울림(아)경로당,구로구 구로동 49번지 ,구로구,없음
1513,베타니아경로당,구로구 구로동 ,구로구,없음
1514,구립수목원경로당,구로구 항동 1번지 2동 104호,구로구,없음
1515,고척벽산베스트블루밍경로당,구로구 고척동 342번지 벽산블루밍아파트 ,구로구,없음
1516,이펜하우스5단지경로당,구로구 천왕동 27번지 이펜하우스5단지 505동 1호,구로구,없음
1517,그린빌라경로당,구로구 항동 1-5번지 그린빌라 ,구로구,없음
1518,천왕이펜하우스2단지경로당,구로구 천왕동 27번지 이펜하우스2단지아파트 201동 101호,구로구,없음
1519,그린빌라경로당,구로구 항동 1-5번지 ,구로구,없음
1520,천왕이펜하우스6단지,구로구 천왕동 27번지 6단지 ,구로구,없음
1521,천왕이펜하우스4단지경로당,구로구 천왕동 27번지 4단지 ,구로구,없음
1522,천왕이펜하우스1단지경로당,구로구 천왕동 27번지 천왕이펜하우스1단지 아파트 ,구로구,없음
1523,천왕이펜하우스3단지경로당,구로구 천왕동 27번지 천왕이펜하우스3단지 아파트 ,구로구,없음
1524,이펜하우스5단지경로당,구로구 천왕동 27번지 천왕이펜하우스5단지 아파트 ,구로구,없음
1525,밤동산경로당,구로구 구로동 551-88번지 ,구로구,없음
1526,동선(아)경로당,구로구 오류동 345번지 동선아파트 내 ,구로구,없음
1527,개봉1동 경로당,구로구 개봉동 154-33번지 ,구로구,없음
1528,온수힐스테이트(아)경로당,구로구 온수동 ,구로구,없음
1529,대성스카이렉스경로당,구로구 구로동 107-1번지 ,구로구,없음
1530,마젤란(아) 경로당,구로구 고척동 338번지 ,구로구,없음
1531,대림역경남아너스빌 경로당,구로구 구로동 1285번지 ,구로구,없음
1532,고척파크푸르지오 경로당,구로구 고척동 339번지 ,구로구,없음
1533,한신휴플러스(아),구로구 구로동 1280번지 ,구로구,없음
1534,덕영드림(아) 경로당,구로구 구로동 1282번지 ,구로구,없음
1535,신개봉 삼환(아) 경로당,구로구 개봉동 170-30번지 ,구로구,없음
1536,오류동 금호 어울림(아) 경로당,구로구 오류동 347번지 ,구로구,없음
1537,우민늘푸른(아) 경로당,구로구 구로동 1279번지 ,구로구,없음
1538,구로주공(아) 경로당,구로구 구로동 685-222번지 ,구로구,없음
1539,중앙하이츠(아) 경로당,구로구 구로동 685-124번지 ,구로구,없음
1540,현대의보(아) 경로당,구로구 구로동 645-33번지 ,구로구,없음
1541,이화우성(아) 경로당,구로구 구로동 1260번지 ,구로구,없음
1542,삼성래미안(아) 경로당,구로구 구로동 256-1번지 ,구로구,없음
1543,신성미소지움(아),구로구 구로동 1274번지 ,구로구,없음
1544,구로두산(아) 경로당,구로구 구로동 765번지 두산아파트 ,구로구,없음
1545,두산임대(아)경로당,구로구 구로동 1266번지 ,구로구,없음
1546,답십리두산아파트제2경로당,동대문구 답십리동 990-1번지 ,동대문구,없음
1547,휘경2동주공2단지아파트경로당,동대문구 휘경동 57번지 ,동대문구,없음
1548,이문동삼성래미안아파트경로당,동대문구 이문동 425번지 ,동대문구,없음
1549,청솔우성아파트제2경로당,동대문구 답십리동 80-1번지 ,동대문구,없음
1550,대우아파트제2경로당,동대문구 답십리동 111-1번지 ,동대문구,없음
1551,대우아파트경로당,동대문구 이문동 45번지 ,동대문구,없음
1552,장안2동경로당,동대문구 장안동 343번지 ,동대문구,없음
1553,중앙하이츠빌경로당,동대문구 이문동 84번지 ,동대문구,없음
1554,중앙하이츠빌경로당,동대문구 이문동 84번지 ,동대문구,없음
1555,현대코아경로당,동대문구 청량리동 738번지 ,동대문구,없음
1556,답십리대림아파트경로당,동대문구 답십리동 808번지 ,동대문구,없음
1557,서울가든아파트경로당,동대문구 휘경동 49-5번지 206호,동대문구,없음
1558,답십리4동우성그린아파트경로당,동대문구 답십리동 산 2-106번지 ,동대문구,없음
1559,두산타워(아) 경로당,구로구 구로동 110-4번지 ,구로구,없음
1560,태영타운 경로당,구로구 구로동 1267번지 ,구로구,없음
1561,우성(아) 경로당,구로구 구로동 120번지 ,구로구,없음
1562,신구로현대(아) 경로당,구로구 구로동 74-30번지 ,구로구,없음
1563,럭키(아) 경로당,구로구 구로동 1257번지 ,구로구,없음
1564,우리유앤미(아) 경로당,구로구 구로동 481-1번지 ,구로구,없음
1565,센츄리아파트 경로당,구로구 고척동 320번지 ,구로구,없음
1566,삼환아파트 경로당,구로구 개봉동 470번지 ,구로구,없음
1567,두산아파트 경로당,구로구 개봉동 472번지 ,구로구,없음
1568,상우아파트 경로당,구로구 개봉동 473번지 ,구로구,없음
1569,오류2동 경로당,구로구 오류동 303번지 ,구로구,없음
1570,가든빌라 경로당,구로구 오류동 97-4번지 ,구로구,없음
1571,현대타운 경로당,구로구 오류동 156-15번지 ,구로구,없음
1572,항서 경로당,구로구 항동 232번지 ,구로구,없음
1573,동삼빌라 경로당,구로구 항동 1번지 ,구로구,없음
1574,대흥빌라,구로구 온수동 45-31번지 ,구로구,없음
1575,한우리경로당,구로구 구로동 399-15번지 ,구로구,없음
1576,구로한일유엔아이(아)경로당,구로구 구로동 1281번지 ,구로구,없음
1577,개봉동아이파크경로당,구로구 개봉동 489번지 ,구로구,없음
1578,두산위브(아),구로구 구로동 1278번지 ,구로구,없음
1579,뉴홍현(아),구로구 구로동 1270번지 ,구로구,없음
1580,구로4동 복지관 경로당,구로구 구로동 751-14번지 ,구로구,없음
1581,구로5동 경로당,구로구 구로동 552-69번지 ,구로구,없음
1582,세곡경로당,구로구 고척동 22-8번지 세곡근린공원 내 ,구로구,없음
1583,덕의 경로당,구로구 고척동 218-10번지 ,구로구,없음
1584,중앙경로당,구로구 개봉동 340-8번지 ,구로구,없음
1585,개봉본동 경로당,구로구 개봉동 154-33번지 ,구로구,없음
1586,항동경로당,구로구 항동 171-1번지 ,구로구,없음
1587,신도림,구로구 신도림동 435-10번지 ,구로구,없음
1588,신성은하수(아),구로구 신도림동 640번지 ,구로구,없음
1589,동아1차(아),구로구 신도림동 643번지 ,구로구,없음
1590,우성3차(아) 경로당,구로구 신도림동 637번지 ,구로구,없음
1591,대림1차아파트,구로구 신도림동 410-23번지 ,구로구,없음
1592,동아2차(아) 경로당,구로구 신도림동 644번지 ,구로구,없음
1593,현대로얄(아)경로당,구로구 구로동 701-76번지 ,구로구,없음
1594,영화아이닉스경로당,구로구 개봉동 488번지 ,구로구,없음
1595,우림필유(아)경로당,구로구 오류동 348번지 ,구로구,없음
1596,한신(아)경로당,구로구 신도림동 ,구로구,없음
1597,한일유엔아이(아),구로구 고척동 337번지 ,구로구,없음
1598,장수경로당,구로구 구로동 720-11번지 ,구로구,없음
1599,서울가든아파트경로당,구로구 고척동 141-1번지 ,구로구,없음
1600,경남아너스빌경로당,구로구 오류동 344번지 ,구로구,없음
1601,한신아파트제1경로당,동대문구 청량리동 59번지 ,동대문구,없음
1602,홍릉경로당,동대문구 청량리동 203-286번지 ,동대문구,없음
1603,동아아파트경로당,동대문구 전농동 645-3번지 ,동대문구,없음
1604,전농1동경로당,동대문구 전농동 471-8번지 ,동대문구,없음
1605,중산경로당,동대문구 답십리동 36-31번지 ,동대문구,없음
1606,청량리1동분회경로당,동대문구 청량리동 57-6번지 ,동대문구,없음
1607,청솔우성아파트경로당,동대문구 답십리동 80번지 ,동대문구,없음
1608,답십리4동동아아파트제2경로당,동대문구 답십리동 10번지 ,동대문구,없음
1609,답십리4동동아아파트경로당,동대문구 답십리동 10번지 ,동대문구,없음
1610,이문3동현대아파트경로당,동대문구 이문동 54번지 ,동대문구,없음
1611,섬마을경로당,동대문구 제기동 1211-20번지 ,동대문구,없음
1612,창방경로당,동대문구 전농동 445-3번지 ,동대문구,없음
1613,신답경남아파트경로당,동대문구 답십리동 645-8번지 ,동대문구,없음
1614,답십리4동분회경로당,동대문구 답십리동 16-26번지 ,동대문구,없음
1615,대림5차(아)경로당,구로구 신도림동 647번지 ,구로구,없음
1616,오류동대우푸르지오경로당,구로구 오류동 ,구로구,없음
1617,LG신도림자이아파트경로당,구로구 구로동 42번지 ,구로구,없음
1618,대림7차e-편한세상(아)경로당,구로구 신도림동 649번지 ,구로구,없음
1619,정수경로당,구로구 가리봉동 136-57번지 ,구로구,없음
1620,수목원현대홈타운(아)경로당,구로구 항동 233번지 ,구로구,없음
1621,개명경로당,구로구 개봉동 314번지 ,구로구,없음
1622,한국현대(아)경로당,구로구 구로동 642-39번지 ,구로구,없음
1623,현대(아)중부경로당,구로구 개봉동 481번지 ,구로구,없음
1624,현대(아)서부경로당,구로구 개봉동 481번지 ,구로구,없음
1625,한신플러스타운경로당,구로구 오류동 341번지 ,구로구,없음
1626,우성1차(아)경로당,구로구 신도림동 312-17번지 ,구로구,없음
1627,우방(아)경로당,구로구 구로동 642-46번지 ,구로구,없음
1628,미성(아)경로당,구로구 신도림동 290번지 ,구로구,없음
1629,우성3차아파트경로당,구로구 신도림동 637번지 ,구로구,없음
1630,오리골경로당,구로구 오류동 213-10번지 ,구로구,없음
1631,청실(아)경로당,구로구 개봉동 175-8번지 ,구로구,없음
1632,우성2차(아)경로당,구로구 신도림동 639번지 ,구로구,없음
1633,구로2동경로당,구로구 구로동 339-66번지 ,구로구,없음
1634,영서(아)경로당,구로구 구로동 1256번지 ,구로구,없음
1635,청구(아)경로당,구로구 고척동 52번지 ,구로구,없음
1636,우신빌라경로당,구로구 궁동 213-21번지 ,구로구,없음
1637,한효(아)경로당,구로구 고척동 52-332번지 ,구로구,없음
1638,구로4동구경로당,구로구 구로동 745-74번지 ,구로구,없음
1639,보광(아)경로당,구로구 구로동 440번지 ,구로구,없음
1640,영화(아)경로당,구로구 개봉동 475번지 ,구로구,없음
1641,영풍마드레빌경로당,구로구 오류동 342번지 ,구로구,없음
1642,오류동부덕고개(아)경로당,구로구 오류동 336번지 ,구로구,없음
1643,대림4차e-편한세상경로당,구로구 신도림동 646번지 ,구로구,없음
1644,고척벽산블루밍(아)경로당,구로구 고척동 334번지 ,구로구,없음
1645,소산경로당,구로구 고척동 134-45번지 ,구로구,없음
1646,금강수목원아파트경로당,구로구 오류동 343번지 ,구로구,없음
1647,골말경로당,구로구 가리봉동 2-10번지 ,구로구,없음
1648,영화참마음(아)경로당,구로구 구로동 1268번지 ,구로구,없음
1649,구립국화경로당,구로구 고척동 57-9번지 ,구로구,없음
1650,구일우성(아)경로당,구로구 구로동 1259번지 ,구로구,없음
1651,장미할머니경로당,구로구 오류동 81-114번지 ,구로구,없음
1652,거성1차(아)경로당,구로구 개봉동 60-101번지 ,구로구,없음
1653,송암경로당,구로구 고척동 97-3번지 ,구로구,없음
1654,극동(아)경로당,구로구 구로동 314번지 ,구로구,없음
1655,한마을(아)경로당,구로구 개봉동 476번지 ,구로구,없음
1656,수궁분회경로당,구로구 온수동 124번지 ,구로구,없음
1657,우성(아)경로당,구로구 구로동 1058번지 ,구로구,없음
1658,우성꿈동산(아)경로당,구로구 고척동 321번지 ,구로구,없음
1659,문화경로당,구로구 구로동 600-2번지 ,구로구,없음
1660,오금경로당,구로구 고척동 47-1번지 B01호,구로구,없음
1661,구로리경로당,구로구 구로동 317-120번지 ,구로구,없음
1662,신도림분회경로당,구로구 신도림동 433-10번지 ,구로구,없음
1663,삼덕경로당,구로구 고척동 241-52번지 ,구로구,없음
1664,우성(아)경로당,"구로구 구로동 23,24번지 ",구로구,없음
1665,고척2동경로당,구로구 고척동 155`-22번지 ,구로구,없음
1666,현대연예인(아)경로당,구로구 구로동 685-70번지 ,구로구,없음
1667,화원경로당,구로구 구로동 478-1번지 ,구로구,없음
1668,응골경로당,구로구 오류동 137-7번지 104호,구로구,없음
1669,대림2차(아)경로당,구로구 신도림동 642번지 ,구로구,없음
1670,대림3차(아)경로당,구로구 신도림동 691번지 ,구로구,없음
1671,그린빌라경로당,구로구 항동 5-1번지 ,구로구,없음
1672,중앙하이츠(아)경로당,구로구 구로동 1269번지 ,구로구,없음
1673,동부골든(아)경로당,구로구 오류동 338번지 ,구로구,없음
1674,장수경로당,구로구 고척동 52-6번지 ,구로구,없음
1675,한진(아)경로당,구로구 개봉동 478번지 ,구로구,없음
1676,장미(아)경로당,구로구 고척동 92-6번지 ,구로구,없음
1677,칠성2차(아)경로당,구로구 구로동 702-1번지 ,구로구,없음
1678,삼천리(아)경로당,구로구 오류동 340번지 ,구로구,없음
1679,우성1차(아)경로당,구로구 신도림동 312-17번지 ,구로구,없음
1680,한국현대(아)경로당,구로구 구로동 642-39번지 ,구로구,없음
1681,유성열,구로구 가리봉동 2-10번지 ,구로구,없음
1682,롯데(아)경로당,구로구 구로동 1263번지 ,구로구,없음
1683,동아한신아파트경로당,구로구 고척동 327번지 ,구로구,없음
1684,원풍(아)경로당,구로구 개봉동 259-1번지 ,구로구,없음
1685,백곡경로당,구로구 개봉동 33-116번지 ,구로구,없음
1686,남부(아)경로당,구로구 구로동 1132-47번지 ,구로구,없음
1687,오류라인(아)경로당,구로구 오류동 334번지 ,구로구,없음
1688,개봉대상(아)경로당,구로구 개봉동 477번지 ,구로구,없음
1689,거성(아)경로당,구로구 개봉동 270-80번지 ,구로구,없음
1690,고척1동경로당,구로구 고척동 62-39번지 ,구로구,없음
1691,현대(아)경로당,구로구 개봉동 481번지 ,구로구,없음
1692,월드.진영경로당,구로구 구로동 1262번지 ,구로구,없음
1693,동아3차(아)경로당,구로구 신도림동 645번지 ,구로구,없음
1694,삼익2차(아)경로당,구로구 고척동 238-5번지 ,구로구,없음
1695,개봉현대홈타운2단지경로당,구로구 개봉동 480번지 ,구로구,없음
1696,삼익1차(아)경로당,구로구 고척동 330번지 ,구로구,없음
1697,경남1차(아)경로당,구로구 고척동 325번지 ,구로구,없음
1698,전농1동분회경로당,동대문구 전농동 350-12번지 ,동대문구,없음
1699,답십리3동분회경로당,동대문구 답십리동 557-1번지 ,동대문구,없음
1700,만수경로당,동대문구 제기동 220번지 ,동대문구,없음
1701,신설동분회경로당,동대문구 용두동 251-71번지 ,동대문구,없음
1702,개봉2동경로당,구로구 개봉동 305-16번지 ,구로구,없음
1703,새솔(아)경로당,구로구 구로동 108-2번지 ,구로구,없음
1704,다솜아파트경로당,구로구 구로동 43-4번지 ,구로구,없음
1705,금강(아)경로당,구로구 오류동 335번지 ,구로구,없음
1706,거성2차푸르뫼(아)경로당,구로구 개봉동 60-82번지 ,구로구,없음
1707,가리봉1동경로당,구로구 가리봉동 111-1번지 ,구로구,없음
1708,동부골든임대(아),구로구 오류동 14-99번지 ,구로구,없음
1709,동산경로당,구로구 오류동 1-129번지 ,구로구,없음
1710,경남2차(아)경로당,구로구 고척동 306번지 ,구로구,없음
1711,벽산아파트경로당,구로구 개봉동 476번지 ,구로구,없음
1712,신도림현대아파트경로당,구로구 신도림동 641번지 ,구로구,없음
1713,일신건영아파트경로당,구로구 구로동 1261번지 ,구로구,없음
1714,화랑빌라경로당,구로구 오류동 108-1번지 ,구로구,없음
1715,궁동빌라 경로당,구로구 궁동 197-1번지 ,구로구,없음
1716,고척대우(아)경로당,구로구 고척동 296번지 ,구로구,없음
1717,새마을경로당,구로구 오류동 13-48번지 ,구로구,없음
1718,구로(아)경로당,구로구 구로동 256-1번지 ,구로구,없음
1719,천왕동경로당,구로구 천왕동 25-3번지 ,구로구,없음
1720,궁동경로당,구로구 온수동 157번지 ,구로구,없음
1721,삼거리경로당,구로구 고척동 76-133번지 ,구로구,없음
1722,현대상선(아)경로당,구로구 구로동 685-147번지 ,구로구,없음
1723,우성현대(아),구로구 고척동 76-55번지 ,구로구,없음
1724,온수경로당,구로구 온수동 120-22번지 ,구로구,없음
1725,삼호아파트경로당,구로구 개봉동 471번지 ,구로구,없음
1726,성원빌라경로당,구로구 온수동 45-32번지 ,구로구,없음
1727,개봉3동경로당,구로구 개봉동 349-16번지 ,구로구,없음
1728,구로3동 경로당,구로구 구로동 777-1번지 ,구로구,없음
1729,늘푸른경로당,구로구 구로동 494-20번지 ,구로구,없음
1730,한신아파트경로당,구로구 구로동 642-9번지 ,구로구,없음
1731,동진빌라경로당,구로구 온수동 45-5번지 ,구로구,없음
1732,문성골경로당,구로구 구로동 1129-6번지 ,구로구,없음
1733,동인(아)경로당,구로구 개봉동 335-1번지 ,구로구,없음
1734,우성5차(아)경로당,구로구 신도림동 638번지 ,구로구,없음
1735,개봉건영(아)경로당,구로구 개봉동 47-1번지 ,구로구,없음
1736,장안2동할머니경로당,동대문구 장안동 329-3번지 ,동대문구,없음
1737,휘경2동경로당,동대문구 휘경동 30-3번지 ,동대문구,없음
1738,장안2동분회경로당,동대문구 장안동 329-3번지 ,동대문구,없음
1739,답십리5동분회경로당,동대문구 답십리동 173-1번지 ,동대문구,없음
1740,전농2동경로당,동대문구 전농동 127-17번지 ,동대문구,없음
1741,현대@경로당,동대문구 청량리동 234-2번지 ,동대문구,없음
1742,장안1동경로당,동대문구 장안동 379번지 ,동대문구,없음
1743,현대아파트경로당,동대문구 장안동 95-1번지 ,동대문구,없음
1744,광우경로당,동대문구 청량리동 37-4번지 ,동대문구,없음
1745,광우경로당,동대문구 답십리동 483-4번지 ,동대문구,없음
1746,장답경로당,동대문구 답십리동 952-5번지 ,동대문구,없음
1747,이문2동경로당,동대문구 이문동 325-18번지 ,동대문구,없음
1748,휘경1동경로당,동대문구 휘경동 120-33번지 ,동대문구,없음
1749,휘경1동경로당,동대문구 휘경동 146-104번지 ,동대문구,없음
1750,회기동분회경로당,동대문구 회기동 64-17번지 ,동대문구,없음
1751,신동아아파트경로당,동대문구 용두동 779번지 ,동대문구,없음
1752,독구말경로당,동대문구 이문동 138-13번지 ,동대문구,없음
1753,청량리2동분회경로당,동대문구 청량리동 449-10번지 ,동대문구,없음
1754,쌈지공원경로당,동대문구 답십리동 320-75번지 ,동대문구,없음
1755,제기2동경로당,동대문구 제기동 135-127번지 ,동대문구,없음
1756,경우경로당,동대문구 답십리동 488-238번지 ,동대문구,없음
1757,경우경로당,동대문구 답십리동 488-230번지 ,동대문구,없음
1758,롯데케슬엠파이어 경로당,영등포구 여의도동 ,영등포구,없음
1759,영등포푸르지오1단지(아) 경로당,영등포구 영등포동 ,영등포구,없음
1760,동부센트레빌 경로당,영등포구 당산동3가 ,영등포구,없음
1761,당산코오롱(아) 경로당,영등포구 당산동1가 ,영등포구,없음
1762,한신(아) 경로당,영등포구 양평동1가 ,영등포구,없음
1763,영등포아트자이아파트 경로당,영등포구 도림동 ,영등포구,없음
1764,신동아파밀리에(아)경로당,영등포구 당산동1가 457번지 ,영등포구,없음
1765,문래해태아파트경로당,영등포구 문래동3가 13번지 해태아파트 ,영등포구,없음
1766,문래진주아파트경로당,영등포구 문래동5가 22번지 문래진주아파트 ,영등포구,없음
1767,시범길 경로당,영등포구 신길동 411-6번지 ,영등포구,없음
1768,우성2차아파트경로당,영등포구 신길동 4518번지 우성2차아파트 ,영등포구,없음
1769,구립행복경로당,영등포구 대림동 ,영등포구,없음
1770,신대림한솔 솔파크경로당,영등포구 대림동 1123번지 ,영등포구,없음
1771,리버뷰신안인스빌경로당,영등포구 문래동4가 67번지 ,영등포구,없음
1772,신길뉴타운한화꿈에그린아파트경로당,영등포구 신길동 4937번지 ,영등포구,없음
1773,쌍용프레티넘시티경로당,영등포구 도림동 820번지 ,영등포구,없음
1774,구립신길4경로당,영등포구 신길동 ,영등포구,없음
1775,6.25참전자경로당,영등포구 신길동 341-3번지 ,영등포구,없음
1776,보라매경남아너스빌아파트경로당,영등포구 신길동 4780번지 ,영등포구,없음
1777,보라매두산위브아파트경로당,영등포구 신길동 4497번지 ,영등포구,없음
1778,구립신길7동제2경로당,영등포구 신길동 ,영등포구,없음
1779,대림1동한신아파트경로당,영등포구 대림동 887-1번지 ,영등포구,없음
1780,구립제3경로당,영등포구 대림동 1025-66번지 ,영등포구,없음
1781,문화칸타빌레아파트경로당,영등포구 대림동 1061번지 ,영등포구,없음
1782,구립대림3동경로당,영등포구 대림동 ,영등포구,없음
1783,대림성원아파트경로당,영등포구 대림동 650번지 ,영등포구,없음
1784,당산금호어울림아파트경로당,영등포구 당산동4가 95번지 ,영등포구,없음
1785,당산삼성래미안아파트경로당,영등포구 당산동5가 42번지 ,영등포구,없음
1786,구립도림2동경로당,영등포구 도림동 205-23번지 ,영등포구,없음
1787,도림청구아파트경로당,영등포구 도림동 221-1번지 ,영등포구,없음
1788,문래자이아파트경로당,영등포구 문래동3가 54번지 ,영등포구,없음
1789,문래현대홈타운경로당,영등포구 문래동3가 문래동 현대 홈타운 ,영등포구,없음
1790,문래금호어울림아파트경로당,영등포구 문래동3가 97번지 ,영등포구,없음
1791,문래삼환아파트경로당,영등포구 문래동4가 ,영등포구,없음
1792,문래대림아파트경로당,영등포구 문래동5가 14번지 ,영등포구,없음
1793,인화경로당,영등포구 양평동1가 1-9번지 ,영등포구,없음
1794,상록수아파트경로당,영등포구 양평동2가 45번지 ,영등포구,없음
1795,삼호아파트경로당,영등포구 양평동3가 66번지 ,영등포구,없음
1796,삼천리아파트경로당,영등포구 양평동3가 24번지 ,영등포구,없음
1797,신벽산아파트경로당,영등포구 양평동2가 39-1번지 ,영등포구,없음
1798,우림루미아트경로당,영등포구 양평동3가 102번지 ,영등포구,없음
1799,경남아파트경로당,영등포구 양평동3가 55-1번지 ,영등포구,없음
1800,양평역월드메르디앙아파트경로당,영등포구 양평동3가 19번지 ,영등포구,없음
1801,구립양평동4가경로당,영등포구 양평동4가 238-1번지 ,영등포구,없음
1802,삼호한숲아파트경로당,영등포구 양평동4가 94번지 ,영등포구,없음
1803,경남2차아파트경로당,영등포구 양평동4가 51-1번지 ,영등포구,없음
1804,동양아파트경로당,영등포구 양평동6가 100번지 ,영등포구,없음
1805,동보아파트경로당,영등포구 양평동5가 9-1번지 ,영등포구,없음
1806,6차현대아파트경로당,영등포구 양평동3가 101번지 ,영등포구,없음
1807,신기목련경로당,영등포구 신길동 4935번지 ,영등포구,없음
1808,삼성아파트112동경로당,영등포구 신길동 4934-2번지 ,영등포구,없음
1809,삼성래미안아파트경로당,영등포구 신길동 ,영등포구,없음
1810,순영경로당,영등포구 영등포동 648번지 ,영등포구,없음
1811,영등포푸르지오2단지경로당,영등포구 영등포동 647-1번지 ,영등포구,없음
1812,대우드림타운1단지경로당,영등포구 영등포동 647번지 ,영등포구,없음
1813,두산위브아파트경로당,영등포구 영등포동 649번지 ,영등포구,없음
1814,삼각지경로당,영등포구 영등포동3가 ,영등포구,없음
1815,현대프라자경로당,영등포구 영등포동5가 ,영등포구,없음
1816,당산푸르지오경로당,영등포구 영등포동8가 91번지 ,영등포구,없음
1817,동부센트레빌경로당,영등포구 당산동3가 561번지 ,영등포구,없음
1818,대우아파트경로당,영등포구 당산동2가 16-1번지 ,영등포구,없음
1819,코오롱아파트경로당,영등포구 당산동1가 9-1번지 ,영등포구,없음
1820,SH아파트경로당,영등포구 당산동3가 562번지 ,영등포구,없음
1821,문화경로당,영등포구 당산동3가 124번지 ,영등포구,없음
1822,당산현대5차아파트경로당,영등포구 당산동4가 30-1번지 ,영등포구,없음
1823,당산2차효성타운경로당,영등포구 당산동5가 13번지 ,영등포구,없음
1824,당산강변레미안아파트경로당,영등포구 당산동5가 376번지 ,영등포구,없음
1825,현대3차아파트경로당,영등포구 문래동5가 21번지 ,영등포구,없음
1826,베어스타운아파트경로당,영등포구 문래동6가 38-1번지 ,영등포구,없음
1827,문래미원아파트경로당,영등포구 문래동6가 54번지 ,영등포구,없음
1828,구립적십자경로당,영등포구 양평동3가 36번지 ,영등포구,없음
1829,구립양화경로당,영등포구 양평동6가 68번지 ,영등포구,없음
1830,현대3차아파트경로당,영등포구 대림동 608-1번지 ,영등포구,없음
1831,경남아파트경로당,영등포구 영등포동7가 46-0001번지 ,영등포구,없음
1832,삼환아파트경로당,영등포구 영등포동8가 76-0001번지 ,영등포구,없음
1833,도림한라아파트경로당,영등포구 도림동 ,영등포구,없음
1834,현대아파트경로당,영등포구 대림동 946-1번지 ,영등포구,없음
1835,한강아파트경로당,영등포구 당산동4가 29번지 ,영등포구,없음
1836,구립창신경로당,영등포구 신길동 89-197번지 ,영등포구,없음
1837,경남아파트경로당,영등포구 신길동 ,영등포구,없음
1838,거성파스텔아파트경로당,영등포구 양평동3가 90-1번지 ,영등포구,없음
1839,동아에코빌(아) 경로당,영등포구 도림동 165-1번지 ,영등포구,없음
1840,당산효성1차(아)경로당,영등포구 당산동5가 12번지 ,영등포구,없음
1841,구립율산경로당,영등포구 신길동 9-102번지 ,영등포구,없음
1842,한솔아파트경로당,영등포구 양평동6가 99번지 ,영등포구,없음
1843,코오롱아파트경로당,영등포구 대림동 607-1번지 ,영등포구,없음
1844,구립당산1동경로당,영등포구 당산동1가 223-18번지 ,영등포구,없음
1845,구립남부경로당,영등포구 당산동4가 57번지 ,영등포구,없음
1846,영등포지회직할경로당,영등포구 영등포동3가 19-0003번지 ,영등포구,없음
1847,구립이화경로당,영등포구 영등포동3가 13-0009번지 ,영등포구,없음
1848,구립대림1동경로당,영등포구 대림동 899-2번지 ,영등포구,없음
1849,한신아파트경로당,영등포구 양평동5가 76번지 ,영등포구,없음
1850,한성아파트경로당,영등포구 신길동 769-1번지 ,영등포구,없음
1851,현대6차아파트경로당,영등포구 문래동6가 55-1번지 ,영등포구,없음
1852,한신아파트경로당,영등포구 양평동1가 14-1번지 ,영등포구,없음
1853,현대아파트경로당,영등포구 양평동3가 79-4번지 ,영등포구,없음
1854,삼성아파트경로당,영등포구 신길동 4759번지 ,영등포구,없음
1855,신성경로당,영등포구 신길동 3391번지 ,영등포구,없음
1856,영등포동1가경로당,영등포구 영등포동1가 94-0002번지 ,영등포구,없음
1857,영등포로타리경로당,영등포구 영등포동5가 ,영등포구,없음
1858,진로아파트경로당,영등포구 당산동1가 16-1번지 ,영등포구,없음
1859,강남맨션경로당,영등포구 당산동5가 11-1번지 ,영등포구,없음
1860,삼성1차아파트경로당,영등포구 당산동 374번지 ,영등포구,없음
1861,삼성2차아파트경로당,영등포구 당산동4가 94-1번지 ,영등포구,없음
1862,성원아파트경로당,영등포구 당산동5가 40번지 ,영등포구,없음
1863,삼환아파트경로당,영등포구 신길동 897-1번지 ,영등포구,없음
1864,문래건영아파트경로당,영등포구 문래동3가 93-1번지 ,영등포구,없음
1865,구립원지경로당,영등포구 대림동 690번지 ,영등포구,없음
1866,우성아파트경로당,영등포구 대림동 762-1번지 ,영등포구,없음
1867,신동아아파트경로당,영등포구 대림동 777-1번지 ,영등포구,없음
1868,할머니경로당,영등포구 영등포동5가 34-0016번지 ,영등포구,없음
1869,구립신길5제2경로당,영등포구 신길동 ,영등포구,없음
1870,구립신우경로당,영등포구 대림동 657번지 ,영등포구,없음
1871,구립영중경로당,영등포구 영등포동7가 ,영등포구,없음
1872,구립다사랑경로당,영등포구 대림동 703-6번지 ,영등포구,없음
1873,우성아파트경로당,영등포구 신길동 ,영등포구,없음
1874,남성아파트경로당,영등포구 문래동2가 ,영등포구,없음
1875,벽산아파트경로당,영등포구 양평동2가 23번지 ,영등포구,없음
1876,신동아아파트경로당,영등포구 양평동1가 20번지 ,영등포구,없음
1877,우성3차아파트경로당,영등포구 신길동 4656번지 ,영등포구,없음
1878,구립영길경로당,영등포구 신길동 54-8번지 ,영등포구,없음
1879,시범아파트경로당,영등포구 여의도동 50-2번지 ,영등포구,없음
1880,광장아파트경로당,영등포구 여의도동 28번지 ,영등포구,없음
1881,구립양평1동경로당,영등포구 양평동1가 205번지 ,영등포구,없음
1882,현대5차아파트경로당,영등포구 문래동5가 23-1번지 ,영등포구,없음
1883,현대1차아파트경로당,영등포구 대림동 785-1번지 ,영등포구,없음
1884,구립영등포본동경로당,영등포구 영등포동 620-50번지 ,영등포구,없음
1885,현대아파트경로당,영등포구 당산동2가 164번지 ,영등포구,없음
1886,성원아파트경로당,영등포구 양평동4가 12번지 ,영등포구,없음
1887,우성5차아파트경로당,영등포구 신길동 4933번지 ,영등포구,없음
1888,현대3차아파트경로당,영등포구 당산동4가 88번지 ,영등포구,없음
1889,미성아파트경로당,영등포구 여의도동 37-2번지 ,영등포구,없음
1890,롯데캐슬아이비아파트경로당,영등포구 여의도동 43-4번지 ,영등포구,없음
1891,구립신길7동경로당,영등포구 신길동 869번지 ,영등포구,없음
1892,구립문래제1경로당,영등포구 문래동3가 73-1번지 ,영등포구,없음
1893,문래제2경로당,영등포구 문래동3가 ,영등포구,없음
1894,일심경로당,영등포구 문래동3가 31-1번지 ,영등포구,없음
1895,문래공원한신아파트경로당,영등포구 문래동3가 ,영등포구,없음
1896,구립목화경로당,영등포구 문래동4가 35-7번지 ,영등포구,없음
1897,현대1차아파트경로당,영등포구 문래동6가 46번지 ,영등포구,없음
1898,현대2차아파트경로당,영등포구 문래동6가 45번지 ,영등포구,없음
1899,한신아파트경로당,영등포구 문래동6가 43번지 ,영등포구,없음
1900,문래두산위브,영등포구 문래동5가 14번지 ,영등포구,없음
1901,양남경로당,영등포구 양평동1가 171-1번지 ,영등포구,없음
1902,개화경로당,영등포구 양평동2가 37-5번지 ,영등포구,없음
1903,삼성아파트경로당,영등포구 양평동2가 38-1번지 ,영등포구,없음
1904,양평3가경로당,영등포구 양평동3가 77번지 ,영등포구,없음
1905,양평2동분회경로당,영등포구 양평동4가 66-6번지 ,영등포구,없음
1906,구립신길3동경로당,영등포구 신길동 290-8번지 ,영등포구,없음
1907,우성1차아파트경로당,영등포구 신길동 364번지 ,영등포구,없음
1908,건영아파트경로당,영등포구 신길동 364번지 ,영등포구,없음
1909,구립신길6동경로당,영등포구 신길동 3741-37번지 ,영등포구,없음
1910,신길6동 분회 경로당,영등포구 신길동 ,영등포구,없음
1911,남서울아파트경로당,영등포구 신길동 3590번지 ,영등포구,없음
1912,우진아파트경로당,영등포구 신길동 4779번지 ,영등포구,없음
1913,우6성2차아파트경로당,영등포구 신길동 4518번지 ,영등포구,없음
1914,구립동심경로당,영등포구 대림동 742번지 ,영등포구,없음
1915,중앙경로당,영등포구 영등포동5가 41-0008번지 ,영등포구,없음
1916,영등포2동제2경로당,영등포구 영등포동2가 29-0084번지 ,영등포구,없음
1917,우리경로당,영등포구 영등포동7가 151-0029번지 ,영등포구,없음
1918,구립미루나무길경로당,영등포구 도림동 81-2번지 ,영등포구,없음
1919,구립모랫말경로당,영등포구 도림동 ,영등포구,없음
1920,구립당산1가경로당,영등포구 당산동1가 150-1번지 ,영등포구,없음
1921,구립3가경로당,영등포구 당산동3가 410번지 ,영등포구,없음
1922,구립당산3가경로당,영등포구 당산동3가 410번지 ,영등포구,없음
1923,구립당산1가경로당,영등포구 당산동1가 150번지 ,영등포구,없음
1924,당산2가경로당,영등포구 당산동2가 48-9번지 ,영등포구,없음
1925,한양아파트 경로당,영등포구 당산동3가 ,영등포구,없음
1926,구립대동경로당,영등포구 대림동 832-2번지 ,영등포구,없음
1927,대림1동분회경로당,영등포구 대림동 867-5번지 ,영등포구,없음
1928,구립신광경로당,영등포구 신길동 186-128번지 ,영등포구,없음
1929,구립방학경로당,영등포구 신길동 37번지 ,영등포구,없음
1930,우신경로당,영등포구 신길동 4906-1번지 ,영등포구,없음
1931,구립신길5제1경로당,영등포구 신길동 440-45번지 ,영등포구,없음
1932,구립당산2경로당,영등포구 당산동6가 184번지 ,영등포구,없음
1933,유원A제1경로당,영등포구 당산동4가 91번지 ,영등포구,없음
1934,유원제2아파트경로당,영등포구 당산동5가 7-2번지 ,영등포구,없음
1935,상아아파트경로당,영등포구 당산동5가 4-13번지 ,영등포구,없음
1936,태성아파트경로당,영등포구 당산동4가 2-51번지 ,영등포구,없음
1937,개나리푸르지오(아)경로당,강남구 역삼동 ,강남구,없음
1938,역삼래미안경로당,강남구 역삼동 ,강남구,없음
1939,역삼개나리래미안아파트경로당,강남구 역삼동 ,강남구,없음
1940,삼성래미안아파트경로당,강남구 도곡동 ,강남구,없음
1941,타워팰리스2차아파트경로당,강남구 도곡동 ,강남구,없음
1942,렉슬경로당,강남구 도곡동 ,강남구,없음
1943,수서1단지(아)경로당,강남구 일원동 ,강남구,없음
1944,장수경로당,강남구 일원동 ,강남구,없음
1945,탄천경로당,강남구 일원동 ,강남구,없음
1946,세곡리엔파크1단지(아)경로당,강남구 세곡동 ,강남구,없음
1947,세곡리엔파크3단지(아)경로당,강남구 세곡동 ,강남구,없음
1948,현대(아)(일원2),강남구 일원동 ,강남구,없음
1949,자곡경로당,강남구 자곡동 ,강남구,없음
1950,역삼 시니어 하우스 경로당,강남구 역삼동 ,강남구,없음
1951,세곡리엔파크4단지경로당,강남구 세곡동 ,강남구,없음
1952,LH강남3단지아파트경로당,강남구 자곡동 ,강남구,없음
1953,개나리skview(아)경로당,강남구 역삼동 ,강남구,없음
1954,자곡경로당,강남구 자곡동 447-14번지 ,강남구,없음
1955,대치삼성(아)경로당,강남구 대치동 ,강남구,없음
1956,역삼회경로당,강남구 역삼동 749-14번지 ,강남구,없음
1957,힐스테이트2단지경로당,강남구 삼성동 힐스테이트2단지 아파트 ,강남구,없음
1958,래미안그레이튼아파트경로당,강남구 역삼동 ,강남구,없음
1959,세심경로당,강남구 논현동 ,강남구,없음
1960,역삼푸르지오(아)경로당,강남구 역삼동 ,강남구,없음
1961,대청3단지경로당,강남구 개포동 ,강남구,없음
1962,세곡도LH푸르지오(아)경로당,강남구 세곡동 ,강남구,없음
1963,로데오현대아파트경로당,강남구 신사동 ,강남구,없음
1964,대림(아)경로당(청담동),강남구 청담동 ,강남구,없음
1965,풍림(아)경로당,강남구 삼성동 ,강남구,없음
1966,청담삼성진흥,강남구 삼성동 ,강남구,없음
1967,롯데아파트경로당,강남구 삼성동 ,강남구,없음
1968,삼성현대아파트경로당,강남구 삼성동 ,강남구,없음
1969,힐스테이트1단지(아)경로당,강남구 삼성동 ,강남구,없음
1970,삼성파크아파트경로당,강남구 삼성동 ,강남구,없음
1971,롯데캐슬킹덤(아)경로당,강남구 삼성동 ,강남구,없음
1972,롯데캐슬리베경로당,강남구 대치동 ,강남구,없음
1973,래미안강남힐즈(아)경로당,강남구 자곡동 ,강남구,없음
1974,롯데캐슬(아)경로당,강남구 대치동 ,강남구,없음
1975,어울림경로당,강남구 역삼동 ,강남구,없음
1976,그레이튼실버클럽경로당,강남구 역삼동 762-3번지 ,강남구,없음
1977,역삼2차아이파크경로당,강남구 역삼동 765-32번지 ,강남구,없음
1978,청담자이(아)경로당,강남구 청담동 ,강남구,없음
1979,세곡리엔파크5단지 경로당,강남구 세곡동 세곡리엔파크5단지 ,강남구,없음
1980,청담삼성진흥아파트 경로당,강남구 삼성동 ,강남구,없음
1981,도곡쌍용예가아파트경로당,강남구 도곡동 -933번지 도곡쌍용예가아파트 ,강남구,없음
1982,세곡리엔파크2단지경로당,강남구 세곡동 세곡리엔파크2단지 경로당 ,강남구,없음
1983,강남상가아파트경로당,강남구 신사동 510-11번지 ,강남구,없음
1984,롯데캐슬프레미어(아)경로당,강남구 삼성동 11번지 ,강남구,없음
1985,래미안삼성2차아파트경로당,강남구 삼성동 7-3번지 104 104동 ,강남구,없음
1986,논현쌍용경로당,강남구 논현동 103번지 ,강남구,없음
1987,대치I'PARK경로당,강남구 대치동 888번지 ,강남구,없음
1988,래미안펜타빌(아)경로당,강남구 역삼동 ,강남구,없음
1989,래미안펜타빌(아)경로당,강남구 역삼동 ,강남구,없음
1990,대림아크로빌아파트경로당,강남구 도곡동 ,강남구,없음
1991,역말경로당,강남구 도곡동 546-4번지 ,강남구,없음
1992,역삼중앙경로당,강남구 역삼동 795-25번지 ,강남구,없음
1993,역삼중앙경로당,강남구 역삼동 ,강남구,없음
1994,대치포스코더샵아파트경로당,강남구 대치동 902번지 ,강남구,없음
1995,대치포스코더샵아파트경로당,강남구 대치동 902번지 ,강남구,없음
1996,I PARK 삼상동 경로당,강남구 삼성동 87번지 ,강남구,없음
1997,청수경로당,강남구 청담동 112-26번지 ,강남구,없음
1998,구립청수경로당,강남구 청담동 112-26번지 ,강남구,없음
1999,동호경로당,강남구 압구정동 447번지 ,강남구,없음
2000,대우유로카운티경로당,강남구 청담동 50-5번지 ,강남구,없음
2001,동호경로당,강남구 압구정동 447번지 ,강남구,없음
2002,동호경로당,강남구 압구정동 447번지 ,강남구,없음
2003,청담유로가운티경로당,강남구 청담동 50-50번지 ,강남구,없음
2004,아이파크 삼성동 경로당,강남구 삼성동 87번지 ,강남구,없음
2005,대치 동부센트레빌경로당,강남구 대치동 ,강남구,없음
2006,봉전경로당,강남구 삼성동 123-29번지 ,강남구,없음
2007,역삼복지경로당,강남구 역삼동 760-3번지 ,강남구,없음
2008,수서삼성(아)경로당,강남구 수서동 ,강남구,없음
2009,논골경로당,강남구 논현동 125-13번지 ,강남구,없음
2010,서광(아)경로당,강남구 삼성동 2번지 ,강남구,없음
2011,한솔(아)경로당,강남구 삼성동 5번지 ,강남구,없음
2012,대치현대(아)경로당,강남구 대치동 974번지 ,강남구,없음
2013,쌍용2차(아)경로당,강남구 대치동 66번지 ,강남구,없음
2014,청담삼성1차(아)경로당,강남구 청담동 33번지 ,강남구,없음
2015,청담현대3차(아)경로당,강남구 청담동 127-31번지 ,강남구,없음
2016,삼성청담공원(아),강남구 청담동 60번지 ,강남구,없음
2017,상록수(아)경로당,강남구 일원동 734번지 ,강남구,없음
2018,가람(아)경로당,강남구 일원동 735번지 ,강남구,없음
2019,제일경로당,강남구 일원동 711번지 ,강남구,없음
2020,현대(아)경로당,강남구 일원동 689번지 ,강남구,없음
2021,대치(아)2단지경로당,강남구 개포동 12번지 ,강남구,없음
2022,강남LH1단지(아)경로당,강남구 세곡동 ,강남구,없음
2023,강남데시앙포레(아)경로당,강남구 수서동 ,강남구,없음
2024,래미안포레(아)경로당,강남구 자곡동 ,강남구,없음
2025,경남(아)경로당,강남구 개포동 ,강남구,없음
2026,현대1차(아)경로당,강남구 개포동 653-10번지 ,강남구,없음
2027,구룡경로당,강남구 개포동 660-4번지 ,강남구,없음
2028,대룡경로당,강남구 개포동 141번지 ,강남구,없음
2029,개포경로당,강남구 개포동 169-3번지 ,강남구,없음
2030,개포2단지(아)경로당,강남구 개포동 140번지 ,강남구,없음
2031,개포3단지(아)경로당,강남구 개포동 138번지 ,강남구,없음
2032,개포4단지(아)경로당,강남구 개포동 189번지 ,강남구,없음
2033,개포5단지(아)경로당,강남구 개포동 187번지 ,강남구,없음
2034,개포7단지(아)경로당,강남구 개포동 185번지 ,강남구,없음
2035,개포8단지(아)경로당,강남구 일원동 ,강남구,없음
2036,개포9단지(아)경로당,강남구 일원동 688번지 ,강남구,없음
2037,현대2차(아)경로당,강남구 개포동 654번지 ,강남구,없음
2038,우성6차(아)경로당,강남구 개포동 658-1번지 ,강남구,없음
2039,대치(아)3단지경로당,강남구 개포동 12번지 ,강남구,없음
2040,우성7차(아)경로당,강남구 일원동 615번지 ,강남구,없음
2041,궁마을경로당,강남구 수서동 471-11번지 ,강남구,없음
2042,반고개경로당,강남구 세곡동 ,강남구,없음
2043,방죽2경로당,강남구 율현동 201-19번지 ,강남구,없음
2044,은곡경로당,강남구 세곡동 376번지 ,강남구,없음
2045,방죽1경로당,강남구 율현동 308-15번지 ,강남구,없음
2046,쟁골경로당,강남구 자곡동 226-3번지 ,강남구,없음
2047,청수경로당,강남구 청담동 112-26번지 ,강남구,없음
2048,국제(아)경로당,강남구 대치동 612번지 ,강남구,없음
2049,우성2차(아)경로당,강남구 대치동 985번지 ,강남구,없음
2050,해청(아)할아버지경로당,강남구 삼성동 11번지 ,강남구,없음
2051,해청(아)할머니경로당,강남구 삼성동 7-2번지 ,강남구,없음
2052,상아2차(아)경로당,강남구 삼성동 19-4번지 ,강남구,없음
2053,주공고층(아)경로당,강남구 대치동 670번지 ,강남구,없음
2054,우성(아)경로당,강남구 대치동 503번지 ,강남구,없음
2055,청실(아)경로당,강남구 대치동 633번지 ,강남구,없음
2056,선경(아)경로당,강남구 대치동 506번지 ,강남구,없음
2057,도곡제2(아)경로당,강남구 대치동 888번지 ,강남구,없음
2058,동원(아)경로당,강남구 대치동 888번지 ,강남구,없음
2059,동원(아)경로당,강남구 대치동 1014-1번지 ,강남구,없음
2060,미도(아)경로당,강남구 대치동 511번지 ,강남구,없음
2061,은마(아)경로당,강남구 대치동 316번지 ,강남구,없음
2062,우성1차(아)경로당,강남구 대치동 63번지 ,강남구,없음
2063,동아(아)경로당,강남구 대치동 902번지 ,강남구,없음
2064,역삼제3경로당,강남구 역삼동 739-15번지 ,강남구,없음
2065,상방교경로당,강남구 역삼동 632-13번지 ,강남구,없음
2066,개나리(아)경로당,강남구 역삼동 711-1번지 ,강남구,없음
2067,영동(아)경로당,강남구 역삼동 755-4번지 ,강남구,없음
2068,역말경로당,강남구 도곡동 546-1번지 ,강남구,없음
2069,역삼우성(아),강남구 도곡동 934-10번지 ,강남구,없음
2070,서린(아)경로당,강남구 도곡동 869-13번지 ,강남구,없음
2071,도곡(아)경로당,강남구 도곡동 527번지 ,강남구,없음
2072,진달래(아)경로당,강남구 도곡동 539번지 ,강남구,없음
2073,개포한신(아)경로당,강남구 도곡동 464번지 ,강남구,없음
2074,개포우성4차(아)경로당,강남구 도곡동 465번지 ,강남구,없음
2075,주공1단지(아)경로당,강남구 개포동 660-1번지 ,강남구,없음
2076,우성3차(아)경로당,강남구 개포동 652번지 ,강남구,없음
2077,학수정경로당,강남구 신사동 544-29번지 ,강남구,없음
2078,미성아파트경로당,강남구 신사동 85-1번지 ,강남구,없음
2079,대청경로당,강남구 일원동 ,강남구,없음
2080,쌍용1차(아)경로당,강남구 대치동 66번지 ,강남구,없음
2081,못골노인정,강남구 자곡동 447-14번지 ,강남구,없음
2082,대치4경로당,강남구 대치동 929-10번지 ,강남구,없음
2083,장수노인정,강남구 삼성동 49-6번지 ,강남구,없음
2084,수서3단지(아)경로당,강남구 수서동 707번지 ,강남구,없음
2085,밀미리경로당,강남구 개포동 ,강남구,없음
2086,재너머경로당,강남구 청담동 14-3번지 ,강남구,없음
2087,도곡1동경로당,강남구 도곡동 950-10번지 ,강남구,없음
2088,이화경로당,강남구 개포동 181번지 ,강남구,없음
2089,대치경로당,강남구 대치동 963-12번지 ,강남구,없음
2090,한마음경로당,강남구 논현동 80-11번지 ,강남구,없음
2091,개포시영(아)경로당,강남구 개포동 656번지 ,강남구,없음
2092,논현(아)경로당,강남구 논현동 22번지 ,강남구,없음
2093,개포6단지경로당,강남구 개포동 185번지 ,강남구,없음
2094,하방교경로당,강남구 역삼동 752-11번지 ,강남구,없음
2095,수서4단지(아)경로당,강남구 수서동 708번지 ,강남구,없음
2096,수서7단지(아)경로당,강남구 수서동 736번지 ,강남구,없음
2097,역삼럭키(아)경로당,강남구 도곡동 ,강남구,없음
2098,우성9차(아)경로당,강남구 개포동 651-1번지 ,강남구,없음
2099,수서10단지(아)경로당,강남구 일원동 746번지 ,강남구,없음
2100,청솔빌리지경로당,강남구 일원동 739번지 ,강남구,없음
2101,샘터마을(아)경로당,강남구 일원동 718번지 ,강남구,없음
2102,목련타운(아)경로당,강남구 일원동 716번지 ,강남구,없음
2103,한솔(아)경로당,강남구 일원동 731번지 ,강남구,없음
2104,푸른마을(아)경로당,강남구 일원동 푸른마을아파트 104동 ,강남구,없음
2105,한아름(아)경로당,강남구 수서동 712번지 ,강남구,없음
2106,테헤란경로당,강남구 역삼동 672-19번지 ,강남구,없음
2107,역삼2동경로당,강남구 역삼동 781-34번지 ,강남구,없음
2108,수서6단지(아)경로당,강남구 수서동 723번지 ,강남구,없음
2109,수서8단지(아)경로당,강남구 수서동 738번지 ,강남구,없음
2110,성보(아)경로당,강남구 역삼동 709번지 ,강남구,없음
2111,제2경로당,강남구 일원동 711번지 ,강남구,없음
2112,한빛경로당,강남구 삼성동 3-3번지 ,강남구,없음
2113,일원경로당,강남구 일원동 730번지 ,강남구,없음
2114,압구정1동경로당,강남구 신사동 627-2번지 ,강남구,없음
2115,늘푸른노인정,강남구 대치동 901-4번지 ,강남구,없음
2116,한신(아)경로당,강남구 도곡동 도곡한신아파트4동 ,강남구,없음
2117,포이경로당,강남구 개포동 ,강남구,없음
2118,현대(아)경로당,강남구 대치동 992번지 ,강남구,없음
2119,대림(아)경로당,강남구 도곡동 대림아파트 ,강남구,없음
2120,독구리경로당,강남구 도곡동 161번지 ,강남구,없음
2121,도곡경로당,강남구 도곡동 455번지 ,강남구,없음
2122,삼성경로당,강남구 삼성동 100-8번지 ,강남구,없음
2123,대치1단지(아)경로당,강남구 개포동 ,강남구,없음
2124,한티경로당,강남구 대치동 899-25번지 ,강남구,없음
2125,선정경로당,강남구 역삼동 638-19번지 ,강남구,없음
2126,성수금호3차(아) 경로당,성동구 성수동1가 ,성동구,없음
2127,옥수풍림(아) 경로당,성동구 옥수동 ,성동구,없음
2128,금호자이2차(아) 경로당,성동구 금호동3가 ,성동구,없음
2129,서울숲푸르지오2차(아) 경로당,성동구 금호동4가 ,성동구,없음
2130,하이리버 2차(아) 경로당,성동구 금호동2가 ,성동구,없음
2131,옥수리버젠 제2경로당,성동구 옥수동 ,성동구,없음
2132,옥수리버젠 제1(아)경로당,성동구 옥수동 ,성동구,없음
2133,금호하이리버(아)경로당,성동구 금호동2가 ,성동구,없음
2134,성수두산위브아파트경로당,성동구 성수동2가 838번지 두산위브아파트 ,성동구,없음
2135,옥수동호경로당,성동구 옥수동 517-19번지 ,성동구,없음
2136,금호롯데캐슬(아)경로당,성동구 금호동4가 1250번지 ,성동구,없음
2137,금호롯데케슬(아)경로당,성동구 금호동4가 1250번지 롯데케슬(아) 101동 705호,성동구,없음
2138,무학봉 경로당,성동구 하왕십리동 ,성동구,없음
2139,신성노바빌(아) 경로당,성동구 성수동2가 833-1번지 ,성동구,없음
2140,서마경로당,성동구 마장동 ,성동구,없음
2141,사근제4경로당,성동구 사근동 ,성동구,없음
2142,서울숲행당푸르지오(아)경로당,성동구 행당동 ,성동구,없음
2143,새촌할머니 경로당,성동구 성수동1가 ,성동구,없음
2144,정안 경로당,성동구 성수동2가 ,성동구,없음
2145,금호자이1차 경로당,성동구 금호동2가 ,성동구,없음
2146,송정동아이파크경로당,성동구 송정동 104번지 ,성동구,없음
2147,행당두산위브(아)경로당,성동구 행당동 375번지 ,성동구,없음
2148,한강한신아파트경로당,성동구 성수동2가 442번지 ,성동구,없음
2149,효사랑,성동구 금호동1가 1818번지 103 103동 ,성동구,없음
2150,금호브라운스톤아파트경로당,성동구 금호동4가 1507번지 ,성동구,없음
2151,서울숲푸르지오아파트경로당,성동구 금호동4가 340번지 ,성동구,없음
2152,강변동양아파트경로당,성동구 성수동1가 479-1번지 ,성동구,없음
2153,청계대주아파트경로당,성동구 홍익동 53번지 ,성동구,없음
2154,금호1차푸르지오(아),성동구 금호동3가 917번지 ,성동구,없음
2155,도선장수,성동구 도선동 69번지 ,성동구,없음
2156,일송경로당,성동구 마장동 831번지 ,성동구,없음
2157,마장중앙하이츠아파트경로당,성동구 마장동 819번지 ,성동구,없음
2158,성수2차우방아파트경로당,성동구 성수동2가 286번지 ,성동구,없음
2159,성수아이파크아파트경로당,성동구 성수동2가 834번지 ,성동구,없음
2160,성수롯데캐슬파크아파트경로당,성동구 성수동2가 835번지 ,성동구,없음
2161,리버그린동아아파트경로당,성동구 응봉동 276번지 ,성동구,없음
2162,마장동신성아파트경로당,성동구 마장동 822번지 103 103동 101호,성동구,없음
2163,마장동신성아파트경로당,성동구 마장동 822번지 103 103동 101호,성동구,없음
2164,뚝섬중앙하이츠빌경로당,성동구 성수동1가 715번지 ,성동구,없음
2165,마장금호어울림아파트경로당,성동구 마장동 820번지 102 102동 1401호,성동구,없음
2166,행당한신 제2 경로당,"성동구 행당동 201 201동 105,106호",성동구,없음
2167,마장동대성유니드아파트경로당,성동구 마장동 825번지 ,성동구,없음
2168,금강에스쁘아경로당,성동구 성수동2가 836번지 ,성동구,없음
2169,풍림경로당,성동구 하왕십리동 1061번지 ,성동구,없음
2170,옥수삼성아파트경로당,성동구 옥수동 250번지 ,성동구,없음
2171,송정동건영아파트경로당,성동구 송정동 90번지 ,성동구,없음
2172,구립용답동제3경로당,성동구 용답동 135-19번지 ,성동구,없음
2173,대림로즈빌아파트경로당,성동구 성수동1가 656-234번지 ,성동구,없음
2174,금호벽산아파트경로당,성동구 금호동1가 633번지 ,성동구,없음
2175,왕십리제2경로당,성동구 하왕십리동 1015-11번지 ,성동구,없음
2176,금호베스트빌아파트 제1경로당,성동구 하왕십리동 1052번지 ,성동구,없음
2177,금호벽산아파트 제2경로당,성동구 금호동1가 632번지 ,성동구,없음
2178,금난경로당,성동구 금호동1가 1567-3번지 ,성동구,없음
2179,성심경로당,성동구 옥수동 542-3번지 ,성동구,없음
2180,경마경로당,성동구 성수동1가 685-40번지 ,성동구,없음
2181,금호대우아파트경로당,성동구 금호동4가 800번지 ,성동구,없음
2182,대림강변타운경로당,성동구 응봉동 15번지 ,성동구,없음
2183,구립제일경로당,성동구 하왕십리동 890-98번지 103호,성동구,없음
2184,하왕극동미라주아파트경로당,성동구 하왕십리동 1058번지 ,성동구,없음
2185,금호삼성래미안아파트경로당,성동구 금호동1가 1500번지 ,성동구,없음
2186,금호베스트빌아파트모아경로당,성동구 하왕십리동 1053번지 ,성동구,없음
2187,강변임광아파트경로당,성동구 성수동2가 609-2번지 ,성동구,없음
2188,강변건영아파트,성동구 성수동1가 710번지 ,성동구,없음
2189,한림정경로당,성동구 옥수동 250번지 ,성동구,없음
2190,안정경로당,성동구 하왕십리동 1032-17번지 ,성동구,없음
2191,극동미라주아파트제2경로당,성동구 하왕십리동 1057번지 ,성동구,없음
2192,행당동한신아파트경로당,성동구 행당동 349번지 ,성동구,없음
2193,구립금강경로당,성동구 금호동4가 1168-1번지 ,성동구,없음
2194,성수2차우방아파트경로당,성동구 성수동2가 286번지 ,성동구,없음
2195,현대아파트경로당,성동구 마장동 818번지 ,성동구,없음
2196,동아그린아파트경로당,성동구 성수동1가 708번지 ,성동구,없음
2197,옥향경로당,성동구 옥수동 250번지 ,성동구,없음
2198,성수1차대우아파트경로당,성동구 성수동2가 297-50번지 ,성동구,없음
2199,청구강변아파트경로당,성동구 성수동2가 712번지 ,성동구,없음
2200,송일경로당,성동구 송정동 73-1084번지 ,성동구,없음
2201,행당대림아파트제2경로당,성동구 행당동 317-40번지 ,성동구,없음
2202,한진아파트제1경로당,성동구 행당동 346번지 한진아파트 ,성동구,없음
2203,행당대림아파트제1경로당,성동구 행당동 317-40번지 ,성동구,없음
2204,한양현대아파트경로당,성동구 성수동1가 707번지 ,성동구,없음
2205,한진아파트제2경로당,성동구 행당동 328-1번지 ,성동구,없음
2206,옥수제일경로당,성동구 옥수동 514-18번지 ,성동구,없음
2207,일심할머니경로당,성동구 하왕십리동 971-7번지 ,성동구,없음
2208,성수대우2차아파트경로당,성동구 성수동1가 709번지 ,성동구,없음
2209,중앙하이츠아파트경로당,성동구 용답동 15번지 ,성동구,없음
2210,사근벽산아파트경로당,성동구 사근동 314번지 ,성동구,없음
2211,현대아파트경로당,성동구 옥수동 4번지 ,성동구,없음
2212,한남하이츠아파트경로당,성동구 옥수동 220-1번지 ,성동구,없음
2213,옥수하이츠아파트경로당,성동구 옥수동 101번지 ,성동구,없음
2214,정화경로당,성동구 마장동 513-9번지 ,성동구,없음
2215,중앙경로당,성동구 성수동2가 397-3번지 ,성동구,없음
2216,옥수2경로당,성동구 옥수동 385-4번지 ,성동구,없음
2217,한진아파트경로당,성동구 성수동1가 704번지 ,성동구,없음
2218,마장제6경로당,성동구 마장동 377-2번지 ,성동구,없음
2219,금호3가경로당,성동구 금호동3가 451번지 ,성동구,없음
2220,두산아파트경로당,성동구 금호동3가 1331번지 ,성동구,없음
2221,홍익동경로당,성동구 홍익동 1번지 ,성동구,없음
2222,행당제2경로당,성동구 행당동 306-24번지 ,성동구,없음
2223,신동아아파트경로당,성동구 응봉동 275번지 ,성동구,없음
2224,삼성아파트경로당,성동구 마장동 817번지 ,성동구,없음
2225,상봉경로당,성동구 응봉동 265-305번지 ,성동구,없음
2226,진펄리경로당,성동구 행당동 128-7번지 ,성동구,없음
2227,성수쌍룡아파트경로당,성동구 성수동1가 706번지 ,성동구,없음
2228,극동그린아파트경로당,성동구 옥수동 436번지 ,성동구,없음
2229,용답제2경로당,성동구 용답동 83-5번지 ,성동구,없음
2230,두산아파트경로당,성동구 행당동 345번지 ,성동구,없음
2231,성수현대그린아파트경로당,성동구 성수동1가 33-2번지 ,성동구,없음
2232,삼부아파트경로당,성동구 행당동 147번지 ,성동구,없음
2233,사근제3경로당,성동구 행당동 1-130번지 ,성동구,없음
2234,유정경로당,성동구 옥수동 100번지 ,성동구,없음
2235,금호아파트경로당,성동구 성수동2가 832번지 ,성동구,없음
2236,신동아아파트경로당,성동구 행당동 344번지 ,성동구,없음
2237,중앙경로당,성동구 응봉동 200-1번지 ,성동구,없음
2238,송정동경로당,성동구 송정동 72-37번지 ,성동구,없음
2239,성삼경로당,성동구 성수동2가 299-240번지 ,성동구,없음
2240,경동할머니경로당,성동구 성수동2가 302-20번지 ,성동구,없음
2241,경동경로당,성동구 성수동2가 301-26번지 ,성동구,없음
2242,뚝섬실버문화센터,성동구 성수동2가 744-1번지 ,성동구,없음
2243,큰우물경로당,성동구 하왕십리동 515번지 ,성동구,없음
2244,대림1차아파트경로당,성동구 응봉동 100번지 ,성동구,없음
2245,대림2차아파트경로당,성동구 응봉동 97번지 ,성동구,없음
2246,금북경로당,성동구 금호동2가 468-1번지 ,성동구,없음
2247,세림아파트경로당,성동구 마장동 784번지 ,성동구,없음
2248,당현경로당,성동구 하왕십리동 331-2번지 ,성동구,없음
2249,관정경로당,성동구 상왕십리동 8-10번지 ,성동구,없음
2250,청계벽산아파트경로당,성동구 상왕십리동 258번지 ,성동구,없음
2251,일심경로당,성동구 하왕십리동 989-49번지 ,성동구,없음
2252,한신무학아파트경로당,성동구 하왕십리동 990번지 ,성동구,없음
2253,무학현대아파트경로당,성동구 하왕십리동 992번지 ,성동구,없음
2254,금호노우회경로당,성동구 금호동1가 168-147번지 ,성동구,없음
2255,금남경로당,성동구 금호동3가 1266번지 ,성동구,없음
2256,금호4가경로당,성동구 금호동4가 1535번지 ,성동구,없음
2257,응산경로당,성동구 옥수동 550-21번지 ,성동구,없음
2258,매봉경로당,성동구 옥수동 553-24번지 ,성동구,없음
2259,성일경로당,성동구 성수동1가 513번지 ,성동구,없음
2260,상원경로당,성동구 성수동1가 656-174번지 ,성동구,없음
2261,성수1가1동경로당,성동구 성수동1가 271-2번지 ,성동구,없음
2262,구립새촌경로당,성동구 성수동1가 656-106번지 ,성동구,없음
2263,금호대우제2아파트경로당,성동구 금호동4가 801번지 ,성동구,없음
2264,극동아파트경로당,성동구 옥수동 428번지 ,성동구,없음
2265,마장제4경로당,성동구 마장동 520-9번지 ,성동구,없음
2266,금옥경로당,성동구 금호동4가 산 28-1번지 ,성동구,없음
2267,서울숲실버문화센터,성동구 성수동1가 656-235번지 ,성동구,없음
2268,금호2가경로당,성동구 금호동2가 산 14번지 ,성동구,없음
2269,사근하이츠아파트경로당,성동구 사근동 199번지 ,성동구,없음
2270,구립용답제1경로당,성동구 용답동 19-8번지 ,성동구,없음
2271,구립교풍정경로당,성동구 하왕십리동 339-66번지 ,성동구,없음
2272,정우회경로당,성동구 금호동4가 1095번지 ,성동구,없음
2273,도선동경로당,성동구 도선동 373-1번지 ,성동구,없음
2274,현대아파트경로당,성동구 응봉동 98번지 ,성동구,없음
2275,새마을경로당,성동구 금호동3가 산 2번지 ,성동구,없음
2276,금일경로당,성동구 금호동1가 산 1-71번지 ,성동구,없음
2277,성원경로당,성동구 성수동1가 13-21번지 ,성동구,없음
2278,동아아파트경로당,성동구 성수동1가 656-32번지 ,성동구,없음
2279,행당두산위브제2경로당,성동구 행당동 행당두산위브제2아파트 ,성동구,없음
2280,양지경로당,성동구 하왕십리동 597-4번지 ,성동구,없음
2281,관우물경로당,성동구 하왕십리동 727-2번지 ,성동구,없음
2282,무학경로당,성동구 하왕십리동 산 7번지 ,성동구,없음
2283,구립마장동제2경로당,성동구 마장동 780-1번지 ,성동구,없음
2284,마장제3경로당,성동구 마장동 497-3번지 ,성동구,없음
2285,사근제1경로당,성동구 사근동 200-9번지 ,성동구,없음
2286,사근제2경로당,성동구 사근동 282-8번지 ,성동구,없음
2287,행당제1경로당,성동구 행당동 105-6번지 ,성동구,없음
2288,응봉경로당,성동구 행당동 341-45번지 ,성동구,없음
2289,세일경로당,금천구 독산동 ,금천구,없음
2290,각산아파트경로당,금천구 독산동 ,금천구,없음
2291,각산아파트경로당,금천구 독산동 ,금천구,없음
2292,우정경로당,금천구 가산동 238-3번지 ,금천구,없음
2293,구룡경로당,금천구 독산동 952-25번지 ,금천구,없음
2294,철쭉경로당,금천구 독산동 1112번지 ,금천구,없음
2295,두산아파트 C지구 경로당,금천구 가산동 두산위브아파트 ,금천구,없음
2296,남서울힐스테이트경로당,금천구 시흥동 789번지 힐스테이트 관리동 1층 ,금천구,없음
2297,라이프아파트 꽃마음경로당,금천구 독산동 1131번지 ,금천구,없음
2298,벽산아파트3단지경로당,금천구 시흥동 1006번지 벽산3단지아파트 ,금천구,없음
2299,벽산아파트 5단지 경로당,금천구 시흥동 1013번지 벽산5단지아파트 ,금천구,없음
2300,주공14단지아파트경로당,금천구 독산동 1088번지 주공14단지아파트 ,금천구,없음
2301,계룡아파트경로당,금천구 독산동 332-14번지 ,금천구,없음
2302,삼익아파트경로당,금천구 시흥동 5-13번지 삼익아파트 ,금천구,없음
2303,건영아파트경로당,금천구 시흥동 384-12번지 ,금천구,없음
2304,현대빌라경로당,금천구 시흥동 982번지 ,금천구,없음
2305,복지경로당,금천구 독산동 1010번지 ,금천구,없음
2306,한신아파트경로당,금천구 독산동 1095번지 한신아파트 ,금천구,없음
2307,참새공원 경로당,금천구 독산동 1088-2번지 ,금천구,없음
2308,관악우방아파트 경로당,금천구 시흥동 1011번지 관악우방아파트 ,금천구,없음
2309,시흥금강아파트경로당,금천구 시흥동 1008번지 ,금천구,없음
2310,금천이랜드 해가든아파트 경로당,금천구 독산동 1143번지 105 105동 1501호,금천구,없음
2311,백운한비치2차아파트경로당,금천구 시흥동 1018번지 ,금천구,없음
2312,목련아파트경로당,금천구 시흥동 118-9번지 ,금천구,없음
2313,벽산아파트제1단지경로당,금천구 시흥동 1010번지 ,금천구,없음
2314,산복(벽산아파트제2단지임대)경로당,금천구 시흥동 1010번지 ,금천구,없음
2315,벽산아파트3단지경로당,금천구 시흥동 1006번지 ,금천구,없음
2316,시흥2동 벽산아파트 5단지경로당,금천구 시흥동 1006번지 벽산5단지아파트 ,금천구,없음
2317,관악우방아파트경로당,금천구 시흥동 1011번지 관악우방아파트 ,금천구,없음
2318,현대빌라경로당,금천구 시흥동 982번지 ,금천구,없음
2319,중앙하이츠빌라경로당,금천구 시흥동 1005번지 ,금천구,없음
2320,삼익아파트경로당,금천구 시흥동 5-13번지 ,금천구,없음
2321,건영아파트경로당,금천구 시흥동 384-12번지 ,금천구,없음
2322,감로천경로당,금천구 독산동 917번지 ,금천구,없음
2323,정심경로당,금천구 독산동 196-8번지 ,금천구,없음
2324,구룡경로당,금천구 독산동 952-25번지 ,금천구,없음
2325,문성경로당,금천구 독산동 980-44번지 ,금천구,없음
2326,효정경로당,금천구 시흥동 ,금천구,없음
2327,산장경로당,금천구 시흥동 243-31번지 ,금천구,없음
2328,금산경로당,금천구 시흥동 948-14번지 ,금천구,없음
2329,박산경로당,금천구 시흥동 973번지 ,금천구,없음
2330,장수경로당,금천구 시흥동 8-9번지 ,금천구,없음
2331,신흥경로당,금천구 시흥동 산 126-13번지 ,금천구,없음
2332,읍내경로당,금천구 시흥동 921-29번지 ,금천구,없음
2333,탑동경로당,금천구 시흥동 ,금천구,없음
2334,시흥1동 대명경로당,금천구 시흥동 895-5번지 ,금천구,없음
2335,새재미경로당,금천구 시흥동 855번지 ,금천구,없음
2336,공단경로당,금천구 가산동 547-88번지 ,금천구,없음
2337,두산아파트 A지구 경로당,금천구 가산동 770번지 ,금천구,없음
2338,우창경로당,금천구 가산동 547-44번지 ,금천구,없음
2339,두산아파트 C지구 경로당,금천구 가산동 769번지 ,금천구,없음
2340,가산삼익아파트경로당,금천구 가산동 234-46번지 ,금천구,없음
2341,한신아파트경로당,금천구 독산동 1095번지 ,금천구,없음
2342,주공14단지아파트경로당,금천구 독산동 1088번지 ,금천구,없음
2343,금천현대아파트경로당,금천구 독산동 711-2번지 ,금천구,없음
2344,계룡아파트경로당,금천구 독산동 332-14번지 ,금천구,없음
2345,독산현대아파트경로당,금천구 독산동 293-10번지 ,금천구,없음
2346,중앙하이츠아파트경로당,금천구 독산동 1140번지 ,금천구,없음
2347,럭키아파트경로당,금천구 시흥동 1002-1번지 ,금천구,없음
2348,무지개아파트경로당,금천구 시흥동 109-1번지 ,금천구,없음
2349,성지아파트경로당,금천구 시흥동 산 173-8번지 ,금천구,없음
2350,시흥경남아파트경로당,금천구 시흥동 820-12번지 ,금천구,없음
2351,관악산신도브래뉴아파트경로당,금천구 시흥동 관악산신도브래뉴아파트경로당 ,금천구,없음
2352,대덕트윈빌 아파트 경로당,금천구 시흥동 1017번지 ,금천구,없음
2353,가산동 상록경로당,금천구 가산동 602-71번지 ,금천구,없음
2354,가산동 우정경로당,금천구 가산동 238-3번지 ,금천구,없음
2355,매봉경로당,금천구 가산동 148-11번지 ,금천구,없음
2356,복지관경로당,금천구 독산동 1010번지 ,금천구,없음
2357,말미경로당,금천구 독산동 293-14번지 ,금천구,없음
2358,철쭉경로당,금천구 독산동 1112번지 ,금천구,없음
2359,참새공원경로당,금천구 독산동 1088-2번지 ,금천구,없음
2360,독산1동 영보경로당,금천구 독산동 144-60번지 ,금천구,없음
2361,독산2동 정훈경로당,금천구 독산동 378-21번지 ,금천구,없음
2362,만수경로당,금천구 독산동 1063-14번지 ,금천구,없음
2363,독산3동 목화경로당,금천구 독산동 883-4번지 ,금천구,없음
2364,독산3동 동산경로당,금천구 독산동 993-29번지 ,금천구,없음
2365,벽산타운경로당,금천구 시흥동 1013번지 ,금천구,없음
2366,동아아파트경로당,금천구 독산동 183-1번지 ,금천구,없음
2367,진도3차아파트경로당,금천구 독산동 1136번지 ,금천구,없음
2368,벽산아파트6단지경로당,금천구 시흥동 벽산아파트 6단지동 ,금천구,없음
2369,탑스빌아파트경로당,금천구 시흥동 268-46번지 ,금천구,없음
2370,독산신도아파트경로당,금천구 독산동 955번지 ,금천구,없음
2371,독산삼익아파트경뢍,금천구 독산동 ,금천구,없음
2372,시흥베르빌아파트경로당,금천구 시흥동 1015번지 101 101동 802호,금천구,없음
2373,청광아파트경로당,금천구 독산동 1139번지 101 101동 1005호,금천구,없음
2374,백운한비치1차아파트경로당,금천구 시흥동 1012번지 ,금천구,없음
2375,논현경로당,강남구 논현동 150-5번지 ,강남구,없음
2376,영동경로당,강남구 논현동 263-23번지 ,강남구,없음
2377,학리경로당,강남구 논현동 107-33번지 ,강남구,없음
2378,동현경로당,강남구 논현동 105번지 ,강남구,없음
2379,현대(아)경로당,강남구 압구정동 ,강남구,없음
2380,동호(아)경로당,강남구 압구정동 447번지 ,강남구,없음
2381,압구정복지센터경로당,강남구 신사동 652-13번지 ,강남구,없음
2382,한양(아)경로당,강남구 압구정동 486번지 ,강남구,없음
2383,현대(아)경로당,강남구 압구정동 481번지 ,강남구,없음
2384,한양(아)경로당,강남구 청담동 134-9번지 ,강남구,없음
2385,삼익(아)경로당,강남구 청담동 134-18번지 ,강남구,없음
2386,진흥(아)경로당,강남구 청담동 65번지 ,강남구,없음
2387,청담경로당,강남구 청담동 94-4번지 ,강남구,없음
2388,홍실(아)경로당,강남구 삼성동 79번지 ,강남구,없음
2389,차관1차(아)경로당,강남구 삼성동 50번지 ,강남구,없음
2390,차관2차(아)경로당,강남구 삼성동 50번지 ,강남구,없음
2391,신동아3차아파트,도봉구 방학동 530번지 ,도봉구,없음
2392,한남제1,용산구 한남동 257-9번지 ,용산구,없음
2393,한남1동 제2,용산구 한남동 620-173번지 ,용산구,없음
2394,서빙고(할머니),용산구 서빙고동 50-1번지 ,용산구,없음
2395,용문(사립),용산구 용문동 27-1번지 1 1동 ,용산구,없음
2396,이태원2대림(사립),용산구 이태원동 729번지 ,용산구,없음
2397,마곡엠밸리2단지아파트경로당,강서구 마곡동 ,강서구,없음
2398,신현대(아),강남구 압구정동 297번지 ,강남구,없음
2399,LH강남브리즈힐경로당,강남구 자곡동 ,강남구,없음
2400,성북힐스테이트,성북구 하월곡동 ,성북구,없음
2401,종암동래미안라센트(아),성북구 종암동 ,성북구,없음
2402,길음9단지경성경로당,성북구 길음동 ,성북구,없음
2403,장곡향나무경로당,성북구 장위동 ,성북구,없음
2404,길음뉴타운8단지 제2경로당,성북구 길음동 825동 ,성북구,없음
2405,돈암신일해피트리(아)경로당,성북구 돈암동 104동 ,성북구,없음
2406,서경경로당,성북구 정릉동 ,성북구,없음
2407,길음뉴타운7단지두산위브아파트경로당,성북구 길음동 두산위브아파트 ,성북구,없음
2408,정릉피오레1차경로당,성북구 정릉동 피오레아파트 관리동 ,성북구,없음
2409,동일하이빌뉴시티경로당,성북구 하월곡동 104동 ,성북구,없음
2410,래미안종암2차아파트경로당,성북구 종암동 ,성북구,없음
2411,삼선SK뷰경로당,성북구 삼선동3가 ,성북구,없음
2412,길음뉴타운8단지 래미안아파트 경로당,성북구 길음동 1284번지 길음뉴타운8단지 관리동 2층 ,성북구,없음
2413,래미안세레니티경로당,성북구 종암동 133번지 210동 1층 ,성북구,없음
2414,꿈의숲 푸르지오,성북구 하월곡동 228번지 꿈의숲푸르지오아파트 116동 2층 ,성북구,없음
2415,종암2동경로당,성북구 종암동 9-7번지 ,성북구,없음
2416,래미안길음뉴타운9단지경로당,성북구 길음동 길음뉴타운9단지 909동 ,성북구,없음
2417,종암2차SK뷰아파트경로당,성북구 종암동 135번지 종암2차SK뷰아파트 내 ,성북구,없음
2418,보문하우스토리경로당,성북구 보문동4가 116번지 보문하우스토리 102동 1층 ,성북구,없음
2419,정릉2차 e-편한세상아파트 경로당,성북구 정릉동 1035번지 110 110동 902호,성북구,없음
2420,정릉2차 대주피오레아파트 경로당,성북구 정릉동 1032번지 202 202동 ,성북구,없음
2421,래미안석관,성북구 석관동 407번지 ,성북구,없음
2422,성북힐스테이트,성북구 하월곡동 88-64번지 ,성북구,없음
2423,길음뉴타운 라온유 경로당,성북구 정릉동 1034번지 ,성북구,없음
2424,정릉힐스테이트3차경로당,성북구 정릉동 1031번지 307 307동 201호,성북구,없음
2425,정릉힐스테이트1차(아)경로당,성북구 정릉동 1030번지 ,성북구,없음
2426,월곡3에스에이치아파트경로당,성북구 하월곡동 225-1번지 ,성북구,없음
2427,정릉우정에쉐르아파트경로당,성북구 정릉동 1033번지 관리 관리동 ,성북구,없음
2428,월곡2에스에이치빌아파트 경로당,성북구 하월곡동 226-1번지 ,성북구,없음
2429,꿈의숲루첸 경로당,성북구 장위동 317번지 꿈의숲대명루체아파트 101동 1층호,성북구,없음
2430,장위1동 동방경로당,성북구 장위동 219-169번지 ,성북구,없음
2431,정릉2동508번지경로당,성북구 정릉동 508-97번지 B01호,성북구,없음
2432,삼선푸르지오아파트경로당,성북구 삼선동2가 ,성북구,없음
2433,월곡래미안루나밸리경로당,성북구 하월곡동 월곡래미안루나밸리 101동 901호,성북구,없음
2434,정릉풍림아이원(아)경로당,성북구 정릉동 239번지 ,성북구,없음
2435,길음뉴타운7단지제2경로당,성북구 길음동 707동 608호,성북구,없음
2436,삼선1SH빌(아)경로당,성북구 삼선동2가 ,성북구,없음
2437,길음동부임대아파트송산경로당,성북구 길음동 1278-1번지 ,성북구,없음
2438,돈암1동 현대아파트경로당,성북구 돈암동 5번지 ,성북구,없음
2439,돈암1동 범양아파트경로당,성북구 돈암동 6-22번지 ,성북구,없음
2440,돈암1동 풍림아파트경로당,성북구 돈암동 83-52번지 ,성북구,없음
2441,동아에코빌아파트경로당,성북구 상월곡동 101번지 ,성북구,없음
2442,석관1동 두산아파트경로당,성북구 석관동 10번지 ,성북구,없음
2443,석관1동 코오롱아파트경로당,성북구 석관동 405번지 ,성북구,없음
2444,석관1동 삼성아파트경로당,성북구 석관동 404번지 ,성북구,없음
2445,북정경로당,성북구 성북동 224-146번지 ,성북구,없음
2446,동신아파트경로당,성북구 하월곡동 219번지 ,성북구,없음
2447,아남아파트경로당,성북구 하월곡동 218번지 ,성북구,없음
2448,장위우방아파트경로당,성북구 장위동 312번지 101 101동 209호,성북구,없음
2449,장위3동 제2경로당,성북구 장위동 270-4번지 ,성북구,없음
2450,경남아파트경로당,성북구 정릉동 1015번지 ,성북구,없음
2451,태영아파트경로당,성북구 정릉동 1018번지 ,성북구,없음
2452,쌍용스카이아파트경로당,성북구 정릉동 1014번지 ,성북구,없음
2453,공청경로당,성북구 정릉동 478-6번지 ,성북구,없음
2454,정릉2동 우방아파트경로당,성북구 정릉동 1016번지 ,성북구,없음
2455,정릉3동 성원아파트,성북구 정릉동 ,성북구,없음
2456,정릉4동 대우아파트,성북구 정릉동 산 1-151번지 ,성북구,없음
2457,종암극동아파트경로당,성북구 종암동 128번지 ,성북구,없음
2458,종암2동 SK아파트경로당,성북구 종암동 104-1번지 ,성북구,없음
2459,래미안길음3차아파트경로당,성북구 길음동 1283번지 길음3차아파트 관리동 2층 ,성북구,없음
2460,동소문동경로당,성북구 동소문동4가 279번지 203 203동 ,성북구,없음
2461,동선경로당,성북구 동선동3가 40-4번지 ,성북구,없음
2462,동선2동경로당,성북구 동소문동6가 239번지 ,성북구,없음
2463,동선2동 희망경로당 (임대),성북구 동선동5가 131번지 ,성북구,없음
2464,돈암2동경로당,성북구 정릉동 535-4번지 일화하이츠빌라 105호,성북구,없음
2465,안암3가경로당,성북구 안암동3가 41-1번지 ,성북구,없음
2466,종암1동 SH-VILLE(아) 경로당,성북구 종암동 131-1번지 ,성북구,없음
2467,장수경로당,성북구 정릉동 607-39번지 ,성북구,없음
2468,정릉3동경로당,성북구 정릉동 710-81번지 ,성북구,없음
2469,북악경로당,성북구 정릉동 880-3번지 ,성북구,없음
2470,산1경로당,성북구 정릉동 768-3번지 ,성북구,없음
2471,정릉4동 할머니,성북구 정릉동 254-3번지 102호,성북구,없음
2472,송석원경로당,성북구 정릉동 254-3번지 102호,성북구,없음
2473,월곡1동경로당,성북구 하월곡동 96-178번지 ,성북구,없음
2474,월곡2동경로당,성북구 하월곡동 96-175번지 ,성북구,없음
2475,목화경로당,성북구 하월곡동 35-4번지 ,성북구,없음
2476,월곡4동경로당,성북구 하월곡동 산 2-87번지 ,성북구,없음
2477,장수경로당,성북구 장위동 218-27번지 ,성북구,없음
2478,석관1동경로당,성북구 석관동 124-54번지 ,성북구,없음
2479,래미안길음1차아파트경로당,성북구 길음동 1279번지 ,성북구,없음
2480,장월 sh-ville 1단지(아)경로당,성북구 장위동 316-2번지 103 103동 ,성북구,없음
2481,장월sh-ville 1단지(아)103동,성북구 장위동 316-2번지 103 103동 ,성북구,없음
2482,삼선현대힐스테이트아파트경로당,성북구 삼선동2가 420번지 삼선힐스테이트아파트 108동 1층호,성북구,없음
2483,돈암동일하이빌(아)경로당,성북구 동소문동5가 120번지 102 102동 4층호,성북구,없음
2484,정릉중앙하이츠빌2단지(아)경로당,성북구 정릉동 435-1번지 관리동 관리동동 3층호,성북구,없음
2485,정릉풍림아이원아파트제3경로당,성북구 정릉동 239-5번지 ,성북구,없음
2486,래미안길음2차(아)경로당,성북구 길음동 1282번지 ,성북구,없음
2487,참누리아파트경로당,성북구 장위동 316-5번지 ,성북구,없음
2488,돈암힐스테이트(아)경로당,성북구 돈암동 639번지 ,성북구,없음
2489,정릉 e-편한세상아파트 경로당,성북구 정릉동 1028번지 관리동 관리동동 2층호,성북구,없음
2490,돈암더샵아파트경로당,성북구 돈암동 603번지 관리동 관리동동 ,성북구,없음
2491,래미안월곡(아)경로당,성북구 하월곡동 225번지 관리동 관리동동 ,성북구,없음
2492,브라운스톤돈암아파트경로당,성북구 돈암동 636번지 관리 관리동 ,성북구,없음
2493,학수경로당,성북구 길음동 1281-1번지 426 426동 ,성북구,없음
2494,학수경로당,성북구 길음동 1281-1번지 426 426동 ,성북구,없음
2495,종암2차아이파크경로당,성북구 종암동 131번지 ,성북구,없음
2496,종암2차아이파크경로당,성북구 종암동 131번지 ,성북구,없음
2497,안암래미안아파트경로당,성북구 안암동1가 361번지 ,성북구,없음
2498,송매골경로당,성북구 길음동 1280-3번지 관리 관리동 ,성북구,없음
2499,송매골경로당,성북구 길음동 1280-3번지 관리동 관리동동 ,성북구,없음
2500,정릉푸르지오경로당,성북구 정릉동 406번지 108 108동 ,성북구,없음
2501,정릉푸르지오경로당,성북구 정릉동 108동 ,성북구,없음
2502,일신건영휴먼빌(아)경로당,성북구 돈암동 524번지 관리 관리동 ,성북구,없음
2503,일신건영휴먼빌아파트경로당,성북구 돈암동 524번지 관리 관리동 ,성북구,없음
2504,정릉풍림아이원아파트제2경로당,성북구 정릉동 239-1번지 125 125동 ,성북구,없음
2505,안암동할머니경로당,성북구 안암동1가 357번지 ,성북구,없음
2506,월곡두산(아)제2경로당,성북구 하월곡동 222-1번지 ,성북구,없음
2507,정릉푸른마을동아아파트경로당,성북구 정릉동 210번지 ,성북구,없음
2508,정릉중앙하이츠빌1단지아파트경로당,성북구 정릉동 494번지 103 103동 905호,성북구,없음
2509,정릉중앙하이츠1단지아파트경로당,성북구 정릉동 494번지 104 104동 ,성북구,없음
2510,종암1동현대아이파크경로당,성북구 종암동 130번지 102 102동 ,성북구,없음
2511,길음제2동돌산경로당,성북구 길음동 1271-304번지 C C동 101호,성북구,없음
2512,길음제2동돌산경로당,성북구 길음동 1271-304번지 C C동 101호,성북구,없음
2513,보문동3가할머니경로당,성북구 보문동3가 218번지 ,성북구,없음
2514,보문동동망봉할머니경로당,성북구 보문동3가 ,성북구,없음
2515,길음뉴타운대림아파트경로당,성북구 길음동 1281번지 ,성북구,없음
2516,정릉현대홈타운경로당,성북구 정릉동 1025번지 ,성북구,없음
2517,길음뉴타운2단지푸르지오경로당,성북구 길음동 1280번지 ,성북구,없음
2518,브라운스톤돈암아파트경로당,성북구 돈암동 636번지 관리 관리동 ,성북구,없음
2519,보문제2경로당부설 노인교실,성북구 동소문동6가 198-66번지 ,성북구,없음
2520,보문제2경로당,성북구 보문동6가 ,성북구,없음
2521,정릉4동경로당,성북구 정릉동 266-496번지 ,성북구,없음
2522,샹그레빌아파트경로당,성북구 하월곡동 39-49번지 ,성북구,없음
2523,길음1동경로당,성북구 길음동 608-16번지 ,성북구,없음
2524,동아아파트제2경로당,성북구 상월곡동 101-1번지 관리 관리동 1층호,성북구,없음
2525,남종경로당,성북구 종암동 100번지 ,성북구,없음
2526,한진아파트북악경로당,성북구 돈암동 616-100번지 ,성북구,없음
2527,장위2동경로당,성북구 장위동 68-1064번지 ,성북구,없음
2528,성암경로당,성북구 성북동 66-21번지 ,성북구,없음
2529,삼선2동경로당,성북구 삼선동3가 68-3번지 ,성북구,없음
2530,월곡1동밤골경로당,성북구 하월곡동 산 2-87번지 ,성북구,없음
2531,정릉쌍용(아)경로당,성북구 정릉동 1017번지 ,성북구,없음
2532,돈암1동풍림(아)제2경로당,성북구 돈암동 83-52번지 ,성북구,없음
2533,보문아이파크(아)경로당,성북구 보문동3가 2번지 ,성북구,없음
2534,정릉풍림아이원(아)경로당,성북구 정릉동 239번지 ,성북구,없음
2535,정릉4동중앙하이츠(아)경로당,성북구 정릉동 809번지 2 2동 101호,성북구,없음
2536,종암래미안(아)경로당,성북구 종암동 80번지 ,성북구,없음
2537,정릉1동경로당,성북구 정릉동 1층 ,성북구,없음
2538,돈암2동한진아파트경로당,성북구 돈암동 609-1번지 ,성북구,없음
2539,돈암1동삼성아파트제2경로당,성북구 돈암동 ,성북구,없음
2540,석관동제1경로당,성북구 석관동 124-54번지 ,성북구,없음
2541,종암2동SK아파트제2경로당,성북구 종암동 104번지 ,성북구,없음
2542,신우노인회경로당,성북구 정릉동 677-1번지 천주교정릉교회 교육관 4호실 ,성북구,없음
2543,새마을경로당,성북구 정릉동 10-210번지 ,성북구,없음
2544,성북1동경로당,성북구 성북동 186-11번지 ,성북구,없음
2545,길음동부센트레빌아파트경로당,성북구 길음동 1278번지 ,성북구,없음
2546,길음동부임대(아)송산경로당,성북구 길음동 1278-1번지 ,성북구,없음
2547,성북2동할머니경로당,성북구 성북동 217-83번지 ,성북구,없음
2548,돈암동부센트레빌아파트경로당,성북구 돈암동 633번지 ,성북구,없음
2549,월곡두산위브아파트경로당,성북구 하월곡동 222번지 ,성북구,없음
2550,동소문동2차한신휴(아)경로당,성북구 동소문동7가 23번지 ,성북구,없음
2551,보문동경로당,성북구 보문동1가 73번지 ,성북구,없음
2552,문바위경로당,성북구 정릉동 290-40번지 ,성북구,없음
2553,한신팔각정경로당,성북구 돈암동 609-1번지 ,성북구,없음
2554,한신팔각정경로당,성북구 돈암동 609-1번지 ,성북구,없음
2555,문바위경로당,성북구 정릉동 290-40번지 ,성북구,없음
2556,상월곡동우남아파트경로당,성북구 상월곡동 55-56번지 ,성북구,없음
2557,인영경로당,성북구 길음동 1180-5번지 ,성북구,없음
2558,길음2동 경로당,성북구 길음동 903번지 ,성북구,없음
2559,돈암1동범양아파트경로당,성북구 돈암동 6-22번지 ,성북구,없음
2560,종암동제1경로당,성북구 종암동 ,성북구,없음
2561,장위3동경로당,성북구 장위동 135-5번지 ,성북구,없음
2562,중앙경로당,성북구 종암동 3-186번지 ,성북구,없음
2563,호암경로당,성북구 안암동1가 312번지 ,성북구,없음
2564,월곡3동경로당,성북구 하월곡동 77-27번지 ,성북구,없음
2565,석관동제2경로당,성북구 석관동 255-17번지 ,성북구,없음
2566,정릉1동우성(아)경로당,성북구 정릉동 1020번지 ,성북구,없음
2567,안암동경로당,성북구 안암동5가 104-37번지 ,성북구,없음
2568,돈암1동삼성아파트제1경로당,성북구 돈암동 ,성북구,없음
2569,정릉2동신우경로당,성북구 정릉동 674-4번지 ,성북구,없음
2570,삼선코오롱아파트경로당,성북구 삼선동4가 73번지 ,성북구,없음
2571,안마을경로당,성북구 종암동 53-38번지 ,성북구,없음
2572,손가정경로당,성북구 정릉동 338번지 ,성북구,없음
2573,장위1동경로당,성북구 장위동 산 3-101번지 ,성북구,없음
2574,상월곡동경로당,성북구 상월곡동 97-36번지 외 3필지 ,성북구,없음
2575,청수경로당,성북구 정릉동 966-24번지 ,성북구,없음
2576,길음2동인영경로당,성북구 길음동 601-11번지 ,성북구,없음
2577,삼선1동경로당,성북구 삼선동1가 274-3번지 ,성북구,없음
2578,종암2동경로당,성북구 종암동 3-199번지 ,성북구,없음
2579,한성경로당,성북구 삼선동1가 308-12번지 ,성북구,없음
2580,정릉2동경로당,성북구 정릉동 223-1번지 ,성북구,없음
2581,대동경로당,성북구 길음동 877-255번지 ,성북구,없음
2582,보문아남아파트경로당,성북구 보문동6가 661번지 ,성북구,없음
2583,중앙하이츠아파트경로당,성북구 석관동 110-2번지 ,성북구,없음
2584,길음삼부아파트경로당,성북구 길음동 101번지 ,성북구,없음
2585,종암선경아파트경로당,성북구 종암동 34-3번지 ,성북구,없음
2586,안암3가경로당,성북구 안암동3가 41-1번지 ,성북구,없음
2587,청량리2동분회경로당,동대문구 청량리동 449-10번지 ,동대문구,없음
2588,동서울한양아파트경로당,동대문구 답십리동 41번지 ,동대문구,없음
2589,이문3동대림아파트경로당,동대문구 이문동 225번지 ,동대문구,없음
2590,대림아파트경로당,동대문구 이문동 225번지 ,동대문구,없음
2591,이문e편한세상아파트경로당,동대문구 이문동 225번지 ,동대문구,없음
2592,장안4동분회경로당,동대문구 장안동 143-26번지 ,동대문구,없음
2593,답십리4동우성그린@경로당,동대문구 답십리동 산 2-106번지 ,동대문구,없음
2594,이문3동현대(아)경로당,동대문구 이문동 54-1번지 ,동대문구,없음
2595,삼성래미안(아)경로당,동대문구 이문동 425번지 ,동대문구,없음
2596,래미안장안@경로당,동대문구 장안동 354-2.3-2번지 ,동대문구,없음
2597,휘경2동 분회경로당,동대문구 휘경동 312-22번지 ,동대문구,없음
2598,신성(아)경로당,동대문구 휘경동 106번지 ,동대문구,없음
2599,홍릉경로당,동대문구 청량리동 203-286번지 ,동대문구,없음
2600,현대아파트경로당,동대문구 청량리동 234-2번지 ,동대문구,없음
2601,광희경로당,중구 광희동1가 ,중구,없음
2602,필동경로당,중구 필동2가 19-22번지 ,중구,없음
2603,장충경로당,중구 장충동2가 193-114번지 ,중구,없음
2604,공원장충경로당,중구 장충동2가 197번지 ,중구,없음
2605,을지경로당,중구 을지로4가 178-1번지 ,중구,없음
2606,신당경로당,중구 신당동 304-738번지 ,중구,없음
2607,신일경로당,중구 신당동 393-9번지 ,중구,없음
2608,다산경로당,중구 신당동 379-16번지 ,중구,없음
2609,충현경로당,중구 신당동 828-5번지 ,중구,없음
2610,장수경로당,중구 신당동 353-47번지 ,중구,없음
2611,약수경로당,중구 신당동 368-81번지 ,중구,없음
2612,신답경남아파트경로당,동대문구 답십리동 645-8번지 ,동대문구,없음
2613,장수경로당,동대문구 장안동 563번지 ,동대문구,없음
2614,장안힐스테이트경로당,동대문구 장안동 329-2번지 ,동대문구,없음
2615,한신아파트경로당,동대문구 답십리동 42번지 ,동대문구,없음
2616,래미안장안2차아파트경로당,동대문구 장안동 329-3번지 ,동대문구,없음
2617,동부경로당,동대문구 용두동 39-454번지 ,동대문구,없음
2618,신성아파트경로당,동대문구 전농동 687번지 103 103동 1302호,동대문구,없음
2619,답사경로당,동대문구 답십리동 903번지 ,동대문구,없음
2620,답십리두산위브아파트경로당,동대문구 답십리동 998번지 ,동대문구,없음
2621,청계벽산아파트경로당,동대문구 답십리동 999번지 ,동대문구,없음
2622,장안3차현대홈타운경로당,동대문구 장안동 571번지 ,동대문구,없음
2623,현대아파트경로당,동대문구 제기동 892-66번지 ,동대문구,없음
2624,휘경1동분회경로당,동대문구 휘경동 179-9번지 ,동대문구,없음
2625,휘경현대아파트경로당,동대문구 휘경동 363번지 ,동대문구,없음
2626,휘경베스트빌현대아파트경로당,동대문구 휘경동 52번지 ,동대문구,없음
2627,장안현대홈타운아파트제2경로당,동대문구 장안동 354-1번지 ,동대문구,없음
2628,우성아파트경로당,동대문구 전농동 6번지 ,동대문구,없음
2629,휘경롯데낙천대아파트경로당,동대문구 휘경동 109번지 ,동대문구,없음
2630,명성경로당,동대문구 용두동 118-57번지 ,동대문구,없음
2631,제기1동분회경로당,동대문구 제기동 681-2번지 ,동대문구,없음
2632,근린경로당,동대문구 장안동 300번지 ,동대문구,없음
2633,답십리세양청마루아파트경로당,동대문구 답십리동 997번지 ,동대문구,없음
2634,동호경로당,중구 신당동 349-120번지 ,중구,없음
2635,남산숲경로당,중구 신당동 844번지 ,중구,없음
2636,쌈지경로당,중구 신당동 844번지 ,중구,없음
2637,장안3동경로당,동대문구 장안동 449번지 ,동대문구,없음
2638,장안3동경로당,동대문구 장안동 449번지 ,동대문구,없음
2639,이문3동경로당,동대문구 이문동 256-137번지 ,동대문구,없음
2640,롯데1차아파트경로당,동대문구 휘경동 78번지 ,동대문구,없음
2641,청량리미주아파트경로당,동대문구 청량리동 235-1번지 ,동대문구,없음
2642,래미안아파트경로당,동대문구 답십리동 1000번지 104 104동 1301호,동대문구,없음
2643,롯데캐슬피렌체아파트경로당,동대문구 용두동 790번지 ,동대문구,없음
2644,현대홈타운경로당,동대문구 장안동 ,동대문구,없음
2645,신이문금호어울림아파트경로당,동대문구 이문동 428번지 101 101동 1103호,동대문구,없음
2646,용두두산위브아파트경로당,동대문구 용두동 797번지 ,동대문구,없음
2647,하늘경로당,중구 신당동 844번지 ,중구,없음
2648,청구경로당,중구 신당동 333-36번지 ,중구,없음
2649,약수하이츠경로당,중구 신당동 842번지 ,중구,없음
2650,동아아파트경로당,중구 신당동 842번지 ,중구,없음
2651,삼성아파트경로당,중구 신당동 843번지 ,중구,없음
2652,청송경로당,중구 신당동 843번지 ,중구,없음
2653,신당푸르지오경로당,중구 신당동 (103동) 관리사무소옆 ,중구,없음
2654,SK아파트경로당,동대문구 전농동 10번지 ,동대문구,없음
2655,장평경로당,동대문구 장안동 138-11번지 ,동대문구,없음
2656,SK아파트제2경로당,동대문구 전농동 10-1번지 ,동대문구,없음
2657,SK아파트제2경로당,동대문구 전농동 10-1번지 ,동대문구,없음
2658,홍릉동부아파트경로당,동대문구 청량리동 212번지 ,동대문구,없음
2659,동일스위트리버경로당,동대문구 휘경동 366번지 ,동대문구,없음
2660,동일스위트리버경로당,동대문구 휘경동 366번지 ,동대문구,없음
2661,배봉경로당,동대문구 전농동 산 32-5번지 ,동대문구,없음
2662,청량리 한신아파트제2경로당,동대문구 청량리동 60번지 ,동대문구,없음
2663,청솔2차우성아파트경로당,동대문구 답십리동 80-2번지 ,동대문구,없음
2664,삼성쉐르빌아파트경로당,동대문구 장안동 371-1번지 ,동대문구,없음
2665,삼성쉐르빌아파트경로당,동대문구 장안동 371-1번지 ,동대문구,없음
2666,휘경동일하이빌아파트경로당,동대문구 휘경동 365번지 102 102동 1102호,동대문구,없음
2667,용일경로당,"동대문구 용두동 787번지 1609,1621호",동대문구,없음
2668,이수아파트경로당,동대문구 제기동 55-10번지 ,동대문구,없음
2669,삼성아파트경로당,동대문구 전농동 155번지 ,동대문구,없음
2670,이문경로당,동대문구 이문동 284-7번지 ,동대문구,없음
2671,삼익아파트경로당,동대문구 이문동 73번지 ,동대문구,없음
2672,한화아파트경로당,동대문구 답십리동 994번지 ,동대문구,없음
2673,삼성쉐르빌경로당,동대문구 장안동 371-1번지 ,동대문구,없음
2674,삼성쉐르빌경로당,동대문구 장안동 371-1번지 ,동대문구,없음
2675,새말경로당,성동구 송정동 ,성동구,없음
2676,광희경로당,성동구 응봉동 ,성동구,없음
2677,미소경로당,성동구 상왕십리동 ,성동구,없음
2678,희망경로당,성동구 상왕십리동 ,성동구,없음
2679,무쇠막경로당,성동구 금호동4가 ,성동구,없음
2680,은평뉴타운 상림마을 5단지아파트 경로당,은평구 진관동 5번지 은평뉴타운상림마을 629동 1층 ,은평구,없음
2681,은평뉴타운 상림마을 14단지아파트 경로당,은평구 진관동 10번지 ,은평구,없음
2682,은평뉴타운 상림마을 6단지 제1경로당,은평구 진관동 3번지 은평뉴타운상림마을 603동 ,은평구,없음
2683,은평뉴타운 상림마을 7단지아파트 경로당,은평구 진관동 2번지 ,은평구,없음
2684,은평뉴타운 상림마을 6단지아파트 경로당,은평구 진관동 1번지 ,은평구,없음
2685,은평뉴타운 상림마을 제2단지아파트 경로당,은평구 진관동 14번지 ,은평구,없음
2686,은평뉴타운 상림마을 9단지아파트 경로당,은평구 진관동 7번지 ,은평구,없음
2687,문영마운틴1차아파트 경로당,은평구 증산동 254번지 ,은평구,없음
2688,북한산 힐스테이트 1차아파트 경로당,은평구 불광동 635번지 1103 1103동 802호,은평구,없음
2689,파인타운6단지,송파구 장지동 ,송파구,없음
2690,충효정,송파구 거여동 ,송파구,없음
2691,파인타운3단지,송파구 장지동 ,송파구,없음
2692,파인타운2단지,송파구 장지동 ,송파구,없음
2693,파인타운8단지,송파구 장지동 ,송파구,없음
2694,가락쌍용3차,송파구 가락동 ,송파구,없음
2695,남천 경로당,송파구 마천동 산 2-1번지 ,송파구,없음
2696,백조 경로당,송파구 오금동 20-2번지 ,송파구,없음
2697,파인타운9단지 경로당,송파구 장지동 ,송파구,없음
2698,파인타운9단지 경로당,송파구 장지동 ,송파구,없음
2699,트리지움 경로당,송파구 잠실동 35번지 ,송파구,없음
2700,파인타운11단지 경로당,송파구 장지동 ,송파구,없음
2701,파인타운10단지,송파구 장지동 ,송파구,없음
2702,파인타운7단지경로당,송파구 장지동 ,송파구,없음
2703,레미안파크,송파구 가락동 165번지 ,송파구,없음
2704,파크리오2경로당,송파구 신천동 20번지 ,송파구,없음
2705,파크리오1,송파구 신천동 ,송파구,없음
2706,파크리오3,송파구 신천동 20번지 ,송파구,없음
2707,파크리오4,송파구 신천동 20번지 ,송파구,없음
2708,잠실엘스,송파구 잠실동 ,송파구,없음
2709,파인타운4단지,송파구 장지동 ,송파구,없음
2710,개롱경로당,송파구 가락동 198번지 ,송파구,없음
2711,새팽이경로당,송파구 가락동 170-6번지 ,송파구,없음
2712,미륭(아)경로당,송파구 가락동 138번지 ,송파구,없음
2713,현대홈타운,송파구 풍납동 511번지 ,송파구,없음
2714,금호어울림경로당,송파구 마천동 319번지 ,송파구,없음
2715,신구블레스밸리 경로당,송파구 방이동 197번지 ,송파구,없음
2716,해모로 경로당,송파구 풍납동 512번지 ,송파구,없음
2717,레이크펠리스경로당,송파구 잠실동 44번지 ,송파구,없음
2718,누에머리 경로당,송파구 오금동 110번지 ,송파구,없음
2719,노인여가시설(잔버들경로당),송파구 장지동 92번지 ,송파구,없음
2720,거여현대1차아파트 경로당,송파구 거여동 362번지 ,송파구,없음
2721,화훼마을경로휴게실,송파구 장지동 612-8번지 ,송파구,없음
2722,독산삼익아파트 경로당,금천구 독산동 독산삼익아파트경로당 ,금천구,없음
2723,가락주공(아)경로당,송파구 가락동 478번지 ,송파구,없음
2724,서울놀이마당경로휴게실,송파구 잠실동 47번지 ,송파구,없음
2725,금호베스트빌(아)경로당,송파구 마천동 575번지 ,송파구,없음
2726,현대백조(아)102동 경로당,송파구 오금동 20-2번지 ,송파구,없음
2727,현대백조(아)102동 경로당,송파구 오금동 20-2번지 ,송파구,없음
2728,오륜2단지(아)경로당,송파구 방이동 89번지 ,송파구,없음
2729,개미마을경로휴게실,송파구 문정동 207번지 ,송파구,없음
2730,우방(아)경로당,송파구 마천동 576번지 ,송파구,없음
2731,풍납쌍용(아)경로당,송파구 풍납동 401-1번지 ,송파구,없음
2732,문정3차대우아파트 경로당,송파구 문정동 117번지 ,송파구,없음
2733,어울림(아)경로당,송파구 거여동 593번지 ,송파구,없음
2734,우방1차아파트,송파구 거여동 356번지 ,송파구,없음
2735,가락쌍용(아),송파구 가락동 21-6번지 ,송파구,없음
2736,대아(아)경로당,송파구 풍납동 163번지 ,송파구,없음
2737,문정대우1차(아)경로당,송파구 문정동 18번지 ,송파구,없음
2738,건너말 경로당,송파구 가락동 110번지 ,송파구,없음
2739,거송경로당,송파구 거여동 205-47번지 ,송파구,없음
2740,오금우방(아)경로당,송파구 오금동 138번지 ,송파구,없음
2741,신성노바빌아파트 경로당,송파구 풍납동 510번지 ,송파구,없음
2742,가락시장경로당,송파구 가락동 600번지 ,송파구,없음
2743,가락주공(아)경로당,송파구 가락동 478번지 ,송파구,없음
2744,훙이경로당,송파구 가락동 14번지 ,송파구,없음
2745,거여3단지아파트경로당,송파구 거여동 292번지 ,송파구,없음
2746,거여3단지아파트경로당,송파구 거여동 292번지 ,송파구,없음
2747,백토경로당,송파구 오금동 6번지 ,송파구,없음
2748,백토경로당,송파구 오금동 6번지 ,송파구,없음
2749,동부센트레빌경로당,송파구 가락동 95-8번지 ,송파구,없음
2750,센트레빌경로당,송파구 가락동 95-8번지 ,송파구,없음
2751,씨티극동아파트,송파구 풍납동 90-3번지 ,송파구,없음
2752,거여4단지아파트,송파구 거여동 293번지 ,송파구,없음
2753,거여6단지아파트,송파구 거여동 295번지 ,송파구,없음
2754,거여5단지아파트,송파구 거여동 294번지 ,송파구,없음
2755,거여1단지아파트,송파구 거여동 290번지 ,송파구,없음
2756,동아효성아파트,송파구 거여동 291번지 ,송파구,없음
2757,현대백조아파트,송파구 오금동 11번지 ,송파구,없음
2758,가락 금호아파트,송파구 가락동 95-1번지 ,송파구,없음
2759,문정,송파구 문정동 25-2번지 ,송파구,없음
2760,훼밀리 제1아파트,송파구 문정동 150번지 ,송파구,없음
2761,금호아파트,송파구 마천동 304번지 ,송파구,없음
2762,송파1동 경로당,송파구 송파동 113번지 ,송파구,없음
2763,풍산경로당,송파구 풍납동 260-2번지 ,송파구,없음
2764,미성아파트,송파구 풍납동 219번지 ,송파구,없음
2765,오금삼성,송파구 오금동 160번지 ,송파구,없음
2766,동아한가람아파트,송파구 풍납동 506번지 ,송파구,없음
2767,쌍용아파트,송파구 풍납동 401-1번지 ,송파구,없음
2768,한강 극동아파트,송파구 풍납동 508번지 ,송파구,없음
2769,장수,송파구 마천동 211-2번지 ,송파구,없음
2770,웃마을,송파구 마천동 373-8번지 ,송파구,없음
2771,가락 풍림아파트,송파구 가락동 142번지 ,송파구,없음
2772,석촌,송파구 석촌동 289-2번지 ,송파구,없음
2773,쌍용아파트,송파구 가락동 140번지 ,송파구,없음
2774,연화,송파구 문정동 67-17번지 ,송파구,없음
2775,상아아파트,송파구 오금동 165번지 ,송파구,없음
2776,대림아파트,송파구 오금동 2번지 ,송파구,없음
2777,문정 시영아파트,송파구 장지동 75번지 ,송파구,없음
2778,잠전,송파구 잠실동 230번지 ,송파구,없음
2779,한신코아아파트,송파구 신천동 11-9번지 ,송파구,없음
2780,토성경로당,송파구 풍납동 503번지 ,송파구,없음
2781,토성 경로당,송파구 풍납동 503번지 ,송파구,없음
2782,거여 새마을,송파구 거여동 29번지 ,송파구,없음
2783,하마천,송파구 마천동 11번지 ,송파구,없음
2784,코오롱아파트,송파구 방이동 215번지 ,송파구,없음
2785,대림아파트,송파구 가락동 70-20번지 ,송파구,없음
2786,장지,송파구 장지동 81번지 ,송파구,없음
2787,영풍경로당,송파구 거여동 11번지 ,송파구,없음
2788,석촌 오봉산,송파구 석촌동 162번지 ,송파구,없음
2789,신잠실,송파구 잠실동 319번지 ,송파구,없음
2790,현대아파트,송파구 잠실동 331번지 ,송파구,없음
2791,풍성경로당,송파구 풍납동 485-15번지 ,송파구,없음
2792,왕천,송파구 방이동 189번지 ,송파구,없음
2793,구립벌말,송파구 오금동 132번지 ,송파구,없음
2794,가락골,송파구 가락동 145-10번지 ,송파구,없음
2795,아남아파트,송파구 오금동 67-7번지 ,송파구,없음
2796,호수경로당,송파구 송파동 34번지 ,송파구,없음
2797,호수,송파구 송파동 34번지 ,송파구,없음
2798,성지아파트,송파구 송파동 171번지 ,송파구,없음
2799,문정 건영아파트,송파구 장지동 72-3번지 ,송파구,없음
2800,현대2차아파트,송파구 거여동 45번지 ,송파구,없음
2801,극동아파트,송파구 가락동 192번지 ,송파구,없음
2802,프라자아파트,송파구 가락동 199번지 ,송파구,없음
2803,삼환아파트,송파구 가락동 176번지 ,송파구,없음
2804,현대아파트,송파구 문정동 3번지 ,송파구,없음
2805,신천,송파구 잠실동 209-4번지 ,송파구,없음
2806,우성아파트,송파구 잠실동 101-1번지 ,송파구,없음
2807,풍납제1,송파구 풍납동 493-17번지 ,송파구,없음
2808,오륜1단지,송파구 방이동 89번지 ,송파구,없음
2809,오금제2,송파구 오금동 61-6번지 ,송파구,없음
2810,삼전제1,송파구 삼전동 62-1번지 ,송파구,없음
2811,한라아파트,송파구 가락동 165번지 ,송파구,없음
2812,장미아파트,송파구 신천동 7번지 ,송파구,없음
2813,풍납현대아파트,송파구 풍납동 413-1번지 ,송파구,없음
2814,극동아파트,송파구 풍납동 491번지 ,송파구,없음
2815,현대아파트,송파구 풍납동 251-2번지 ,송파구,없음
2816,거여,송파구 거여동 555-3번지 ,송파구,없음
2817,거마경로당,송파구 거여동 208-45번지 ,송파구,없음
2818,충효정,송파구 거여동 산71번지 ,송파구,없음
2819,산성,송파구 마천동 271-1번지 ,송파구,없음
2820,방이,송파구 방이동 139번지 ,송파구,없음
2821,우창아파트,송파구 오금동 164번지 ,송파구,없음
2822,송파,송파구 송파동 111-41번지 ,송파구,없음
2823,돌마리,송파구 석촌동 258번지 ,송파구,없음
2824,삼전제2,송파구 삼전동 110-7번지 ,송파구,없음
2825,우성아파트,송파구 가락동 96-1번지 ,송파구,없음
2826,훼밀리제2경로당,송파구 문정동 150번지 ,송파구,없음
2827,거여제2,송파구 거여동 185-27번지 ,송파구,없음
2828,구립마천,송파구 마천동 200-35번지 ,송파구,없음
2829,몽촌,송파구 방이동 52번지 ,송파구,없음
2830,오륜당,송파구 거여동 181-235번지 ,송파구,없음
2831,문정골,송파구 문정동 30-3번지 ,송파구,없음
2832,송파제2,송파구 송파동 97-41번지 ,송파구,없음
2833,잠실1단지아파트,송파구 잠실동 19-5번지 ,송파구,없음
2834,잠실5동,송파구 잠실동 27-9번지 ,송파구,없음
2835,잠실3단지아파트,송파구 잠실동 35번지 ,송파구,없음
2836,잠실4단지아파트,송파구 잠실동 44번지 ,송파구,없음
2837,신마천,송파구 마천동 359-2번지 ,송파구,없음
2838,잠이,송파구 잠실동 22번지 ,송파구,없음
2839,진주아파트,송파구 신천동 20-4번지 ,송파구,없음
2840,미성아파트,송파구 신천동 17-6번지 ,송파구,없음
2841,아시아선수촌,송파구 잠실동 86번지 ,송파구,없음
2842,가락 시영1차아파트,송파구 가락동 479번지 ,송파구,없음
2843,문정 주공아파트,송파구 문정동 1번지 ,송파구,없음
2844,풍납제2,송파구 풍납동 83-5번지 ,송파구,없음
2845,한양1차아파트,송파구 송파동 119번지 ,송파구,없음
2846,반도아파트,송파구 송파동 167번지 ,송파구,없음
2847,우성아파트,송파구 풍납동 388-7번지 ,송파구,없음
2848,미성아파트,송파구 송파동 161번지 ,송파구,없음
2849,한양2차아파트,송파구 송파동 151번지 ,송파구,없음
2850,우성4차아파트,송파구 잠실동 320번지 ,송파구,없음
2851,구립마천1,송파구 마천동 324-1번지 ,송파구,없음
2852,마천제2,송파구 마천동 83-18번지 ,송파구,없음
2853,대림아파트,송파구 방이동 294번지 ,송파구,없음
2854,현대아파트,송파구 오금동 44번지 ,송파구,없음
2855,삼익아파트,송파구 송파동 166번지 ,송파구,없음
2856,역촌센트레빌경로당,은평구 역촌동 역촌센트레빌 104동 1층 ,은평구,없음
2857,구파발10단지 제2경로당,은평구 진관동 28번지 은평뉴타운구파발아파트 1009동 1층 ,은평구,없음
2858,은평뉴타운 제각말5단지 제1경로당,은평구 진관동 154번지 은평뉴타운제각말아파트 504동 ,은평구,없음
2859,북한산힐스테이트 7차아파트 경로회관,은평구 불광동 ,은평구,없음
2860,은평뉴타운 구파발9단지 제2경로당,은평구 진관동 25번지 은평뉴타운구파발아파트 921동 1층 ,은평구,없음
2861,은평뉴타운 우물골2단지 제2경로당,은평구 진관동 83번지 은평뉴타운우물골아파트 ,은평구,없음
2862,은평뉴타운 마고정 2단지아파트 경로당,은평구 진관동 105번지 은평뉴타운마고정아파트 335동 ,은평구,없음
2863,은평뉴타운 폭포동4단지 제1경로당,은평구 진관동 은평뉴타운 폭포동 407동 ,은평구,없음
2864,대광경로당,은평구 불광동 2호,은평구,없음
2865,은평뉴타운 우물골아파트 제4경로당,은평구 진관동 우물골아파트 241동 지층 ,은평구,없음
2866,은평뉴타운 우물골6단지아파트 경로당,은평구 진관동 81번지 은평뉴타운우물골아파트 255동 ,은평구,없음
2867,은평뉴타운 폭포동4단지 제4경로당,은평구 진관동 135번지 은평뉴타운폭포동아파트 428동 1층 ,은평구,없음
2868,기자촌11단지경로당,은평구 진관동 ,은평구,없음
2869,북한산래미안아파트1단지경로당,은평구 불광동 638번지 북한산래미안아파트 1단지 ,은평구,없음
2870,북한산래미안아파트2단지경로당,은평구 불광동 637번지 북한산래미안아파트 2단지 ,은평구,없음
2871,은평뉴타운 우물골8단지아파트 경로당,은평구 진관동 88번지 은평뉴타운우물골아파트 218동 ,은평구,없음
2872,북한산힐스테이트3차경로당,은평구 불광동 641번지 북한산현대힐스테이트3차아파트 ,은평구,없음
2873,은평뉴타운 제각말5단지 제4경로당,은평구 진관동 92번지 은평뉴타운제각말아파트 529동 ,은평구,없음
2874,마고정 11단지 경로당,은평구 진관동 106번지 은평뉴타운 마고정 아파트 308동 1층호,은평구,없음
2875,은평뉴타운 3단지 제2경로당,은평구 진관동 107번지 은평뉴타운 마고정 314동 ,은평구,없음
2876,구파발9단지경로당,은평구 진관동 구파발아파트 9단지 908동 ,은평구,없음
2877,구산그린빌아파트 경로당,은평구 구산동 226번지 상가동 2층 ,은평구,없음
2878,은평뉴타운 박석고개 13단지 경로당,은평구 진관동 박석고개13단지아파트 ,은평구,없음
2879,은진경로당,은평구 진관동 박석고개1단지아파트 130동 1층 ,은평구,없음
2880,박석고개 1단지 제1경로당,은평구 진관동 101번지 ,은평구,없음
2881,e편한세상아파트2단지경로당,은평구 갈현동 546번지 ,은평구,없음
2882,한라아파트경로당,서초구 우면동 67번지 ,서초구,없음
2883,코오롱아파트경로당,서초구 우면동 70번지 ,서초구,없음
2884,동양고속(아)경로당,서초구 우면동 59번지 ,서초구,없음
2885,대림(아)경로당,서초구 우면동 57번지 ,서초구,없음
2886,구립새원마을경로당,서초구 원지동 254-14번지 ,서초구,없음
2887,구립동산마을경로당,서초구 양재동 376-3번지 ,서초구,없음
2888,구립잔디마을경로당,서초구 양재동 205-4번지 ,서초구,없음
2889,구립홍씨마을경로당,서초구 내곡동 156-4번지 ,서초구,없음
2890,구립염곡할머니경로당,서초구 염곡동 180-2번지 ,서초구,없음
2891,구립염곡할아버지경로당,서초구 염곡동 180-2번지 ,서초구,없음
2892,잠원훼미리아파트경로당,서초구 잠원동 51번지 ,서초구,없음
2893,현대아파트경로당,서초구 잠원동 53번지 ,서초구,없음
2894,녹원아파트경로당,서초구 잠원동 60-7번지 ,서초구,없음
2895,서초구립 반포본동(AID아파트)경로당,서초구 반포동 1127번지 1 1동 206호,서초구,없음
2896,반포본동아파트경로당,서초구 반포동 1224번지 ,서초구,없음
2897,서초구립 반포복지관 경로당,서초구 반포동 724-12번지 ,서초구,없음
2898,구립반포1동경로당,서초구 반포동 715-17번지 201호 ,서초구,없음
2899,한양(아)경로당,서초구 반포동 32-5번지 ,서초구,없음
2900,서초구립반포2동경로당,서초구 반포동 4-2번지 ,서초구,없음
2901,서초구립반포3동경로당,서초구 잠원동 72-1번지 ,서초구,없음
2902,신반포4차아파트경로당,서초구 잠원동 70번지 ,서초구,없음
2903,신반포7차아파트경로당,서초구 잠원동 65-32번지 ,서초구,없음
2904,중앙하이츠(아)경로당,서초구 잠원동 71-17번지 ,서초구,없음
2905,반포한양아파트경로당,서초구 잠원동 66번지 ,서초구,없음
2906,서초구립반포4동경로당,서초구 반포동 535-12번지 ,서초구,없음
2907,한신서래(아)경로당,서초구 반포동 70-1번지 ,서초구,없음
2908,현대동궁(아)경로당,서초구 반포동 64-5번지 ,서초구,없음
2909,궁전아파트경로당,서초구 반포동 65-1번지 ,서초구,없음
2910,미도1차(아)경로당,서초구 반포동 60-4번지 ,서초구,없음
2911,미도2차아파트경로당,서초구 반포동 60-5번지 ,서초구,없음
2912,서초구립 기녕당,서초구 방배동 778-16번지 ,서초구,없음
2913,방배삼호아파트경로당,서초구 방배동 725번지 ,서초구,없음
2914,구립방배1동제1경로당,서초구 방배동 143번지 ,서초구,없음
2915,서초구립방배2동제1경로당,서초구 방배동 965-22번지 ,서초구,없음
2916,서초구립방배2동제2경로당,서초구 방배동 437-8번지 ,서초구,없음
2917,아남(아)경로당,서초구 서초동 1641-13번지 2 2동 808호,서초구,없음
2918,남태령경로당,서초구 방배동 2877-12번지 ,서초구,없음
2919,서초한일아파트경로당,서초구 서초동 1635-1번지 ,서초구,없음
2920,보광신동아경로당,용산구 보광동 448번지 ,용산구,없음
2921,리버힐삼성아파트제2 경로당,용산구 산천동 리버힐삼성아파트(임대) ,용산구,없음
2922,효창제2 경로당,용산구 이태원동 729번지 ,용산구,없음
2923,한강대우아파트경로당,용산구 이촌동 416번지 ,용산구,없음
2924,도원삼성래미안제1,용산구 도원동 23번지 ,용산구,없음
2925,양짓말,용산구 후암동 239-1번지 8통1반 ,용산구,없음
2926,원효제1 경로당,용산구 원효로1가 25번지 ,용산구,없음
2927,삼각지,용산구 용산동3가 1-6번지 ,용산구,없음
2928,이촌1동2 경로당,용산구 이촌동 301-147번지 ,용산구,없음
2929,일심,용산구 한남동 ,용산구,없음
2930,이촌제1 경로당,용산구 이촌동 301-179번지 ,용산구,없음
2931,동자동,용산구 동자동 24-11번지 ,용산구,없음
2932,서계제1,용산구 서계동 259-2번지 ,용산구,없음
2933,한강로2가,용산구 한강로3가 63-379번지 ,용산구,없음
2934,서계,용산구 서계동 230-13번지 ,용산구,없음
2935,청심경로당,용산구 원효로4가 136-1번지 ,용산구,없음
2936,신흥,용산구 용산동2가 5-1176번지 ,용산구,없음
2937,갈월동,용산구 갈월동 23-1번지 ,용산구,없음
2938,서초현대아파트경로당,서초구 서초동 1648-2번지 ,서초구,없음
2939,당산동반도유보라팰리스경로당,영등포구 당산동4가 당산동 반도유보라팰리스 ,영등포구,없음
2940,구립수정경로당,영등포구 신길동 ,영등포구,없음
2941,믿음의집경로당,은평구 대조동 ,은평구,없음
2942,마곡엠밸리15단지(아)경로당,강서구 마곡동 ,강서구,없음
2943,구파발10단지제1경로당,은평구 진관동 은평뉴타운구파발아파트 1012동 ,은평구,없음
2944,역삼한스빌(아)경로당,강남구 역삼동 ,강남구,없음
2945,아크로힐스논현(아)경로당,강남구 논현동 ,강남구,없음
2946,응암SH-VILLE경로당,은평구 응암동 응암SH-VILLE 201동 1층 ,은평구,없음
2947,서울숲더샵실버문화센터,성동구 행당동 ,성동구,없음
2948,서울숲더샵실버문화센터,성동구 행당동 ,성동구,없음
2949,밤섬경남아너스빌@경로당,마포구 신수동 밤섬경남아너스빌 ,마포구,없음
2950,백련산힐스테이트3차골든클럽 경로당,은평구 응암동 백련산힐스테이트 3차아파트 ,은평구,없음
2951,서초삼성래미안아파트경로당,서초구 서초동 1641-1번지 ,서초구,없음
2952,서초구립 서초2동경로당,서초구 서초동 1357-48번지 ,서초구,없음
2953,우성1차(아)경로당,서초구 서초동 1336번지 ,서초구,없음
2954,우성5차(아)경로당,서초구 서초동 1326-17번지 ,서초구,없음
2955,신동아(아) 경로당(서초2동),서초구 서초동 1333번지 ,서초구,없음
2956,서초구립예술의마을경로당,서초구 서초동 1455-4번지 ,서초구,없음
2957,구립서초3동경로당,서초구 서초동 1484-6번지 ,서초구,없음
2958,서초한빛삼성(아)경로당,서초구 서초동 1509-1번지 ,서초구,없음
2959,서초구립명달경로당,서초구 서초동 1313-17번지 ,서초구,없음
2960,서초구립장안경로당,서초구 서초동 1697-18번지 ,서초구,없음
2961,삼호아파트경로당,서초구 서초동 1301-3번지 ,서초구,없음
2962,삼풍(아)경로당,서초구 서초동 1685번지 ,서초구,없음
2963,유원(아)경로당,서초구 서초동 1687번지 ,서초구,없음
2964,삼익건설아파트경로당,서초구 서초동 1681번지 ,서초구,없음
2965,서초구립잠원동경로당,서초구 잠원동 7-9번지 ,서초구,없음
2966,강변아파트경로당,서초구 잠원동 53-15번지 ,서초구,없음
2967,8차아파트경로당,서초구 잠원동 60-3번지 ,서초구,없음
2968,신반포10차(아)경로당,서초구 잠원동 58-16번지 ,서초구,없음
2969,13차아파트경로당,서초구 잠원동 52-2번지 ,서초구,없음
2970,18차아파트경로당,서초구 잠원동 52번지 ,서초구,없음
2971,신반포16차(아)경로당,서초구 잠원동 55-10번지 ,서초구,없음
2972,한강(아)경로당,서초구 잠원동 49-8번지 ,서초구,없음
2973,잠원한신(아)경로당,서초구 잠원동 56-3번지 ,서초구,없음
2974,방배현대멤피스2차(아) 경로당,서초구 방배동 982-1번지 ,서초구,없음
2975,방배3차현대홈타운(아)경로당,서초구 방배동 2233번지 ,서초구,없음
2976,방배3차현대홈타운(아)경로당,서초구 방배동 2233번지 ,서초구,없음
2977,서초1차e편한세상 경로당,서초구 서초동 1487-63번지 ,서초구,없음
2978,롯데캐슬클래식(아) 경희회관 경로당,서초구 서초동 1312-3번지 ,서초구,없음
2979,삼호가든3차(아)경로당,서초구 반포동 32-8번지 ,서초구,없음
2980,롯데캐슬갤럭시1차(아)경로당,서초구 잠원동 50번지 ,서초구,없음
2981,롯데캐슬갤럭시1차(아)경로당,서초구 잠원동 50번지 ,서초구,없음
2982,서초구립 우면주공(아)경로당,서초구 우면동 63번지 ,서초구,없음
2983,서초트라팰리스(아) 경로당,서초구 서초동 1344-13번지 ,서초구,없음
2984,서초자이(아)경로당,서초구 서초동 1444-7번지 ,서초구,없음
2985,원지경로당,서초구 원지동 405번지 ,서초구,없음
2986,신반포5차(아)경로당,서초구 잠원동 64-8번지 ,서초구,없음
2987,신반포6차(아)경로당,서초구 잠원동 74-2번지 ,서초구,없음
2988,한신플러스타운경로당,서초구 서초동 1454-29번지 ,서초구,없음
2989,방배2차현대홈타운(아)경로당,서초구 방배동 2001번지 ,서초구,없음
2990,서초래미안(아) 경로당,서초구 서초동 1682번지 ,서초구,없음
2991,활터골,용산구 후암동 406-3번지 ,용산구,없음
2992,청파제1,용산구 청파동1가 3-59번지 ,용산구,없음
2993,서빙고(할아버지),용산구 서빙고동 195-10번지 ,용산구,없음
2994,동빙고,용산구 동빙고동 65-1번지 ,용산구,없음
2995,보광동제1,용산구 보광동 216-67번지 ,용산구,없음
2996,보광(사립),용산구 보광동 385번지 ,용산구,없음
2997,동빙고경로당,용산구 동빙고동 95번지 ,용산구,없음
2998,한일,용산구 한남동 684-5번지 ,용산구,없음
2999,신동아아파트,용산구 서빙고동 241-21번지 ,용산구,없음
3000,매봉경로당,용산구 한남동 ,용산구,없음
3001,원효로 경로당,용산구 원효로3가 ,용산구,없음
3002,효창제1,용산구 효창동 5-712번지 ,용산구,없음
3003,새말,용산구 후암동 400-39번지 ,용산구,없음
3004,신흥,용산구 용산동2가 1-219번지 ,용산구,없음
3005,용산2가,용산구 용산동2가 25번지 ,용산구,없음
3006,청파제2 경로당,용산구 청파동2가 ,용산구,없음
3007,한강로3가,용산구 한강로3가 40-1번지 ,용산구,없음
3008,서초네이처힐4단지 경로당,서초구 우면동 720번지 ,서초구,없음
3009,서초네이처힐7단지 경로당,서초구 우면동 ,서초구,없음
3010,서초네이처힐5단지 경로당,서초구 우면동 730번지 ,서초구,없음
3011,서초교대e편한세상(아) 경로당,서초구 서초동 ,서초구,없음
3012,신반포청구(아) 경로당,서초구 잠원동 ,서초구,없음
3013,엠브이(아)경로당,서초구 반포동 ,서초구,없음
3014,우성(아)경로당(방배2동),서초구 방배동 ,서초구,없음
3015,참누리에고리치 경로당,서초구 우면동 ,서초구,없음
3016,LH서초4단지(아)경로당,서초구 우면동 LH서초4단지아파트 ,서초구,없음
3017,LH서초5단지(아) 경로당,서초구 우면동 LH서초5단지아파트 ,서초구,없음
3018,양재리본타워1단지(아) 경로당,서초구 양재동 양재리본타워1단지아파트 ,서초구,없음
3019,서초힐스 경로당,서초구 우면동 536-3번지 서초LH스타힐스 경로당 ,서초구,없음
3020,신반포5차아파트 경로당,서초구 잠원동 64-8번지 ,서초구,없음
3021,서초구립염곡경로당,서초구 염곡동 180-2번지 ,서초구,없음
3022,삼호가든4차(아)경로당,서초구 반포동 30-20번지 ,서초구,없음
3023,반포리체 경로당,서초구 반포동 30-26번지 ,서초구,없음
3024,서초네이처힐3단지(아) 경로당,서초구 우면동 서초네이처힐3단지 경로당 ,서초구,없음
3025,서초네이처힐2단지(아) 경로당,서초구 우면동 서초네이처힐2단지(아)경로당 ,서초구,없음
3026,서초네이처힐6단지(아) 경로당,서초구 우면동 서초네이처힐6단지아파트 ,서초구,없음
3027,롯데캐슬아르떼 경로당,서초구 방배동 롯데캐슬아르떼 경로당 107동동 ,서초구,없음
3028,바우뫼 경로당,서초구 양재동 바우뫼 경로당 ,서초구,없음
3029,양재리본타워2단지(아) 경로당,서초구 양재동 양재리본타워2단지(아) 경로당 ,서초구,없음
3030,서초네이처힐1단지(아) 경로당,서초구 우면동 서초네이처힐1단지아파트 ,서초구,없음
3031,식유촌 경로당,서초구 우면동 652-7번지 컨테이너 ,서초구,없음
3032,서초포레스타7단지(아) 경로당,서초구 신원동 서초포레스타7단지 아파트 ,서초구,없음
3033,방배롯데캐슬로제경로당,서초구 방배동 849-30번지 ,서초구,없음
3034,서초한신플러스타운 경로당,서초구 서초동 1454-29번지 ,서초구,없음
3035,서초1차 e편한세상,서초구 서초동 1487-63번지 ,서초구,없음
3036,신반포10차아파트 경로당,서초구 잠원동 58-16번지 ,서초구,없음
3037,신반포13차(아)경로당,서초구 잠원동 52-2번지 ,서초구,없음
3038,신반포18차아파트 경로당,서초구 잠원동 52번지 ,서초구,없음
3039,신반포4차아파트 경로당,서초구 잠원동 70번지 ,서초구,없음
3040,한남리버탑경로당,용산구 한남동 802번지 ,용산구,없음
3041,한남시범아파트경로당,용산구 한남동 1-387번지 ,용산구,없음
3042,이촌아파트경로당,용산구 이촌동 412번지 ,용산구,없음
3043,이태원북부경로당,용산구 이태원동 245-15번지 ,용산구,없음
3044,보광제1경로당,용산구 보광동 9-26번지 ,용산구,없음
3045,조양경로당,용산구 이태원동 542번지 ,용산구,없음
3046,한남제2경로당,용산구 한남동 ,용산구,없음
3047,서빙고할아버지경로당,용산구 서빙고동 195-10번지 ,용산구,없음
3048,동빙고할아버지경로당,용산구 동빙고동 65번지 ,용산구,없음
3049,갈월경로당,용산구 갈월동 23-1번지 ,용산구,없음
3050,원효1동경로당,용산구 원효로1가 25번지 ,용산구,없음
3051,현대한강(아)경로당,용산구 이촌동 400번지 ,용산구,없음
3052,용문경로당,용산구 용문동 27-1번지 ,용산구,없음
3053,원효로2가 경로당,용산구 원효로2가 8-4번지 ,용산구,없음
3054,금호베스트빌(아)경로당,서초구 잠원동 58번지 ,서초구,없음
3055,월드메르디앙(아)경로당,서초구 잠원동 33-11번지 ,서초구,없음
3056,서초3동서초2차e편한세상경로당,서초구 서초동 1529번지 ,서초구,없음
3057,롯데캐슬갤럭시 2차 경로당,서초구 잠원동 50-1번지 ,서초구,없음
3058,래미안방배아트힐 경로당,서초구 방배동 1008-2번지 ,서초구,없음
3059,방배래미안(아)경로당,서초구 방배동 2626번지 ,서초구,없음
3060,방배래미안타워실버 경로당,서초구 방배동 485-3번지 ,서초구,없음
3061,서초구립서초1동 경로당,서초구 서초동 1436-6번지 ,서초구,없음
3062,삼호가든4차(아)경로당,서초구 반포동 30-2번지 ,서초구,없음
3063,무지개(아)경로당,서초구 서초동 1335번지 ,서초구,없음
3064,서초롯데프레지던트(아) 경로당,서초구 서초동 서초롯데캐슬프레지던트 ,서초구,없음
3065,방배브라운(아)경로당,서초구 방배동 ,서초구,없음
3066,LH서초3단지(아) 경로당,서초구 우면동 ,서초구,없음
3067,신반포5차아파트 경로당,서초구 잠원동 64-8번지 ,서초구,없음
3068,산반포8차아파트 경로당,서초구 잠원동 60-3번지 ,서초구,없음
3069,산반포5차아파트경로당,서초구 잠원동 64-8번지 ,서초구,없음
3070,신반포8차(아) 경로당,서초구 잠원동 60-3번지 ,서초구,없음
3071,신반포6차아파트경로당,서초구 잠원동 74-2번지 ,서초구,없음
3072,신반포18차(아)경로당,서초구 잠원동 52번지 ,서초구,없음
3073,신반포7차아파트경로당,서초구 잠원동 65-32번지 ,서초구,없음
3074,강변(아) 경로당,서초구 잠원동 53-15번지 ,서초구,없음
3075,래미안서초스위트(아) 경로당,서초구 서초동 1301-6번지 ,서초구,없음
3076,서초캐슬리버티(아)경로당,서초구 서초동 1620-20번지 ,서초구,없음
3077,래미안퍼스티지 시니어클럽 경로당,서초구 반포동 18-1번지 ,서초구,없음
3078,구립능안마을경로당,서초구 내곡동 166번지 ,서초구,없음
3079,안골마을경로당,서초구 내곡동 192-3번지 ,서초구,없음
3080,본마을경로당,서초구 신원동 446번지 ,서초구,없음
3081,청룡마을경로당,서초구 신원동 237-1번지 ,서초구,없음
3082,새쟁이마을경로당,서초구 신원동 22번지 외 2필지 ,서초구,없음
3083,신흥내곡경로당,서초구 내곡동 1-1125번지 ,서초구,없음
3084,현인내곡경로당,서초구 내곡동 374-36번지 ,서초구,없음
3085,탑성마을경로당,서초구 염곡동 209-2번지 ,서초구,없음
3086,헌인내곡경로당,서초구 내곡동 374-36번지 ,서초구,없음
3087,신반포11차아파트경로당,서초구 잠원동 58-24번지 ,서초구,없음
3088,반포자이(아)경로당,서초구 반포동 20-43번지 ,서초구,없음
3089,우성(아)경로당(방배동),서초구 방배동 2525번지 ,서초구,없음
3090,서초구립방배3동제1경로당,서초구 방배동 537-50번지 ,서초구,없음
3091,서초구립방배3동제2경로당,서초구 방배동 478-13번지 ,서초구,없음
3092,삼익아파트경로당,서초구 방배동 1018-1번지 ,서초구,없음
3093,신동아(아)경로당(방배3동),서초구 방배동 988-1번지 ,서초구,없음
3094,대우효령(아)경로당,서초구 방배동 1038번지 ,서초구,없음
3095,임광1.2차(아)경로당,서초구 방배동 1015번지 ,서초구,없음
3096,경남(아)경로당,서초구 방배동 1028-1번지 ,서초구,없음
3097,임광3차아파트경로당,서초구 방배동 1010-1번지 ,서초구,없음
3098,서초구립방배4동경로당,서초구 방배동 821-1번지 ,서초구,없음
3099,방배1차현대(아)경로당,서초구 방배동 1344번지 ,서초구,없음
3100,서초구립말죽거리경로당,서초구 양재동 7-32번지 ,서초구,없음
3101,서초구립암산마을경로당,서초구 우면동 55번지 ,서초구,없음
3102,서초구립송동마을경로당,서초구 우면동 476-6번지 ,서초구,없음
3103,서초구립우면동경로당,서초구 우면동 6-1번지 ,서초구,없음
3104,우면형촌경로당,서초구 우면동 210-4번지 ,서초구,없음
3105,우성아파트경로당,서초구 양재동 154-2번지 ,서초구,없음
3106,이태원1동,용산구 이태원동 116-11번지 ,용산구,없음
3107,이촌2동 할머니 경로당,용산구 이촌동 395번지 ,용산구,없음
3108,한마음,용산구 한강로2가 ,용산구,없음
3109,원일,용산구 원효로2가 8-4번지 ,용산구,없음
3110,보광동제2,용산구 보광동 75-21번지 ,용산구,없음
3111,현대한강아파트(사립),용산구 이촌동 400번지 ,용산구,없음
3112,보광종점,용산구 보광동 217-2932번지 ,용산구,없음
3113,조양,용산구 이태원동 392-4번지 ,용산구,없음
3114,한가람아파트(사립),용산구 이촌동 ,용산구,없음
3115,북한강아파트경로당,용산구 이촌동 208-3번지 ,용산구,없음
3116,용암경로당,용산구 용산동2가 5-66번지 ,용산구,없음
3117,송학당경로당,용산구 용문동 38-206번지 ,용산구,없음
3118,남영경로당,용산구 남영동 108-3번지 ,용산구,없음
3119,강촌아파트,용산구 이촌동 403번지 ,용산구,없음
3120,동아그린아파트경로당,용산구 이촌동 411번지 ,용산구,없음
3121,삼오경로당,용산구 한강로3가 45-7번지 ,용산구,없음
3122,이태원북부,용산구 이태원동 255-60번지 ,용산구,없음
3123,황중경로당,중구 황학동 2525번지 ,중구,없음
3124,중림경로당,중구 만리동1가 57-7번지 ,중구,없음
3125,만리경로당,중구 만리동2가 176-2번지 ,중구,없음
3126,삼성사이버빌리지경로당,중구 중림동 200번지 ,중구,없음
3127,충정 경로당,중구 중림동 202동 ,중구,없음
3128,SH황학롯데캐슬경로당,중구 황학동 롯데베네치아 106동 ,중구,없음
3129,소공경로당,중구 서소문동 ,중구,없음
3130,명동경로당,중구 남산동2가 18-15번지 ,중구,없음
3131,남대문5가경로당,중구 남대문로5가 548번지 ,중구,없음
3132,회현경로당,중구 회현동1가 147-19번지 ,중구,없음
3133,충무경로당,중구 인현동2가 142-2번지 ,중구,없음
3134,대경경로당,마포구 대흥동 ,마포구,없음
3135,남산SK리더스뷰 경로당,중구 회현동1가 206번지 남산SK리더스뷰 3층 ,중구,없음
3136,청구e편안세상경로당,중구 신당동 109동 ,중구,없음
3137,사랑 경로당,중구 신당동 201동 ,중구,없음
3138,하이베르경로당,중구 신당동 111동 ,중구,없음
3139,동화경로당,중구 신당동 청구 e편한세상 115동 ,중구,없음
3140,남산아이리스경로당,중구 회현동1가 남산롯데캐슬아이리스아파트 ,중구,없음
3141,롯데캐슬 베네치아 경로당,중구 황학동 롯데캐슬베네치아 103동 ,중구,없음
3142,신당5동경로당,중구 신당동 132-10번지 ,중구,없음
3143,유락경로당,중구 신당동 155-10번지 ,중구,없음
3144,유락할머니경로당,중구 신당동 80-70번지 ,중구,없음
3145,신당5할머니경로당,중구 신당동 163-10번지 ,중구,없음
3146,한진그랑빌경로당,중구 신당동 845번지 ,중구,없음
3147,한진그랑빌행복경로당,중구 신당동 845번지 ,중구,없음
3148,동화동경로당,중구 신당동 50-12번지 ,중구,없음
3149,동화동현대아파트경로당,중구 신당동 동화동 현대아파트 경로당 ,중구,없음
3150,파라다이스경로당,중구 신당동 282-10번지 ,중구,없음
3151,황학경로당,중구 황학동 1644번지 ,중구,없음
3152,소정회경로당,서초구 방배동 ,서초구,없음
3153,서초더샵포레시니어하우스경로당,서초구 내곡동 서초더샵포레시니어하우스 경로당 ,서초구,없음
3154,잠원동아아파트경로당,서초구 잠원동 잠원동아아파트 경로당 ,서초구,없음
3155,서초포레스타5단지(아)경로당,서초구 신원동 서초포레스타5단지아파트경로당 ,서초구,없음
3156,신동아아파트경로당,은평구 응암동 197-78번지 ,은평구,없음
3157,구룡경로당,은평구 수색동 289-37번지 ,은평구,없음
3158,대주아파트경로당,은평구 응암동 669-1번지 ,은평구,없음
3159,갈현현대아파트제일경로당,은평구 구산동 갈현현대아파트 ,은평구,없음
3160,금호아파트경로당,은평구 응암동 739번지 ,은평구,없음
3161,녹산경로당,은평구 녹번동 산 1-41번지 ,은평구,없음
3162,역촌경로당,은평구 역촌동 67-9번지 ,은평구,없음
3163,신사미성아파트경로당,은평구 신사동 140-2번지 ,은평구,없음
3164,응암2동경로당,은평구 응암동 668번지 ,은평구,없음
3165,신사2동경로당,은평구 신사동 200-27번지 ,은평구,없음
3166,기자촌경로당,은평구 진관외동 175-407번지 ,은평구,없음
3167,코오롱하늘채아파트 경로당,은평구 갈현동 545번지 ,은평구,없음
3168,미성아파트경로당,은평구 불광동 248번지 ,은평구,없음
3169,우성아파트경로당,은평구 응암동 694-1번지 ,은평구,없음
3170,신성아파트경로당,은평구 신사동 155-1번지 ,은평구,없음
3171,한양주택경로당,은평구 진관내동 440-162번지 ,은평구,없음
3172,녹번경로당,은평구 녹번동 21-16번지 ,은평구,없음
3173,구산경로당,은평구 구산동 ,은평구,없음
3174,신흥경로당,은평구 신사동 31-2번지 ,은평구,없음
3175,대호아파트경로당,은평구 불광동 629번지 ,은평구,없음
3176,역마을경로당,은평구 역촌동 30-26번지 ,은평구,없음
3177,물푸레골경로당,은평구 구파발동 78-13번지 ,은평구,없음
3178,라이프아파트경로당,은평구 신사동 354번지 ,은평구,없음
3179,박석어버이경로당,은평구 불광동 479-116번지 ,은평구,없음
3180,대림아파트경로당,은평구 녹번동 276번지 ,은평구,없음
3181,신사1차현대아파트경로당,은평구 신사동 359번지 ,은평구,없음
3182,뉴신성아파트경로당,은평구 신사동 356번지 ,은평구,없음
3183,북한산여기소경로당,은평구 진관동 ,은평구,없음
3184,진관경로당,은평구 진관내동 390-3번지 ,은평구,없음
3185,잿말경로당,은평구 진관외동 51번지 ,은평구,없음
3186,수색경로당,은평구 수색동 146-12번지 ,은평구,없음
3187,수색중앙경로당,은평구 수색동 205-902번지 ,은평구,없음
3188,대호프라자아파트경로당,은평구 불광동 631-1번지 ,은평구,없음
3189,갈현어버이회관경로당,은평구 갈현동 415-2번지 ,은평구,없음
3190,산장경로당,은평구 수색동 ,은평구,없음
3191,증산경로당,은평구 증산동 202-17번지 ,은평구,없음
3192,수색할머니경로당,은평구 수색동 173-4번지 ,은평구,없음
3193,응암2동 경로당,은평구 응암동 240-105번지 ,은평구,없음
3194,녹신경로당,은평구 응암동 37-106번지 ,은평구,없음
3195,효경골경로당,은평구 갈현동 267-101번지 ,은평구,없음
3196,은평아파트경로당,은평구 역촌동 220번지 ,은평구,없음
3197,장수경로당,은평구 신사동 183-10번지 ,은평구,없음
3198,녹수경로당,은평구 녹번동 4-314번지 ,은평구,없음
3199,대광경로당,은평구 불광동 280-296번지 ,은평구,없음
3200,새장골경로당,은평구 불광동 98-7번지 ,은평구,없음
3201,갈현2동경로당,은평구 갈현동 474-1번지 ,은평구,없음
3202,대조경로당,은평구 대조동 212번지 ,은평구,없음
3203,증산할머니경로당,은평구 증산동 189-68번지 ,은평구,없음
3204,상동경로당,은평구 수색동 8-15번지 ,은평구,없음
3212,장안현대홈타운아파트경로당,동대문구 장안동 336번지 ,동대문구,없음
3276,묵정경로당,중구 충무로5가 21번지 ,중구,없음
3313,증산중앙하이츠아파트 경로당,은평구 증산동 248번지 ,은평구,없음
3314,양천리경로당,은평구 녹번동 132-19번지 ,은평구,없음
3315,북한산수자인아파트경로당,은평구 불광동 636번지 ,은평구,없음
3316,두산위브아파트경로당,은평구 증산동 255번지 ,은평구,없음
3317,은평신사두산위브아파트경로당,은평구 신사동 370번지 ,은평구,없음
3318,응암푸르지오아파트경로당,은평구 응암동 178번지 ,은평구,없음
3319,신사이랜드타운아파트경로당,은평구 신사동 367번지 ,은평구,없음
3320,불광2동경로당,은평구 불광동 191-7번지 ,은평구,없음
3321,대림한숲타운아파트 경로당,은평구 수색동 1번지 ,은평구,없음
3322,수색진흥아파트 경로당,은평구 수색동 416-1번지 ,은평구,없음
3323,갈현동 건영아파트경로당,은평구 갈현동 541-1번지 ,은평구,없음
3324,우남아파트 경로당,은평구 갈현동 540번지 ,은평구,없음
3325,한신빌라 경로당,은평구 증산동 산 12-22번지 ,은평구,없음
3326,JR경로당,은평구 녹번동 280-1번지 ,은평구,없음
3327,북한산대창센시티아파트경로당,은평구 불광동 71-16번지 ,은평구,없음
3328,신사동한신아파트경로당,은평구 신사동 365번지 ,은평구,없음
3329,우정경로당,은평구 수색동 363-16번지 ,은평구,없음
3330,해주드림빌아파트경로당,은평구 녹번동 279-1번지 ,은평구,없음
3331,신사성원아파트 경로당,은평구 신사동 360번지 ,은평구,없음
3332,북한산 현대홈타운아파트 경로당,은평구 불광동 ,은평구,없음
3333,e-편한세상아파트 경로당,은평구 구산동 ,은평구,없음
3334,경남아파트경로당,은평구 구산동 224번지 ,은평구,없음
3335,갈현미미아파트,은평구 갈현동 538번지 ,은평구,없음
3336,일심경로당,은평구 녹번동 91-6번지 ,은평구,없음
3337,응암제일경로당,은평구 응암동 159-5번지 ,은평구,없음
3338,매바위경로당,은평구 응암동 220-13번지 ,은평구,없음
3339,송암경로당,은평구 불광동 245-62번지 ,은평구,없음
3340,신사시티아파트경로당,은평구 신사동 297번지 ,은평구,없음
3341,우방아파트경로당,은평구 증산동 244번지 ,은평구,없음
3342,청구아파트경로당,은평구 수색동 413번지 수색청구아파트 ,은평구,없음
3343,월드빌아파트노인정,은평구 증산동 250번지 101 101동 1504호,은평구,없음
3344,남해그린힐아파트경로당,은평구 불광동 632번지 1 1동 807호,은평구,없음
3345,덕인경로당,은평구 응암동 126-46번지 ,은평구,없음
3346,메트로타워아파트경로당,은평구 불광동 311-13번지 ,은평구,없음
3347,녹색경로당,은평구 녹번동 160-9번지 ,은평구,없음
3348,한숲경로당,은평구 수색동 415번지 113 113동 903호,은평구,없음
3349,녹번2차현대아파트경로당,은평구 녹번동 녹번2차 현대아파트 ,은평구,없음
3350,녹번현대아파트경로당,은평구 녹번동 100-55번지 ,은평구,없음
3351,신사2차현대아파트경로당,은평구 신사동 355번지 ,은평구,없음
3352,대추말경로당,은평구 대조동 84-81번지 ,은평구,없음
3353,충암경로당,은평구 응암동 746-15번지 ,은평구,없음
3354,동익파크아파트경로당,은평구 갈현동 355-95번지 ,은평구,없음
3355,홍익아파트경로당,은평구 신사동 19-117번지 ,은평구,없음
3356,구산거북경로당,은평구 구산동 구산보건지소 ,은평구,없음
3357,갈현현대아파트경로당,은평구 갈현동 537번지 ,은평구,없음
3358,갈현한솔아파트경로당,은평구 갈현동 539번지 ,은평구,없음
3359,신성수정아파트경로당,은평구 신사동 358번지 ,은평구,없음
3360,신사1동경로당,은평구 신사동 270-45번지 ,은평구,없음
3361,삼성타운아파트경로당,은평구 대조동 231번지 ,은평구,없음
3362,우성2차아파트경로당,도봉구 방학동 508번지 ,도봉구,없음
3363,한신아파트경로당,도봉구 도봉동 30-1번지 ,도봉구,없음
3364,창일경로당,도봉구 창동 664-18번지 ,도봉구,없음
3365,쌍삼경로당,도봉구 쌍문동 325-4번지 ,도봉구,없음
3366,방학1동경로당,도봉구 방학동 687-3번지 ,도봉구,없음
3367,신동아4차아파트경로당,도봉구 방학동 732번지 ,도봉구,없음
3368,청구아파트경로당,도봉구 방학동 734번지 ,도봉구,없음
3369,약수경로당,도봉구 도봉동 454-14번지 ,도봉구,없음
3370,초헌약수경로당,도봉구 창동 451-14번지 ,도봉구,없음
3371,현대3차아파트경로당,도봉구 쌍문동 719번지 ,도봉구,없음
3372,극동아파트경로당,도봉구 쌍문동 721번지 ,도봉구,없음
3373,미라보아파트경로당,도봉구 쌍문동 160번지 ,도봉구,없음
3374,"한화,성원아파트경로당",도봉구 방학동 731번지 ,도봉구,없음
3375,무수경로당,도봉구 도봉동 589-6번지 ,도봉구,없음
3376,청구아파트경로당,도봉구 쌍문동 195번지 ,도봉구,없음
3377,한양6차아파트경로당,도봉구 쌍문동 59-5번지 ,도봉구,없음
3378,거성학마을아파트경로당,도봉구 방학동 701-15번지 ,도봉구,없음
3379,성원아파트경로당,도봉구 방학동 735번지 ,도봉구,없음
3380,청학경로당,도봉구 방학동 644-19번지 ,도봉구,없음
3381,대우아파트경로당,도봉구 창동 804번지 ,도봉구,없음
3382,백운경로당,도봉구 쌍문동 81-370번지 ,도봉구,없음
3383,노송(18단지아파트)경로당,도봉구 창동 30번지 ,도봉구,없음
3384,동아아파트경로당,도봉구 창동 26번지 ,도봉구,없음
3385,상아2차아파트경로당,도봉구 창동 300번지 ,도봉구,없음
3386,"한양2,3,4차아파트경로당",도봉구 쌍문동 59번지 ,도봉구,없음
3387,금호1차아파트경로당,도봉구 쌍문동 199-1번지 ,도봉구,없음
3388,현대1차아파트경로당,도봉구 쌍문동 54번지 ,도봉구,없음
3389,한양아파트경로당,도봉구 쌍문동 388-33번지 ,도봉구,없음
3390,초안경로당,도봉구 창동 632-66번지 ,도봉구,없음
3391,상동(19단지아파트)경로당,도봉구 창동 27번지 ,도봉구,없음
3392,쌍문1동경로당,도봉구 쌍문동 448-3번지 ,도봉구,없음
3393,쌍문1동 경로당,도봉구 쌍문동 448-3번지 ,도봉구,없음
3394,성원아파트경로당,도봉구 쌍문동 53번지 ,도봉구,없음
3395,유원아파트경로당,도봉구 도봉동 83-2번지 ,도봉구,없음
3396,녹천(17단지아파트)경로당,도봉구 창동 38번지 ,도봉구,없음
3397,주공1단지아파트경로당,도봉구 창동 305번지 ,도봉구,없음
3398,한양5차아파트경로당,도봉구 쌍문동 59-3번지 ,도봉구,없음
3399,벽산아파트경로당,도봉구 방학동 275번지 ,도봉구,없음
3400,주공3단지아파트경로당,도봉구 창동 347번지 ,도봉구,없음
3401,주공2단지아파트경로당,도봉구 창동 316번지 ,도봉구,없음
3402,금호2차아파트경로당,도봉구 쌍문동 산 68번지 ,도봉구,없음
3403,한양7차아파트경로당,도봉구 쌍문동 59-5번지 ,도봉구,없음
3404,우성아파트경로당,도봉구 방학동 507번지 ,도봉구,없음
3405,럭키아파트경로당,도봉구 도봉동 595번지 ,도봉구,없음
3406,극동아파트경로당,도봉구 도봉동 81-1번지 ,도봉구,없음
3407,주공4단지아파트경로당,도봉구 창동 380번지 ,도봉구,없음
3408,삼성아파트경로당,도봉구 창동 45번지 ,도봉구,없음
3409,도봉경로당,도봉구 도봉동 624-112번지 ,도봉구,없음
3410,쌍문경로당,도봉구 쌍문동 23번지 ,도봉구,없음
3411,유만경로당,도봉구 창동 286-10번지 ,도봉구,없음
3412,쌍신경로당,도봉구 쌍문동 460-19번지 ,도봉구,없음
3413,서원경로당,도봉구 도봉동 567-5번지 ,도봉구,없음
3414,계성경로당,도봉구 쌍문동 355번지 ,도봉구,없음
3415,영풍마드레빌아파트경로당,중랑구 신내동 801번지 ,중랑구,없음
3416,망우경로당,중랑구 망우동 184-27번지 ,중랑구,없음
3417,망우1동본동경로당,중랑구 망우동 342-51번지 ,중랑구,없음
3418,신내LG쌍용아파트 경로당,중랑구 상봉동 484번지 ,중랑구,없음
3419,신내4단지아파트 경로당,중랑구 묵동 13번지 ,중랑구,없음
3420,한국아파트경로당,중랑구 묵동 378번지 ,중랑구,없음
3421,신내9단지봉화경로당,중랑구 신내동 657번지 ,중랑구,없음
3422,삼익아파트 경로당,중랑구 면목동 1516번지 ,중랑구,없음
3423,신내9단지아파트 경로당,중랑구 신내동 657번지 ,중랑구,없음
3424,신우아파트경로당,중랑구 면목동 1518번지 ,중랑구,없음
3425,안산경로당,중랑구 망우동 461-32번지 ,중랑구,없음
3426,동부아파트경로당,중랑구 상봉동 495호,중랑구,없음
3427,샘터경로당,중랑구 면목동 389-15번지 ,중랑구,없음
3428,안수경로당,중랑구 면목동 543-56번지 ,중랑구,없음
3429,세방아파트 경로당,중랑구 묵동 383번지 ,중랑구,없음
3430,신원금호아파트 경로당,중랑구 망우동 573번지 ,중랑구,없음
3431,묵2동극동늘푸른아파트경로당,중랑구 묵동 ,중랑구,없음
3432,햇님경로당,중랑구 망우동 474-11번지 ,중랑구,없음
3433,신내구립경로당,중랑구 신내동 494-26번지 ,중랑구,없음
3434,신내7차동성아파트경로당,중랑구 신내동 797번지 ,중랑구,없음
3435,늘푸른동아아파트경로당,중랑구 면목동 715번지 ,중랑구,없음
3436,신내건영1차아파트경로당,중랑구 상봉동 1번지 ,중랑구,없음
3437,석탑아파트경로당,중랑구 신내동 787번지 ,중랑구,없음
3438,신내6단지아파트경로당,중랑구 신내동 650번지 ,중랑구,없음
3439,면목성원아파트경로당,중랑구 면목동 1515번지 ,중랑구,없음
3440,면목7동 구립경로당,중랑구 면목동 351번지 ,중랑구,없음
3441,신내11단지아파트 경로당,중랑구 신내동 661번지 ,중랑구,없음
3442,용마경로당,중랑구 면목동 619-7번지 ,중랑구,없음
3443,봉화경로당,중랑구 중화동 309-36번지 ,중랑구,없음
3444,경성경로당,중랑구 면목동 511-2번지 ,중랑구,없음
3445,용마산경로당,중랑구 면목동 469-9번지 ,중랑구,없음
3446,묵2동 한양경로당,중랑구 묵동 237-50번지 ,중랑구,없음
3447,용마공원경로당,중랑구 망우동 69-1번지 ,중랑구,없음
3448,용마금호타운아파트 경로당,중랑구 면목동 494번지 ,중랑구,없음
3449,성원아파트경로당,중랑구 신내동 783번지 ,중랑구,없음
3450,면목두산1차아파트경로당,중랑구 면목동 1500번지 ,중랑구,없음
3451,신현경로당,중랑구 신내동 107-3번지 ,중랑구,없음
3452,동성아파트경로당,중랑구 신내동 397번지 ,중랑구,없음
3453,두산아파트 경로당,중랑구 면목동 1510번지 ,중랑구,없음
3454,제2차두산아파트 경로당,중랑구 면목동 1511번지 ,중랑구,없음
3455,신내대림두산아파트 경로당,중랑구 묵동 20번지 ,중랑구,없음
3456,동성3차아파트 경로당,중랑구 신내동 620번지 ,중랑구,없음
3457,두산화성8단지아파트 경로당,중랑구 신내동 656번지 ,중랑구,없음
3458,원당경로당,도봉구 방학동 564번지 ,도봉구,없음
3459,안골경로당,도봉구 도봉동 349번지 ,도봉구,없음
3460,도봉2동경로당,도봉구 도봉동 622-76번지 ,도봉구,없음
3461,창3동경로당,도봉구 창동 521-17번지 ,도봉구,없음
3462,도봉산경로당,도봉구 도봉동 286-1번지 ,도봉구,없음
3463,방학경로당,도봉구 방학동 393-5번지 ,도봉구,없음
3464,창5동경로당,도봉구 창동 254-17번지 ,도봉구,없음
3465,동익아파트경로당,도봉구 쌍문동 285-5번지 ,도봉구,없음
3466,삼익아파트경로당,도봉구 쌍문동 56번지 ,도봉구,없음
3467,신동아1차아파트경로당,도봉구 방학동 272번지 ,도봉구,없음
3468,신우경로당,도봉구 방학동 317-10번지 ,도봉구,없음
3469,상아1차아파트경로당,도봉구 창동 299번지 ,도봉구,없음
3470,쌍문3동경로당,도봉구 쌍문동 138-40번지 ,도봉구,없음
3471,대웅아파트경로당,도봉구 쌍문동 13-2번지 ,도봉구,없음
3472,경남아파트경로당,도봉구 쌍문동 73번지 ,도봉구,없음
3473,쌍문3동경로당,도봉구 쌍문동 138-40번지 ,도봉구,없음
3474,삼익세라믹아파트경로당,도봉구 방학동 274번지 ,도봉구,없음
3475,가든아파트경로당,도봉구 도봉동 555번지 ,도봉구,없음
3476,삼환아파트경로당,도봉구 도봉동 87번지 ,도봉구,없음
3477,경남아파트,동작구 신대방동 712번지 ,동작구,없음
3478,삼성래미안1차아파트경로당,동작구 상도동 450번지 ,동작구,없음
3479,경향렉스빌아파트경로당,동작구 상도동 445번지 ,동작구,없음
3480,동작삼성래미안,동작구 사당동 1133번지 ,동작구,없음
3481,삼익아파트 경로당,동작구 노량진동 330번지 ,동작구,없음
3482,삼익그린뷰아파트경로당,동작구 사당동 1150번지 ,동작구,없음
3483,대방1차e-편한세상경로당,동작구 대방동 508번지 ,동작구,없음
3484,중앙하이츠아파트경로당,동작구 상도1동 ,동작구,없음
3485,래미안상도2차아파트경로당,동작구 상도동 421번지 ,동작구,없음
3486,보라매롯데낙천대경로당,동작구 신대방동 713번지 ,동작구,없음
3487,상도래미안1차아파트108경로당,동작구 상도동 447번지 108 108동 ,동작구,없음
3488,쌍용스윗닷홈아파트경로당,동작구 상도동 ,동작구,없음
3489,현진에버빌아파트경로당,동작구 신대방동 716번지 ,동작구,없음
3490,대방2차e편한세상아파트경로당,동작구 대방동 507번지 ,동작구,없음
3491,우리유앤미아파트경로당,동작구 흑석동 329번지 ,동작구,없음
3492,아이파크상도동경로당,동작구 상도동 416번지 ,동작구,없음
3493,대방2차현대아파트경로당,동작구 대방동 506번지 ,동작구,없음
3494,신대방 우성2차A,동작구 신대방동 565-21번지 ,동작구,없음
3495,한강쌍용@경로당,동작구 본동 150번지 ,동작구,없음
3496,신동아리버파크아파트 경로당,동작구 노량진동 325번지 ,동작구,없음
3497,사당5동,동작구 사당동 214-5번지 ,동작구,없음
3498,제일A,동작구 사당동 240-15번지 ,동작구,없음
3499,사당자이아파트,동작구 사당동 1139번지 ,동작구,없음
3500,대방중앙경로당,동작구 대방동 407-48번지 ,동작구,없음
3501,북대방 경로당,동작구 대방동 344-27번지 ,동작구,없음
3502,대방주공1단지,동작구 대방동 503번지 ,동작구,없음
3503,대방주공2단지아파트경로당,동작구 대방동 503번지 ,동작구,없음
3504,대림아파트 경로당(대방동),동작구 대방동 대림아파트 ,동작구,없음
3505,대방성원아파트경로당,동작구 대방동 성원아파트 ,동작구,없음
3506,대방현대1차아파트,동작구 대방동 대방동현대아파트 ,동작구,없음
3507,우정아파트 경로당,동작구 대방동 505번지 ,동작구,없음
3508,대방,동작구 대방동 ,동작구,없음
3509,신대방1동경로당,동작구 신대방동 693-10번지 ,동작구,없음
3510,우성1차아파트경로당,동작구 신대방동 565번지 ,동작구,없음
3511,현대A(신대방1),동작구 신대방동 현대아파트 ,동작구,없음
3512,신대방2동,동작구 대방동 407-8번지 ,동작구,없음
3513,한성아파트,동작구 신대방동 ,동작구,없음
3514,대방동경남아너스빌아파트경로당,동작구 대방동 대방동경남아너스빌 ,동작구,없음
3515,SH-Ville아파트경로당,동작구 상도동 430번지 ,동작구,없음
3516,본동SH Ville아파트경로당,동작구 본동 490번지 ,동작구,없음
3517,상도2차갑을명가아파트경로당,동작구 상도동 459번지 ,동작구,없음
3518,상도1차갑을명가아파트경로당,동작구 상도동 458번지 ,동작구,없음
3519,동작상떼빌아파트,동작구 신대방동 719번지 102 102동 ,동작구,없음
3520,삼환나우빌아파트경로당,동작구 상도동 520번지 ,동작구,없음
3521,상도한마음경로당,동작구 본동 산 11-1번지 ,동작구,없음
3522,르메이에르타운 경로당,동작구 사당동 1141번지 ,동작구,없음
3523,신남성,동작구 사당동 297-17번지 ,동작구,없음
3524,보라매파크빌,동작구 신대방동 711번지 ,동작구,없음
3525,유원A,동작구 본동 ,동작구,없음
3526,신동아A,동작구 본동 481번지 ,동작구,없음
3527,흑석경로당,동작구 흑석동 ,동작구,없음
3528,달마,동작구 흑석동 256-1번지 ,동작구,없음
3529,비개경로당,동작구 흑석동 295-2번지 ,동작구,없음
3530,한강현대A,동작구 흑석동 한강현대아파트 ,동작구,없음
3531,명수대현대A,동작구 흑석동 ,동작구,없음
3532,배나무골,동작구 사당동 77-24번지 ,동작구,없음
3533,정금,동작구 사당동 58-107번지 ,동작구,없음
3534,신동아4단지A,동작구 사당동 극동아파트 ,동작구,없음
3535,동작,동작구 동작동 ,동작구,없음
3536,신동아5단지A,동작구 사당동 1137번지 ,동작구,없음
3537,송학,동작구 사당동 1027-23번지 ,동작구,없음
3538,사당1동,동작구 사당동 316-40번지 ,동작구,없음
3539,우성2단지아파트 경로당,동작구 사당동 극동아파트 ,동작구,없음
3540,우성A3단지,동작구 사당동 극동아파트 ,동작구,없음
3541,극동아파트 경로당,동작구 사당동 극동아파트 ,동작구,없음
3542,삼화,동작구 사당동 ,동작구,없음
3543,삼익,동작구 사당동 1132번지 ,동작구,없음
3544,삼일공원,동작구 사당동 ,동작구,없음
3545,대림A,동작구 사당동 ,동작구,없음
3546,현대A,동작구 사당동 169-32번지 ,동작구,없음
3547,경남아너스빌(대아A),동작구 사당동 ,동작구,없음
3548,사당두산위브트레지움,동작구 사당동 두산위브 트레지움 ,동작구,없음
3549,사당4동,동작구 사당동 278-34번지 ,동작구,없음
3550,상신A,동작구 사당동 304-13번지 ,동작구,없음
3551,대한경로당,동작구 노량진동 84-33번지 ,동작구,없음
3552,남성,동작구 노량진동 122-36번지 ,동작구,없음
3553,우성아파트 경로당,동작구 노량진동 323번지 ,동작구,없음
3554,백로,동작구 노량진동 314-6번지 ,동작구,없음
3555,백송 경로당,동작구 노량진동 273-19번지 ,동작구,없음
3556,상도1동 경로당,동작구 상도동 ,동작구,없음
3557,터널,동작구 상도1동 535번지 ,동작구,없음
3558,상도2동 경로당,동작구 상도동 159-330번지 ,동작구,없음
3559,장수,동작구 상도동 200-52번지 ,동작구,없음
3560,낙원,동작구 상도동 28-24번지 ,동작구,없음
3561,건영A,동작구 상도동 414번지 ,동작구,없음
3562,상도3동,동작구 상도동 ,동작구,없음
3563,성대,동작구 상도동 336-5번지 ,동작구,없음
3564,약수,동작구 상도동 211-438번지 ,동작구,없음
3565,성대골,동작구 상도동 261-16번지 ,동작구,없음
3566,송학,동작구 상도동 210-249번지 ,동작구,없음
3567,청송,동작구 상도동 ,동작구,없음
3568,고경 경로당,동작구 상도동 ,동작구,없음
3569,대림아파트 경로당,동작구 상도동 411번지 ,동작구,없음
3570,현대아파트 경로당,동작구 상도1동 ,동작구,없음
3571,삼호A,동작구 상도동 408번지 ,동작구,없음
3572,충신 경로당,동작구 노량진동 186-1번지 ,동작구,없음
3573,면목마젤란아파트경로당,중랑구 면목동 1531번지 ,중랑구,없음
3574,태릉시장 경로당,중랑구 중화동 314-1번지 306호,중랑구,없음
3575,한일써너스빌리젠시경로당,중랑구 망우동 479번지 ,중랑구,없음
3576,용마동아아파트경로당,중랑구 면목동 1499번지 ,중랑구,없음
3577,다우훼밀리아파트경로당,중랑구 신내동 796번지 101 101동 407호,중랑구,없음
3578,해모르아파트경로당,중랑구 망우동 578번지 ,중랑구,없음
3579,중화1동 통합경로당,중랑구 중화동 37-4번지 ,중랑구,없음
3580,피울경로당,중랑구 신내동 417-2번지 ,중랑구,없음
3581,상봉 건영캐스빌아파트 경로당,중랑구 상봉동 499번지 ,중랑구,없음
3582,대성유니드아파트 경로당,중랑구 신내동 803번지 ,중랑구,없음
3583,아남리치카운티아파트 경로당,중랑구 면목동 1505번지 ,중랑구,없음
3584,섬들경로당,중랑구 면목동 100-65번지 ,중랑구,없음
3585,금호어울림아파트 경로당,중랑구 망우동 580번지 ,중랑구,없음
3586,신내우남푸르미아아파트 경로당,중랑구 신내동 802번지 ,중랑구,없음
3587,묵1동구립경로당,중랑구 묵동 121-310번지 ,중랑구,없음
3588,중화2동 학구경로당,중랑구 중화동 316-70번지 ,중랑구,없음
3589,경남아너스빌아파트경로당,중랑구 면목동 1529번지 ,중랑구,없음
3590,용마산금호어울림아파트경로당,중랑구 면목동 1525번지 ,중랑구,없음
3591,경남아파트,중랑구 망우동 ,중랑구,없음
3592,신내경남아너스빌아파트경로당,중랑구 신내동 804번지 ,중랑구,없음
3593,봉황경로당,중랑구 상봉동 103-3번지 ,중랑구,없음
3594,우림경로당,중랑구 망우동 492-6번지 ,중랑구,없음
3595,백학경로당,중랑구 중화동 323-14번지 ,중랑구,없음
3596,새한아파트경로당,중랑구 신내동 795번지 ,중랑구,없음
3597,중화극동아파트경로당,중랑구 중화동 19번지 ,중랑구,없음
3598,면목본동경로당,중랑구 면목동 109-55번지 ,중랑구,없음
3599,본동경로당,중랑구 중화동 28-10번지 ,중랑구,없음
3600,용마한신아파트경로당,중랑구 면목동 1077-1번지 ,중랑구,없음
3601,중앙하이츠경로당,중랑구 신내동 479번지 ,중랑구,없음
3602,양원경로당,중랑구 망우동 291-3번지 ,중랑구,없음
3603,(사)대한노인회중랑구지회,중랑구 중화동 321-37번지 ,중랑구,없음
3604,신내동성4차아파트경로당,중랑구 신내동 591번지 ,중랑구,없음
3605,신성은하수아파트경로당,중랑구 면목동 1519번지 ,중랑구,없음
3606,새우개경로당,중랑구 신내동 278-11번지 ,중랑구,없음
3607,상봉2동구립경로당,중랑구 상봉동 122-31번지 ,중랑구,없음
3608,동구햇살아파트경로당,중랑구 묵동 388번지 ,중랑구,없음
3609,벽산아파트경로당,중랑구 신내동 437번지 ,중랑구,없음
3610,면목금호어울림아파트,중랑구 면목동 1528번지 ,중랑구,없음
3611,삼호아파트경로당,중랑구 면목동 1513번지 ,중랑구,없음
3612,우정아파트경로당,중랑구 상봉동 496번지 ,중랑구,없음
3613,화랑마을경로당,중랑구 묵동 122-174번지 ,중랑구,없음
3614,제일경로당,중랑구 면목동 1322-34번지 ,중랑구,없음
3615,진로아파트경로당,중랑구 신내동 654번지 ,중랑구,없음
3616,면목2동구립경로당,중랑구 면목동 178-19번지 ,중랑구,없음
3617,신안2차아파트경로당,중랑구 묵동 382번지 ,중랑구,없음
3618,신내건영2차아파트경로당,중랑구 상봉동 63번지 ,중랑구,없음
3619,면목5동제1구립경로당,중랑구 면목동 173-1번지 ,중랑구,없음
3620,동부구립경로당,중랑구 면목동 139-10번지 ,중랑구,없음
3621,신안1차아파트경로당,중랑구 묵동 381번지 ,중랑구,없음
3622,서촌경로당,중랑구 상봉동 27번지 ,중랑구,없음
3623,신내10단지아파트경로당,중랑구 신내동 660번지 ,중랑구,없음
3624,브라운스톤태능아파트경로당,중랑구 묵동 387번지 ,중랑구,없음
3625,중화1동구립경로당,중랑구 중화동 131-10번지 ,중랑구,없음
3626,경원아파트경로당,중랑구 신내동 449-1번지 ,중랑구,없음
3627,면목7동 구립경로당,중랑구 면목동 364-36번지 ,중랑구,없음
3628,풍림아파트경로당,중랑구 면목동 1514번지 ,중랑구,없음
3629,묵동신안3차아파트경로당,중랑구 묵동 384번지 ,중랑구,없음
3630,신성미소지움아파트경로당,중랑구 면목동 1527번지 ,중랑구,없음
3631,신내11단지아파트경로당,중랑구 신내동 661번지 ,중랑구,없음
3632,"두산4,5단지 경로당",중랑구 면목동 1522번지 ,중랑구,없음
3633,면목5동제2구립경로당,중랑구 면목동 160-28번지 ,중랑구,없음
3634,늘푸른동아아파트경로당,중랑구 면목동 715번지 ,중랑구,없음
3635,먹골경로당,중랑구 묵동 49-49번지 ,중랑구,없음
3636,현대아파트경로당,중랑구 면목동 1502번지 ,중랑구,없음
3637,청운경로당,중랑구 상봉동 305-1번지 ,중랑구,없음
3638,신안2차아파트경로당,중랑구 묵동 382번지 ,중랑구,없음
3639,신도아파트경로당,중랑구 묵동 167번지 ,중랑구,없음
3640,대원칸타빌아파트경로당,중랑구 면목동 581번지 ,중랑구,없음
3641,태영데시앙아파트경로당,중랑구 상봉동 497번지 ,중랑구,없음
3642,한신아파트경로당,중랑구 중화동 450번지 ,중랑구,없음
3643,한신아파트경로당,중랑구 면목동 193-1번지 ,중랑구,없음
3644,신내경로당,중랑구 신내동 388-1번지 ,중랑구,없음
3645,현대아이파크경로당,중랑구 묵동 385번지 ,중랑구,없음
3646,용마폭포공원경로당,중랑구 면목동 산 1-4번지 ,중랑구,없음
3647,양지경로당,중랑구 면목동 230-22번지 ,중랑구,없음
3648,우성타운경로당,중랑구 중화동 195-2번지 ,중랑구,없음
3649,대성경로당,중랑구 면목동 347-4번지 ,중랑구,없음
3650,구립학수경로당,중랑구 묵동 247-101번지 ,중랑구,없음
3651,샛별경로당,중랑구 망우동 421-36번지 ,중랑구,없음
3652,상봉1동구립경로당,중랑구 상봉동 228-2번지 ,중랑구,없음
3653,라이프미성경로당,중랑구 신내동 487번지 ,중랑구,없음
3654,은행길경로당,중랑구 면목동 104-21번지 ,중랑구,없음
3655,까치공원경로당,중랑구 면목동 570번지 ,중랑구,없음
3656,금천롯데캐슬골드파크1차아파트경로당,금천구 독산동 ,금천구,없음
3657,이수힐스테이트아파트 경로당,동작구 동작동 ,동작구,없음
3658,마곡힐스테이트경로당,강서구 마곡동 ,강서구,없음
3659,불광롯데캐슬아파트경로당,은평구 불광동 ,은평구,없음
3660,북한산힐스테이트3차 3207동 경로당,은평구 불광동 북한산현대힐스테이트3차아파트 3207동 ,은평구,없음
3661,샘마을 경로당,서초구 내곡동 1-2125 ,서초구,없음
3662,청담래미안로이뷰아파트경로당,강남구 청담동 청담래미안로이뷰 ,강남구,없음
3663,한신휴플러스8단지아파트경로당,강남구 율현동 강남한신휴플러스8단지 ,강남구,없음
3664,은평지웰테라스 경로당,은평구 진관동 은평지웰테라스동 202호,은평구,없음
3665,북한산힐스테이트7차116동경로당,은평구 불광동 북한산 힐스테이트7차116동 116동 ,은평구,없음
3666,구립경원경로당,영등포구 문래동3가 ,영등포구,없음
3667,아크로리버파크 경로당,서초구 반포동 ,서초구,없음
3668,신사 대주파크빌 경로당,은평구 신사동 대주파크빌 ,은평구,없음
3669,은평뉴타운 폭포동 제3경로당,은평구 진관동 은평뉴타운 폭포동 ,은평구,없음
3670,래미안힐스테이트고덕(남)경로당,강동구 고덕동 ,강동구,없음
3671,래미안힐스테이트고덕(여)경로당,강동구 고덕동 ,강동구,없음
3672,래미안프레비뉴경로당,영등포구 신길동 ,영등포구,없음
3673,구립대신경로당,영등포구 신길동 ,영등포구,없음
3674,공덕5차래미안B경로당,마포구 공덕동 래미안 공덕5차 ,마포구,없음
3675,공덕자이경로당,마포구 아현동 ,마포구,없음
3676,증산제2경로당,은평구 증산동 ,은평구,없음
3677,불광롯데캐슬4차아파트경로당,은평구 불광동 201동 ,은평구,없음
3678,상암휴먼시아1단지@경로당,마포구 상암동 휴먼시아 ,마포구,없음
3679,래미안대치팰리스2단지경로당,강남구 대치동 ,강남구,없음
3680,래미안대치팰리스1단지 경로당,강남구 대치동 ,강남구,없음
3681,덕수궁롯데캐슬아파트 경로당,중구 순화동 덕수궁롯데캐슬 ,중구,없음
3682,래미안 신반포팰리스 경로당,서초구 잠원동 ,서초구,없음
3683,상암월드컵파크10단지@경로당,마포구 상암동 상암월드컵파크10단지 ,마포구,없음
3684,서초포레스타2단지(아) 경로당,서초구 내곡동 서초포레스타2단지(아) 경로당 212동 ,서초구,없음
3685,불광SH빌경로당,은평구 불광동 불광에스에이치빌 ,은평구,없음
3686,독산동한양수자인아파트경로당,금천구 독산동 한양수자인 ,금천구,없음
3687,라이프씨티아파트경로당,은평구 갈현동 ,은평구,없음
3688,홍제성원아파트경로당,서대문구 홍제동 ,서대문구,없음
3689,홍남경로당,서대문구 홍은동 ,서대문구,없음
3690,신정뉴타운 두산위브아파트경로당,양천구 신월동 ,양천구,없음
3691,목동힐스테이트아파트경로당,양천구 신정동 목동힐스테이트 ,양천구,없음
3692,동원데자뷰아파트 경로당(신월5동),양천구 신월동 수명산 동원데쟈뷰 아파트 ,양천구,없음
3693,강서쌍용예가아파트경로당,강서구 염창동 ,강서구,없음
3694,상암월드컵파크9단지경로당,마포구 상암동 상암월드컵파크9단지 ,마포구,없음
3695,에스티움경로당,영등포구 신길동 ,영등포구,없음
3696,에스티움2경로당,영등포구 신길동 ,영등포구,없음
3697,힐스테이트백련산4차아파트경로당,은평구 응암동 ,은평구,없음
3698,상암카이저팰리스클래식경로당,마포구 상암동 ,마포구,없음
3699,신동방경로당,성북구 장위동 ,성북구,없음
3700,휴플러스6단지경로당,강남구 율현동 강남한신휴플러스6단지 ,강남구,없음
3701,강남한양수자인(아)경로당,강남구 자곡동 ,강남구,없음
3702,북한산래미안205동경로당,은평구 불광동 205동 ,은평구,없음
3703,올림픽파크한양수자인경로당,강동구 성내동 ,강동구,없음
3704,구립의정경로당,영등포구 신길동 선원 가와인 201호,영등포구,없음
3705,이편한세상보문,성북구 보문동3가 이편한세상보문 101동 ,성북구,없음
3706,마포 래미안 웰스트림 경로당,마포구 현석동 ,마포구,없음
3707,DMC파크뷰자이1단지경로당,서대문구 남가좌동 ,서대문구,없음
3708,둔촌2동 어르신사랑방,강동구 둔촌동 102호,강동구,없음
3709,선린공원 어르신사랑방,강동구 성내동 ,강동구,없음
3710,강일리버파크11단지아파트경로당,강동구 강일동 강일리버파크11단지 ,강동구,없음
3711,텐즈힐 열린 경로당,성동구 하왕십리동 ,성동구,없음
3712,텐즈힐 행복 경로당,성동구 하왕십리동 ,성동구,없음
3713,구립 천호문구거리 경로당,강동구 천호동 ,강동구,없음
3714,서초5차e편한세상 경로당,서초구 서초동 서초5차대림이-편한세상 ,서초구,없음
3715,가좌행복경로당,마포구 성산동 ,마포구,없음
3716,느티나무경로당,마포구 연남동 ,마포구,없음
3717,대원칸타빌1차아파트,양천구 목동 ,양천구,없음
3718,신정숲속마을아파트,양천구 신정동 ,양천구,없음
3719,공덕자이제2경로당,마포구 아현동 ,마포구,없음
3720,천삼 경로당,강동구 천호동 ,강동구,없음
3721,윗반고개마을경로당,강남구 세곡동 ,강남구,없음
3722,LH강남힐스테이트(아)경로당,강남구 자곡동 엘에이치강남힐스테이트 ,강남구,없음
3723,마곡엠밸리5단지(아)경로당,강서구 마곡동 ,강서구,없음
3724,해태경로당,강서구 화곡동 ,강서구,없음
3725,마곡엠밸리1단지 경로당,강서구 마곡동 ,강서구,없음
3726,마곡엠밸리10단지아파트경로당,강서구 마곡동 ,강서구,없음
3727,롯데캐슬헤론(아)경로당,서초구 방배동 롯데캐슬헤론 ,서초구,없음
3728,마포자이2차아파트 경로당,마포구 대흥동 ,마포구,없음
3729,상암휴먼시아2단지(아)경로당,마포구 상암동 휴먼시아 ,마포구,없음
3730,반포힐스테이트 경로당,서초구 반포동 반포 힐스테이트 ,서초구,없음
3731,서강해모로아파트 경로당,마포구 창전동 서강 해모로아파트 경로당 ,마포구,없음
3732,다솜경로당,마포구 성산동 ,마포구,없음
3733,마포래미안푸르지오아파트2단지경로당,마포구 아현동 마포래미안푸르지오 ,마포구,없음
3734,마포래미안푸르지오아파트4단지경로당,마포구 아현동 마포래미안푸르지오 ,마포구,없음
3735,SH공사공덕2차삼성아파트 경로당,마포구 공덕동 ,마포구,없음
3736,창전삼성(아)경로당,마포구 창전동 창전동삼성아파트 ,마포구,없음
3737,한강밤섬자이아파트 경로당,마포구 하중동 한강밤섬자이 ,마포구,없음
3738,공덕5차래미안아파트A 경로당,마포구 공덕동 래미안 공덕5차 ,마포구,없음
3739,월드컵아이파크106동 경로당,마포구 성산동 월드컵아이파크 ,마포구,없음
3740,상암월드컵파크11단지 경로당,마포구 상암동 상암월드컵파크11단지 ,마포구,없음
3741,상암월드컵파크12단지(아)경로당,마포구 상암동 상암월드컵파크12단지 ,마포구,없음
3742,아현 아이파크 경로당,마포구 아현동 104동 ,마포구,없음
3743,구파발10단 제3경로당,은평구 진관동 은평뉴타운구파발 ,은평구,없음
3744,정릉꿈에그린(아)경로당,성북구 정릉동 정릉꿈에그린 ,성북구,없음
0,경남경로당,강북구 삼양로74길 8 (미아동 경남아너스빌),강북구,070-4248-6800
1,래미안미아1차경로당,강북구 삼양로 256 (미아동 삼성래미안),강북구,980-1295
2,미송경로당,강북구 인수봉로 42 (미아동),강북구,985-2476
3,미아벽산경로당,강북구 솔샘로 159 (미아동 벽산라이브파크),강북구,945-6365
4,미양할머니경로당,강북구 삼양로35가길 7-4 (미아동),강북구,984-5212
5,삼일경로당,강북구 삼양로41길 61 (미아동),강북구,988-2328
6,솔샘경로당,강북구 솔샘로 159 (미아동 벽산라이브파크),강북구,986-1977
7,실개울경로당,강북구 삼양로43길 41-1 (미아동),강북구,988-0235
8,은혜경로당,삼양로63가길 7-26 (미아동) 스카이팰리스11A 101호,강북구,989-9924
9,청암경로당,강북구 솔매로22길 11 (미아동) ,강북구,980-2905
10,팔팔경로당,강북구 인수봉로 36 (미아동),강북구,982-0037
11,미동경로당,강북구 삼양로 74길 74,강북구,982-6760
12,미아경로당,강북구 솔매로 147-11 (미아동) ,강북구,988-4696
13,미아요진경로당,강북구 도봉로76길 52 (미아동 미아요진아파트),강북구,985-9691(관)
14,신일해피트리경로당,강북구 오패산로 60길 22 (미아동 신일해피트리아파트),강북구,987-0088
15,요한경로당,강북구 도봉로49길?62 (미아동 미아3동천주교교회),강북구,989-2278
16,운산경로당,강북구 도봉로72길 14-4 (미아동),강북구,989-4953
17,율곡경로당,강북구 오패산로52아길 11 (미아동),강북구,983-0797
18,한빛경로당,강북구 솔매로 43길 25 (미아동),강북구,986-8224
19,미아현대경로당,사용함(미아동 미아현대아파트),강북구,985-4066
20,경남아너스빌경로당,강북구 오패산로30길 30 (미아동 경남아너스빌아파트),강북구,6318-7448
21,구봉경로당,강북구 오현로9길 97 (미아동 월드아트빌) 101호,강북구,986-5823
22,방천경로당,강북구 월계로7길 39-9 (미아동),강북구,945-6856
23,벽오산경로당,강북구 월계로21나길 30 (미아동) ,강북구,985-5655
24,송중경로당,강북구 도봉로34길 25-3 (미아동),강북구,982-2475 986-0111(2층)
25,원송경로당,강북구 오패산로 156-3,강북구,981-5925
26,한일U&IA경로당,강북구 월계로21가길 41 (미아동 미아한일유앤아이),강북구,982-2456
27,꿈의숲롯데캐슬경로당,강북구 오현로 56 (미아동 꿈의숲롯데캐슬),강북구,980-2488
28,미아동부센트레빌경로당,강북구 숭인로7가길 37 (미아동 미아 동부센트레빌),강북구,982-7711
29,성우경로당,강북구 삼양로24길 19 (미아동 현대성우아파트),강북구,988-9855
30,솔샘길경로당,강북구 솔샘로 277-1 (미아동) ,강북구,980-3037
31,송암경로당,강북구 삼양로24길 4-6 (미아동),강북구,981-7916
32,송천경로당,강북구 솔샘로60길 18-12 (미아동),강북구,980-6757
33,숭인경로당,강북구 삼양로16길 25 (미아동),강북구,980-2328
34,큰마을효심경로당,강북구 삼양로54길 60 (미아동) ,강북구,986-4325
35,건양경로당,강북구 삼양로38길 8-9 (미아동),강북구,989-8288
36,송천센트레빌경로당,강북구 숭인로 39 (미아동 송천센트레빌),강북구,980-2103
37,삼각산아이원경로당,강북구 삼양로19길 113 (미아동 삼각산아이원아파트),강북구,989-1356
38,삼각산암산경로당,강북구 삼양로19길 113 (미아동 삼각산아이원아파트),강북구,988-8813
39,SK북한산시티제1경로당,강북구 솔샘로 174 (미아동 에스케이북한산시티아파트),강북구,984-1590
40,SK북한산시티제2경로당,강북구 솔샘로 174 (미아동 에스케이북한산시티아파트),강북구,945-8852
41,래미안 트리베라1차경로당경로당,강북구 삼양로19길 25 (미아동 삼성 래미안 트리베라 1차),강북구,946-1870
42,래미안 트리베라2차경로당경로당,강북구 삼양로27길 19 (미아동 삼성 래미안 트리베라 2차),강북구,988-7732
43,미아두산위브트레지움경로당경로당,강북구 삼양로27길 80 (미아동 두산위브트레지움),강북구,945-0305
44,동부경로당,강북구 덕릉로52길 46 (번동) ,강북구,999-3400
45,번1동경로당,강북구 덕릉로41길 92 (번동),강북구,994-3161
46,삼성경로당,강북구 도봉로98길 33 (번동 삼성아파트),강북구,990-7283
47,샛강경로당,강북구 도봉로96나길 9-1 (번동) ,강북구,907-4711
48,쌍용경로당,강북구 한천로124나길 10 (번동 쌍용아파트),강북구,996-6066
49,두산위브경로당,강북구 덕릉로41길 15 (번동 수유역 두산위브 아파트),강북구,905-1807
50,교육촌경로당,강북구 오현로25다길 36 (번동) ,강북구,988-1180
51,금호어울림경로당,강북구 오현로31길 85-7 (번동 금호아파트),강북구,987-4104
52,번4단지경로당,강북구 오현로 207 (번동 번동4단지주공아파트),강북구,945-0914
53,번5단지경로당,강북구 한천로115길 20(번동 번동주공5단지아파트),강북구,985-8982
54,샘골경로당,강북구 덕릉로44길 6-4 (번동) ,강북구,988-8827
55,오동경로당,강북구 오현로25나길 92 (번동) ,강북구,986-1789
56,장수촌경로당,강북구 덕릉로 36길 22-4 (번동),강북구,070-8253-0988
57,오동공원현대홈타운경로당,강북구 오현로31길 89 (번동 오동공원 현대홈타운),강북구,980-7767
58,샘마을경로당,강북구 오현로31길 125-14(번동),강북구,980-9234
59,골말경로당,강북구 한천로109길 57-12 (번동),강북구,985-6684
60,기산그린경로당,강북구 월계로37길 137 (번동 기산그린아파트),강북구,6223-8956
61,동문경로당,강북구 오현로 128 (번동 번동동문아파트),강북구,945-6483
62,번2단지경로당,강북구 한천로105길 24 (번동 번동2단지주공아파트),강북구,945-9802
63,번동솔그린경로당,강북구 한천로109길 83 (번동 번동솔그린아파트),강북구,945-2533
64,신원경로당,강북구 월계로37길 87-9 (번동 신원아파트),강북구,985-2659
65,오현경로당,강북구 한천로105길 23 (번동 번동1단지주공아파트),강북구,989-5927
66,한솔솔파크경로당,강북구 오현로 180 (번동 한솔솔파크아파트),강북구,980-7036
67,한양경로당,강북구 한천로109길 69 (번동 한양아파트),강북구,988-1117
68,한진경로당,강북구 월계로37길 61 (번동 번동한진아파트),강북구,987-7175
69,해모로경로당,강북구 오현로 156 (번동 해모로아파트),강북구,984-8723
70,번동3단지경로당,강북구 오현로 208 (번동 번동3단지주공아파트),강북구,984-6152
71,삼흥경로당,강북구 삼양로77길 111 (수유동 삼흥연립2단지),강북구,945-5888
72,큰무네미경로당,강북구 도봉로71가길 30-9 (수유동),강북구,988-2122
73,수유경로당,강북구 인수봉로20길 32 (수유동) ,강북구,986-2803
74,수유장수경로당,강북구 삼양로80나길 56 (수유동),강북구,989-5243
75,화계경로당,강북구 인수봉로38가길 28 (수유동),강북구,980-1811
76,6.25참전용사회경로당,강북구 노해로 115 (수유동 대한민국 재향군인회 건물 옥상),강북구,907-7947
77,물댐길경로당,강북구 한천로170가길 4 (수유동) ,강북구,998-0538
78,벽산201경로당,강북구 삼양로 116길 20 (수유동 수유 벽산201 아파트),강북구,995-8741
79,벽산경로당,강북구 삼각산로 143-1 (수유동 수유벽산아파트),강북구,907-3557
80,삼성장수경로당,강북구 한천로159길 8 (수유동 수유삼성아파트),강북구,6224-4254
81,수유2동경로당,강북구 노해로 23길94 (수유동) ,강북구,903-7167
82,수유삼성경로당,강북구 한천로159길 8 (수유동 래미안수유아파트 106동 옆),강북구,991-3515
83,상산경로당,강북구 노해로8길 23 (수유동) ,강북구,904-9002
84,수유3동경로당,강북구 삼양로98길 22 (수유동),강북구,902-7853
85,은모루경로당,강북구 도봉로95길 38-1 (수유동) ,강북구,998-1196
86,대우경로당,강북구 삼양로149길 45 (우이동 우이동푸르지오),강북구,996-5255
87,백운경로당,강북구 삼양로159길 9 (우이동),강북구,900-1138
88,삼각산경로당,강북구 삼양로 515-21 (우이동) ,강북구,904-1071
89,소귓골경로당,강북구 삼양로173가길 55 (우이동) 메이트하우스 102동 201호,강북구,905-0637
90,우이경로당,강북구 삼양로170길 23 (우이동),강북구,903-1007
91,우이성원경로당,강북구 삼양로 658 (우이동 성원아파트),강북구,999-2139 9085441(할)
92,가오경로당,강북구 삼양로111길 56 (수유동),강북구,905-4967
93,극동경로당,강북구 인수봉로72길 4 (수유동 극동아파트),강북구,990-5283
94,무너미경로당,강북구 인수봉로55가길 21 (수유동),강북구,900-4046
95,삼산경로당,강북구 인수봉로79길 62-4 (수유동),강북구,902-5374
96,인수경로당,강북구  인수봉로72길 15-12 (수유동),강북구,908-2263
97,제일경로당,강북구 삼양로87길 3 (수유동),강북구,996-4132
98,한신경로당,강북구 인수봉로48길 5-6 (수유동) ,강북구,994-0090
